X,Y,OBJECTID,FacilityID,FacilityNa,FullAddres,Municipali,OwnerName,OwnerType,Phone,Website,ContactNam,ContactEma,Helipad,Dock,TotalBeds,ICUBeds,AcuteBeds,TotalDocto,TotalNurse,PPESuitCou,Ventilator,N95MaskCou,FaceShield,MorgueCabi,EmergBeds,RegionalDi,Province,Status,RevisedDat,OpenArea,HospitalNu,Teaching,OperatingR,ERCapacity,HealthRegi,HealthRe_1,Type1,Type2,Type3,Type4,Type5,Descriptio,Source
-80.017005489,45.3410870930001,1, ,West Parry Sound Health Centre,6 Albert St,Parry Sound, , ,705-746-9321,https://data.ontario.ca/dataset/hospital-locations, , , , ,90,0,63,0,0,0,0,0,0,0,0,North Bay Parry Sound District Health Unit,ON, ,,0,0, ,0,0,0,0, , , , , , , 
-92.8387115629999,49.769512084,2, ,Dryden Regional Health Centre,58 Goodall Street,Dryden, , ,807-223-8200,https://data.ontario.ca/dataset/hospital-locations, , , , ,41,0,41,0,0,0,0,0,0,0,0,Northwestern Health Unit,ON, ,,0,0, ,0,0,0,0, , , , , , , 
-81.788972009,42.683216138,3, ,Four Counties Health Services Corporation,1824 Concession Dr,Newbury, , ,519-693-4441,https://data.ontario.ca/dataset/hospital-locations, , , , ,12,0,12,0,0,0,0,0,0,0,0, ,ON, ,,0,0, ,0,0,0,0, , , , , , , 
-85.824086257,49.1273271590001,4, ,Sante Manitouwadge Health,1 Healthcare Cres.,Manitouwadge, , ,807-826-3251,https://data.ontario.ca/dataset/hospital-locations, , , , ,18,0,9,0,0,0,0,0,0,0,0,Thunder Bay District Health Unit,ON, ,,0,0, ,0,0,0,0, , , , , , , 
-74.718615281,45.029030527,5, ,Cornwall Community Hospital,840 McConnell Avenue,Cornwall, , ,613-930-4502,https://data.ontario.ca/dataset/hospital-locations, , , , ,140,0,140,0,0,0,0,0,0,0,0,Eastern Ontario,ON, ,,0,0, ,0,0,0,0, , , , , , , 
-76.352201556,45.440927931,6, ,Arnprior & District Memorial Hospital,350 John Street North,Arnprior, , ,613-623-3166,https://data.ontario.ca/dataset/hospital-locations, , , , ,44,0,44,0,0,0,0,0,0,0,0,Renfrew County and District Health Unit,ON, ,,0,0, ,0,0,0,0, , , , , , , 
-79.916561096,46.3728867820001,7, ,West Nipissing General Hospital,725 Coursol Road,Sturgeon Falls, , ,705-753-3110,https://data.ontario.ca/dataset/hospital-locations, , , , ,50,0,29,0,0,0,0,0,0,0,0,North Bay Parry Sound District Health Unit,ON, ,,0,0, ,0,0,0,0, , , , , , , 
-76.527882817,44.2161736360001,8, ,Providence Care Hospital,752 King Street West,Kingston, , ,613-544-4900,https://data.ontario.ca/dataset/hospital-locations, , , , ,270,0,0,0,0,0,0,0,0,0,0,"Kingston, Frontenac and Lennox and Addington",ON, ,,0,0, ,0,0,0,0, , , , , , , 
-79.509260822,43.689847426,9, ,West Park  Healthcare Centre,82 Buttonwood Avenue,Toronto, , , ,https://data.ontario.ca/dataset/hospital-locations, , , , ,0,0,0,0,0,0,0,0,0,0,0, ,ON, ,,0,0, ,0,0,0,0, , , , , , , 
-79.425733647,44.6048212740001,10, ,Orillia Soldiers' Memorial Hospital,170 Colborne Street West,Orillia, , ,705-325-2201,https://data.ontario.ca/dataset/hospital-locations, , , , ,139,0,87,0,0,0,0,0,0,0,0,Simcoe Muskoka District Health Unit,ON, ,,0,0, ,0,0,0,0, , , , , , , 
-76.189938485,45.2284927010001,11, ,Almonte General Hospital,75 Spring Street,Almonte, , ,613-256-2500,https://data.ontario.ca/dataset/hospital-locations, , , , ,164,0,52,0,0,0,0,0,0,0,0,"Leeds, Grenville and Lanark",ON, ,,0,0, ,0,0,0,0, , , , , , , 
-79.8022990969999,43.316824329,12, ,Joseph Brant Hospital,1230 North Shore Blvd,Burlington, , , ,https://data.ontario.ca/dataset/hospital-locations, , , , ,0,0,0,0,0,0,0,0,0,0,0, ,ON, ,,0,0, ,0,0,0,0, , , , , , , 
-80.512396183,43.456507098,13, ,Grand River Hospital,835 King St. West,Kitchener, , , ,https://data.ontario.ca/dataset/hospital-locations, , , , ,0,0,0,0,0,0,0,0,0,0,0, ,ON, ,,0,0, ,0,0,0,0, , , , , , , 
-79.243405794,43.1230997980001,14, ,Hotel Dieu Shaver Health and Rehabilitation Centre,541 Glenridge Avenue,St. Catharines, , ,905-685-1381,https://data.ontario.ca/dataset/hospital-locations, , , , ,134,0,97,0,0,0,0,0,0,0,0, ,ON, ,,0,0, ,0,0,0,0, , , , , , , 
-80.256852061,43.557674967,15, ,Homewood Health Centre,150 Delhi Street,Guelph, , , ,https://data.ontario.ca/dataset/hospital-locations, , , , ,0,0,0,0,0,0,0,0,0,0,0, ,ON, ,,0,0, ,0,0,0,0, , , , , , , 
-77.7902087589999,44.3124895730001,16, ,Campbellford Memorial Hospital,146 Oliver Road,Campbellford, , ,705-653-1140,https://data.ontario.ca/dataset/hospital-locations, , , , ,11,0,11,0,0,0,0,0,0,0,0,"Haliburton, Kawartha, Pine Ridge District Health Unit",ON, ,,0,0, ,0,0,0,0, , , , , , , 
-79.375757021,43.7213627360001,17, ,Sunnybrook Health Sciences Centre,2075 Bayview Avenue,Toronto, , , ,https://data.ontario.ca/dataset/hospital-locations, , , , ,0,0,0,0,0,0,0,0,0,0,0, ,ON, ,,0,0, ,0,0,0,0, , , , , , , 
-89.222350115,48.4379773910001,18, ,St. Joseph's Care Group,35 Algoma St. N,Thunder Bay, , ,807-343-2431,https://data.ontario.ca/dataset/hospital-locations, , , , ,269,0,0,0,0,0,0,0,0,0,0,Thunder Bay District Health Unit,ON, ,,0,0, ,0,0,0,0, , , , , , , 
-80.7538806699999,43.1086615250001,19, ,Woodstock General Hospital,310 Juliana Drive,Woodstock, , ,519-421-4211,https://data.ontario.ca/dataset/hospital-locations, , , , ,178,0,178,0,0,0,0,0,0,0,0, ,ON, ,,0,0, ,0,0,0,0, , , , , , , 
-81.180543036,42.7631272,20, ,St Thomas-Elgin General Hospital,189 Elm Street,St. Thomas, , ,519-631-2030,https://data.ontario.ca/dataset/hospital-locations, , , , ,157,0,142,0,0,0,0,0,0,0,0, ,ON, ,,0,0, ,0,0,0,0, , , , , , , 
-80.501447356,43.4379885760001,21, ,St. Mary's General Hospital,911 Queen's Boulevard,Kitchener, , , ,https://data.ontario.ca/dataset/hospital-locations, , , , ,0,0,0,0,0,0,0,0,0,0,0, ,ON, ,,0,0, ,0,0,0,0, , , , , , , 
-75.64737422,45.3994273540001,22, ,The Ottawa Hospital,501 Smyth Rd,Ottawa, , ,613-722-7000,https://data.ontario.ca/dataset/hospital-locations, , , , ,1232,0,1232,0,0,0,0,0,0,0,0, ,ON, ,,0,0, ,0,0,0,0, , , , , , , 
-79.879622749,47.823442476,23, ,Englehart and District Hospital,61 Fifth Street,Englehart, , ,705-544-2301,https://data.ontario.ca/dataset/hospital-locations, , , , ,29,0,29,0,0,0,0,0,0,0,0,Timiskaming Health Unit,ON, ,,0,0, ,0,0,0,0, , , , , , , 
-88.276005138,49.0155701510001,24, ,Nipigon District Memorial Hospital,125 Hogan Road,Nipigon, , ,807-887-3026,https://data.ontario.ca/dataset/hospital-locations, , , , ,18,0,8,0,0,0,0,0,0,0,0,Thunder Bay District Health Unit,ON, ,,0,0, ,0,0,0,0, , , , , , , 
-81.705271592,43.749923322,25, ,Alexandra Marine and General Hospital,120 Napier Street,Goderich, , ,519-524-8323,https://data.ontario.ca/dataset/hospital-locations, , , , ,42,0,42,0,0,0,0,0,0,0,0, ,ON, ,,0,0, ,0,0,0,0, , , , , , , 
-79.37769352,43.6536733,26, ,Providence St. Joseph's and St. Michael's Healthcare,30 Bond Street,Toronto, , , ,https://data.ontario.ca/dataset/hospital-locations, , , , ,0,0,0,0,0,0,0,0,0,0,0, ,ON, ,,0,0, ,0,0,0,0, , , , , , , 
-76.697299075,45.482501922,27, ,Renfrew Victoria  Hospital,499 Raglan Street,North Renfrew, , ,613-432-4851,https://data.ontario.ca/dataset/hospital-locations, , , , ,31,0,31,0,0,0,0,0,0,0,0,Renfrew County and District Health Unit,ON, ,,0,0, ,0,0,0,0, , , , , , , 
-83.414873853,47.8411112920001,28, ,Services De Sante De Chapleau  Health Services,6 Broomhead Road,Chapleau, , ,705-864-1520,https://data.ontario.ca/dataset/hospital-locations, , , , ,37,0,12,0,0,0,0,0,0,0,0,Sudbury and District Health Unit,ON, ,,0,0, ,0,0,0,0, , , , , , , 
-81.926887571,45.9783639930001,29, ,Manitoulin Health Centre,11 Meredith Street,Little Current, , ,705-368-2300,https://data.ontario.ca/dataset/hospital-locations, , , , ,32,0,26,0,0,0,0,0,0,0,0,Sudbury and District Health Unit,ON, ,,0,0, ,0,0,0,0, , , , , , , 
-81.633613649,42.961098942,30, ,Strathroy Middlesex General Hospital,395 Carrie Street,Strathroy, , ,519-245-5295,https://data.ontario.ca/dataset/hospital-locations, , , , ,54,0,54,0,0,0,0,0,0,0,0, ,ON, ,,0,0, ,0,0,0,0, , , , , , , 
-81.0282112519999,44.142036191,31, ,Hanover and District Hospital,90-7th Avenue,Hanover, , ,519-364-2340,https://data.ontario.ca/dataset/hospital-locations, , , , ,28,0,28,0,0,0,0,0,0,0,0, ,ON, ,,0,0, ,0,0,0,0, , , , , , , 
-74.6453102789999,45.3070092780001,32, ,Glengarry Memorial Hospital,20260 County Road 43,Alexandria, , ,613-525-2222,https://data.ontario.ca/dataset/hospital-locations, , , , ,37,0,37,0,0,0,0,0,0,0,0,Eastern Ontario,ON, ,,0,0, ,0,0,0,0, , , , , , , 
-75.8047511669999,45.333904035,33, ,Queensway-Carleton Hospital,3045 Baseline Road,Ottawa, , ,613-721-2000,https://data.ontario.ca/dataset/hospital-locations, , , , ,264,0,264,0,0,0,0,0,0,0,0,Ottawa,ON, ,,0,0, ,0,0,0,0, , , , , , , 
-75.681471667,44.596860055,34, ,Brockville General Hospital,75 Charles Street,Brockville, , ,613-345-5649,https://data.ontario.ca/dataset/hospital-locations, , , , ,149,0,149,0,0,0,0,0,0,0,0,"Leeds, Lanark, and Grenville",ON, ,,0,0, ,0,0,0,0, , , , , , , 
-81.542844948,43.6216537610001,35, ,Clinton Public  Hospital,98 Shipley Street,Clinton, , ,519-482-3440,https://data.ontario.ca/dataset/hospital-locations, , , , ,20,0,20,0,0,0,0,0,0,0,0,Huron Perth Healthcare Alliance,ON, ,,0,0, ,0,0,0,0, , , , , , , 
-81.2544398169999,43.0008128540001,36, ,St. Joseph's Health Care London - St. Joseph’s Hospital,268 Grosvenor Street,London, , ,519-646-6100,https://data.ontario.ca/dataset/hospital-locations, , , , ,21,0,21,0,0,0,0,0,0,0,0, ,ON, ,,0,0, ,0,0,0,0, , , , , , , 
-79.374256197,43.718050453,37, ,Holland Bloorview Kids Rehabilitation Hospital,150 Kilgour Road,Toronto, , ,416-425-6220,https://data.ontario.ca/dataset/hospital-locations, , , , ,20,0,0,0,0,0,0,0,0,0,0,City of Toronto Health Unit,ON, ,,0,0, ,0,0,0,0, , , , , , , 
-80.966807438,46.466622579,38, ,St. Joseph's Continuing Care Centre Of Sudbury,1140 South Bay Road,Sudbury, , ,705-674-2846,https://data.ontario.ca/dataset/hospital-locations, , , , ,64,0,0,0,0,0,0,0,0,0,0,Sudbury and District Health Unit,ON, ,,0,0, ,0,0,0,0, , , , , , , 
-80.685264011,48.769016272,39, ,Anson General Hospital,58 Anson Drive,Iroquois Falls, , ,705-258-3911,https://data.ontario.ca/dataset/hospital-locations, , , , ,34,0,34,0,0,0,0,0,0,0,0,Porcupine Health Unit,ON, ,,0,0, ,0,0,0,0, , , , , , , 
-79.625481284,42.9055269080001,40, ,Haldimand War Memorial Hospital,206 John Street,Dunnville, , ,905-774-7431,https://data.ontario.ca/dataset/hospital-locations, , , , ,35,0,29,0,0,0,0,0,0,0,0, ,ON, ,,0,0, ,0,0,0,0, , , , , , , 
-79.913930195,44.742107242,41, ,Georgian Bay General Hospital,1112 St Andrew's Dr,Midland, , ,705-526-1300,https://data.ontario.ca/dataset/hospital-locations, , , , ,105,0,66,0,0,0,0,0,0,0,0,Grey Bruce Health Unit,ON, ,,0,0, ,0,0,0,0, , , , , , , 
-80.014556344,48.1534278400001,42, ,Kirkland and District Hospital,145 Government Road East,Kirkland Lake, , ,705-567-5251,https://data.ontario.ca/dataset/hospital-locations, , , , ,38,0,38,0,0,0,0,0,0,0,0,Timiskaming Health Unit,ON, ,,0,0, ,0,0,0,0, , , , , , , 
-93.3917683349999,48.6064838190001,43, ,Riverside Health Care Facilities Inc,110 Victoria Avenue,Fort Frances, , ,807-274-3266,https://data.ontario.ca/dataset/hospital-locations, , , , ,112,0,75,0,0,0,0,0,0,0,0,Northwestern Health Unit,ON, ,,0,0, ,0,0,0,0, , , , , , , 
-80.9114847339999,44.5695089880001,44, ,Grey Bruce Health Services - Owen Sound Hospital,1800 8th Street East,Owen Sound, , ,519-376-2121,https://data.ontario.ca/dataset/hospital-locations, , , , ,244,0,244,0,0,0,0,0,0,0,0, ,ON, ,,0,0, ,0,0,0,0, , , , , , , 
-84.772014091,48.0009123610001,45, ,Lady Dunn Health Centre,17 Government Road,Wawa, , ,705-856-2335,https://data.ontario.ca/dataset/hospital-locations, , , , ,28,0,12,0,0,0,0,0,0,0,0,The District of Algoma Health Unit,ON, ,,0,0, ,0,0,0,0, , , , , , , 
-75.352396996,45.0884614120001,46, ,Winchester District Memorial Hospital,566 Louise Street,Winchester, , ,613-774-2420,https://data.ontario.ca/dataset/hospital-locations, , , , ,55,0,33,0,0,0,0,0,0,0,0,Eastern Ontario,ON, ,,0,0, ,0,0,0,0, , , , , , , 
-93.822302496,51.0131261550001,47, ,Red Lake Margaret Cochenour Memorial Hospital,51 - Highway 105,Red Lake, , ,807-727-2066,https://data.ontario.ca/dataset/hospital-locations, , , , ,17,0,17,0,0,0,0,0,0,0,0,Northwestern Health Unit,ON, ,,0,0, ,0,0,0,0, , , , , , , 
-78.198419991,43.9775087400001,48, ,Northumberland Hills Hospital,1000 DePalma Drive,Cobourg, , ,905-372-6811,https://data.ontario.ca/dataset/hospital-locations, , , , ,92,0,52,0,0,0,0,0,0,0,0,"Haliburton, Kawartha, Pine Ridge District Health Unit",ON, ,,0,0, ,0,0,0,0, , , , , , , 
-80.275810524,43.152618255,49, ,Brant Community Healthcare System,200 Terrace Hill Street,Brantford, , ,519-751-5544,https://data.ontario.ca/dataset/hospital-locations, , , , ,264,0,200,0,0,0,0,0,0,0,0, ,ON, ,,0,0, ,0,0,0,0, , , , , , , 
-81.3138401149999,48.487712107,50, ,Timmins and District Hospital,700 Ross Ave. E.,Timmins, , ,705-267-2131,https://data.ontario.ca/dataset/hospital-locations, , , , ,151,0,72,0,0,0,0,0,0,0,0,Porcupine Health Unit,ON, ,,0,0, ,0,0,0,0, , , , , , , 
-80.203367997,44.4996020300001,51, ,Collingwood General and Marine Hospital,459 Hume Street,Collingwood, , ,705-445-2550,https://data.ontario.ca/dataset/hospital-locations, , , , ,75,0,70,0,0,0,0,0,0,0,0,Simcoe Muskoka District Health Unit,ON, ,,0,0, ,0,0,0,0, , , , , , , 
-79.8712127219999,43.2484965990001,52, ,St. Joseph's Healthcare Hamilton,50 Charlton Avenue East,Hamilton, , , ,https://data.ontario.ca/dataset/hospital-locations, , , , ,0,0,0,0,0,0,0,0,0,0,0, ,ON, ,,0,0, ,0,0,0,0, , , , , , , 
-79.387507044,43.6572643760001,53, ,The Hospital For Sick Children,555 University Avenue,Toronto, , , ,https://data.ontario.ca/dataset/hospital-locations, , , , ,0,0,0,0,0,0,0,0,0,0,0, ,ON, ,,0,0, ,0,0,0,0, , , , , , , 
-79.510286774,43.709269218,54, ,Humber River Hospital,200 Church Street,Etobicoke, , , ,https://data.ontario.ca/dataset/hospital-locations, , , , ,0,0,0,0,0,0,0,0,0,0,0, ,ON, ,,0,0, ,0,0,0,0, , , , , , , 
-83.679625971,49.6848176550001,55, ,Notre Dame Hospital,1405 Edward Street,Hearst, , ,705-362-4291,https://data.ontario.ca/dataset/hospital-locations, , , , ,44,0,23,0,0,0,0,0,0,0,0,Porcupine Health Unit,ON, ,,0,0, ,0,0,0,0, , , , , , , 
-79.929704284,44.8030074860001,56, ,Waypoint Centre for Mental Health Care,500 Church Street,Penetanguishene, , ,705-549-3181,https://data.ontario.ca/dataset/hospital-locations, , , , ,301,0,0,0,0,0,0,0,0,0,0,Grey Bruce Health Unit,ON, ,,0,0, ,0,0,0,0, , , , , , , 
-81.625263042,44.189148801,57, ,South Bruce Grey Health Centre - Kincardine and District General Hospital,43 Queen Street North,Kincardine, , ,519-396-3331,https://data.ontario.ca/dataset/hospital-locations, , , , ,17,0,17,0,0,0,0,0,0,0,0,South Bruce Grey Health,ON, ,,0,0, ,0,0,0,0, , , , , , , 
-79.343701029,43.7085726130001,58, ,St. Joseph's Private Hospital and Infirmary,101 Thorncliffe Park Drive East,East York, , , ,https://data.ontario.ca/dataset/hospital-locations, , , , ,0,0,0,0,0,0,0,0,0,0,0, ,ON, ,,0,0, ,0,0,0,0, , , , , , , 
-80.995202535,43.368199803,59, ,Stratford General Hospital,46 General Hospital Drive,Stratford, , ,519-272-8210,https://data.ontario.ca/dataset/hospital-locations, , , , ,118,0,118,0,0,0,0,0,0,0,0,Huron Perth Healthcare Alliance,ON, ,,0,0, ,0,0,0,0, , , , , , , 
-83.063232015,42.286716266,60, ,Hotel-Dieu Grace Healthcare,1453 Prince Road,Windsor, , ,519-257-5111,https://data.ontario.ca/dataset/hospital-locations, , , , ,259,0,0,0,0,0,0,0,0,0,0, ,ON, ,,0,0, ,0,0,0,0, , , , , , , 
-79.362654521,43.76937845,61, ,North York General Hospital,4001 Leslie Street,Toronto, , ,416-756-6000,https://data.ontario.ca/dataset/hospital-locations, , , , ,410,0,314,0,0,0,0,0,0,0,0,City of Toronto Health Unit,ON, ,,0,0, ,0,0,0,0, , , , , , , 
-79.206425054,45.338846303,62, ,Muskoka Algonquin Healthcare,100 Frank Miller Drive,Huntsville, , ,705-789-2311,https://data.ontario.ca/dataset/hospital-locations, , , , ,96,0,73,0,0,0,0,0,0,0,0,Simcoe Muskoka District Health Unit,ON, ,,0,0, ,0,0,0,0, , , , , , , 
-87.106534647,48.780125807,63, ,North of Superior Healthcare Group,2 Cartier Drive,Terrace Bay, , ,807-825-3273,https://data.ontario.ca/dataset/hospital-locations, , , , ,44,0,17,0,0,0,0,0,0,0,0,Thunder Bay District Health Unit,ON, ,,0,0, ,0,0,0,0, , , , , , , 
-76.13611786,45.1407796880001,64, ,Carleton Place and District Memorial Hospital,211 Lake Avenue East,Carleton Place, , ,613-257-2200,https://data.ontario.ca/dataset/hospital-locations, , , , ,22,0,22,0,0,0,0,0,0,0,0,"Leeds, Grenville and Lanark",ON, ,,0,0, ,0,0,0,0, , , , , , , 
-79.3873404079999,43.661543797,65, ,Women's College Hospital,76 Grenville Street,Toronto, , , ,https://data.ontario.ca/dataset/hospital-locations, , , , ,0,0,0,0,0,0,0,0,0,0,0, ,ON, ,,0,0, ,0,0,0,0, , , , , , , 
-74.7318034849999,45.015202425,66, ,St Joseph's Continuing Care Centre,14 York St,Cornwall, , ,613-933-6040,https://data.ontario.ca/dataset/hospital-locations, , , , ,208,0,0,0,0,0,0,0,0,0,0,Eastern Ontario,ON, ,,0,0, ,0,0,0,0, , , , , , , 
-81.021429842,49.0708329110001,67, ,Lady Minto Hospital,241 8th St,Cochrane, , ,705-272-7200,https://data.ontario.ca/dataset/hospital-locations, , , , ,33,0,33,0,0,0,0,0,0,0,0,Porcupine Health Unit,ON, ,,0,0, ,0,0,0,0, , , , , , , 
-75.652759121,45.3990551530001,68, ,Children's Hospital of Eastern Ontario,401 Smyth Road,Ottawa, , ,613-737-7600,https://data.ontario.ca/dataset/hospital-locations, , , , ,0,0,0,0,0,0,0,0,0,0,0,Ottawa,ON, ,,0,0, ,0,0,0,0, , , , , , , 
-79.6929877749999,47.495372866,69, ,Temiskaming Hospital,421 Shepherdson Road,New Liskeard, , ,705-647-8121,https://data.ontario.ca/dataset/hospital-locations, , , , ,59,0,43,0,0,0,0,0,0,0,0,Timiskaming Health Unit,ON, ,,0,0, ,0,0,0,0, , , , , , , 
-76.965892056,44.2403780970001,70, ,Lennox and Addington County General Hospital,8 Richmond Park Dr,Napanee, , ,613-354-3301,https://data.ontario.ca/dataset/hospital-locations, , , , ,52,0,30,0,0,0,0,0,0,0,0,"Kingston, Frontenac and Lennox and Addington",ON, ,,0,0, ,0,0,0,0, , , , , , , 
-80.314216754,42.8352427180001,71, ,Norfolk General Hospital,365 West Street,Simcoe, , ,519-426-0130,https://data.ontario.ca/dataset/hospital-locations, , , , ,106,0,61,0,0,0,0,0,0,0,0, ,ON, ,,0,0, ,0,0,0,0, , , , , , , 
-79.4180379599999,43.6439725970001,72, ,Centre For Addiction and Mental Health,1001 Queen Street West,Toronto, , , ,https://data.ontario.ca/dataset/hospital-locations, , , , ,0,0,0,0,0,0,0,0,0,0,0, ,ON, ,,0,0, ,0,0,0,0, , , , , , , 
-94.4991915859999,49.7679295830001,73, ,Lake-Of-The-Woods District Hospital,21 Sylvan Street,Kenora, , ,807-468-9861,https://data.ontario.ca/dataset/hospital-locations, , , , ,72,0,50,0,0,0,0,0,0,0,0,Northwestern Health Unit,ON, ,,0,0, ,0,0,0,0, , , , , , , 
-80.073951579,43.9195526770001,74, ,Headwaters Health Care Centre,100 Rolling Hills Dr,Orangeville, , , ,https://data.ontario.ca/dataset/hospital-locations, , , , ,0,0,0,0,0,0,0,0,0,0,0, ,ON, ,,0,0, ,0,0,0,0, , , , , , , 
-77.476429288,46.0910086900001,75, ,Deep River and District Hospital,117 Banting Drive,Deep River, , ,613-584-3333,https://data.ontario.ca/dataset/hospital-locations, , , , ,12,0,12,0,0,0,0,0,0,0,0,Renfrew County and District Health Unit,ON, ,,0,0, ,0,0,0,0, , , , , , , 
-79.433787341,43.730049147,76, ,Baycrest Hospital,3560 Bathurst Street,Toronto, , ,416-785-2500,https://data.ontario.ca/dataset/hospital-locations, , , , ,262,0,0,0,0,0,0,0,0,0,0,City of Toronto Health Unit,ON, ,,0,0, ,0,0,0,0, , , , , , , 
-80.3734459839999,43.7055558970001,77, ,Groves Memorial  Community Hospital,235 Union Street East,Fergus, , , ,https://data.ontario.ca/dataset/hospital-locations, , , , ,0,0,0,0,0,0,0,0,0,0,0, ,ON, ,,0,0, ,0,0,0,0, , , , , , , 
-81.2264064829999,42.9605189110001,78, ,London Health Sciences Centre - Victoria Hospital,800 Commissioners Road East,London, , ,519-685-8500,https://data.ontario.ca/dataset/hospital-locations, , , , ,708,0,708,0,0,0,0,0,0,0,0, ,ON, ,,0,0, ,0,0,0,0, , , , , , , 
-81.1519237539999,43.258743585,79, ,St. Marys Memorial Hospital,267 Queen Street West,St. Marys, , ,519-284-1330,https://data.ontario.ca/dataset/hospital-locations, , , , ,20,0,20,0,0,0,0,0,0,0,0, ,ON, ,,0,0, ,0,0,0,0, , , , , , , 
-80.617274059,51.2499798630001,80, ,Weeneebayko Area Health Authority,19 Hospital Drive,Moose Factory, , ,705-658-4544,https://data.ontario.ca/dataset/hospital-locations, , , , ,0,0,0,0,0,0,0,0,0,0,0,Porcupine Health Unit,ON, ,,0,0, ,0,0,0,0, , , , , , , 
-78.751025273,44.3528403170001,81, ,Ross Memorial Hospital,10 Angeline Street North,Lindsay, , ,705-324-6111,https://data.ontario.ca/dataset/hospital-locations, , , , ,168,0,88,0,0,0,0,0,0,0,0,"Haliburton, Kawartha, Pine Ridge District Health Unit",ON, ,,0,0, ,0,0,0,0, , , , , , , 
-91.927515577,50.1055362220001,82, ,Sioux Lookout Meno Ya Win Health Centre,1 Meno Ya Win Way,Sioux Lookout, , ,807-737-3030,https://data.ontario.ca/dataset/hospital-locations, , , , ,80,0,55,0,0,0,0,0,0,0,0,Northwestern Health Unit,ON, ,,0,0, ,0,0,0,0, , , , , , , 
-79.6083428269999,43.5713217270001,83, ,Trillium Health Partners - Mississauga Hospital,100 Queensway West,Mississauga, , ,905.848.7100,https://data.ontario.ca/dataset/hospital-locations, , , , ,0,0,0,0,0,0,0,0,0,0,0, ,ON, ,,0,0, ,0,0,0,0, , , , , , , 
-79.499297785,46.3353644380001,84, ,North Bay Regional Health Centre,50 College Drive,North Bay, , ,705-474-8600,https://data.ontario.ca/dataset/hospital-locations, , , , ,385,0,127,0,0,0,0,0,0,0,0,North Bay Parry Sound District Health Unit,ON, ,,0,0, ,0,0,0,0, , , , , , , 
-79.917526891,43.259639893,85, ,Hamilton Health Sciences,1200 Main St. West,Hamilton, , , ,https://data.ontario.ca/dataset/hospital-locations, , , , ,0,0,0,0,0,0,0,0,0,0,0, ,ON, ,,0,0, ,0,0,0,0, , , , , , , 
-80.3280095599999,43.378813392,86, ,Cambridge Memorial Hospital,700 Coronation Blvd,Cambridge, , ,519-621-2330,https://data.ontario.ca/dataset/hospital-locations, , , , ,134,0,88,0,0,0,0,0,0,0,0, ,ON, ,,0,0, ,0,0,0,0, , , , , , , 
-78.528989032,45.0388142510001,87, ,Haliburton Highlands Health Services,7199 Gelert Road,Haliburton, , ,705-457-1392,https://data.ontario.ca/dataset/hospital-locations, , , , ,15,0,15,0,0,0,0,0,0,0,0,"Haliburton, Kawartha, Pine Ridge District Health Unit",ON, ,,0,0, ,0,0,0,0, , , , , , , 
-82.1940177559999,42.40588433,88, ,Chatham-Kent Health Alliance - Chatham Site,80 Grand Avenue West,Chatham, , ,519-352-6400,https://data.ontario.ca/dataset/hospital-locations, , , , ,200,0,200,0,0,0,0,0,0,0,0,Chatham-Kent Health Alliance,ON, ,,0,0, ,0,0,0,0, , , , , , , 
-91.598335789,48.7540776810001,89, ,Atikokan General Hospital,120 Dorothy Street,Atikokan, , ,807-597-4215,https://data.ontario.ca/dataset/hospital-locations, , , , ,67,0,15,0,0,0,0,0,0,0,0,Northwestern Health Unit,ON, ,,0,0, ,0,0,0,0, , , , , , , 
-79.450427495,43.6402765830001,90, ,Providence St. Joseph's and St. Michael's Healthcare,30 The Queensway,Toronto, , , ,https://data.ontario.ca/dataset/hospital-locations, , , , ,0,0,0,0,0,0,0,0,0,0,0, ,ON, ,,0,0, ,0,0,0,0, , , , , , , 
-81.385030464,43.5512800860001,91, ,Seaforth Community Hospital,24 Centennial Drive,Seaforth, , ,519-527-1650,https://data.ontario.ca/dataset/hospital-locations, , , , ,20,0,7,0,0,0,0,0,0,0,0,Huron Perth Healthcare Alliance,ON, ,,0,0, ,0,0,0,0, , , , , , , 
-82.427573153,49.425629503,92, ,Sensenbrenner Hospital,101 Progress Crescent,Kapuskasing, , ,705-337-6111,https://data.ontario.ca/dataset/hospital-locations, , , , ,53,0,33,0,0,0,0,0,0,0,0,Porcupine Health Unit,ON, ,,0,0, ,0,0,0,0, , , , , , , 
-80.7376380159999,43.9745538060001,93, ,North Wellington Health Care - Louise Marshall Hospital,630 Dublin St,Mount Forest, , ,519-343-2030,https://data.ontario.ca/dataset/hospital-locations, , , , ,15,0,15,0,0,0,0,0,0,0,0, ,ON, ,,0,0, ,0,0,0,0, , , , , , , 
-79.3777306919999,43.6685914120001,94, ,Casey House Hospice,9 Huntley Street,Toronto, , , ,https://data.ontario.ca/dataset/hospital-locations, , , , ,0,0,0,0,0,0,0,0,0,0,0, ,ON, ,,0,0, ,0,0,0,0, , , , , , , 
-79.3090614339999,43.8018785830001,95, , Scarborough and Rouge Hospital - Grace Hospital,3030 Birchmount Rd.,Toronto, Scarborough and Rouge Hospital, ,416-495-2400,https://data.ontario.ca/dataset/hospital-locations, , , , ,743,0,521,0,0,0,0,0,0,0,0,City of Toronto Health Unit,ON, ,,0,0, ,0,0,0,0, , , , , , , 
-79.4042468929999,43.8206761980001,96, ,Shouldice Hospital,7750 Bayview Avenue,Thornhill, , ,905-889-1125,https://data.ontario.ca/dataset/hospital-locations, , , , ,85,0,85,0,0,0,0,0,0,0,0,York Regional Health Unit,ON, ,,0,0, ,0,0,0,0, , , , , , , 
-78.8691560629999,43.9053763590001,97, ,Lakeridge Health,1 Hospital Court,Oshawa, , ,905-576-8711,https://data.ontario.ca/dataset/hospital-locations, , , , ,804,0,483,0,0,0,0,0,0,0,0,Durham Regional Health Unit,ON, ,,0,0, ,0,0,0,0, , , , , , , 
-74.6079208909999,45.59876503,98, ,Hawkesbury And District General Hospital,"1111, rue Ghislain",Hawkesbury, , ,613-632-1111,https://data.ontario.ca/dataset/hospital-locations, , , , ,69,0,69,0,0,0,0,0,0,0,0,Eastern Ontario,ON, ,,0,0, ,0,0,0,0, , , , , , , 
-86.955267014,49.723414065,99, ,Geraldton District Hospital,500 Hogarth Avenue,Geraldton, , ,807-854-1862,https://data.ontario.ca/dataset/hospital-locations, , , , ,41,0,18,0,0,0,0,0,0,0,0,Thunder Bay District Health Unit,ON, ,,0,0, ,0,0,0,0, , , , , , , 
-79.4506064509999,43.870570694,100, ,MacKenzie Health,10 Trench Street,Richmond Hill, , ,905-883-1212,https://data.ontario.ca/dataset/hospital-locations, , , , ,373,0,231,0,0,0,0,0,0,0,0,York Regional Health Unit,ON, ,,0,0, ,0,0,0,0, , , , , , , 
-80.874819601,43.0319280050001,101, ,Alexandra Hospital Ingersoll,29 Noxon Street,Ingersoll, , ,519-485-1700,https://data.ontario.ca/dataset/hospital-locations, , , , ,30,0,21,0,0,0,0,0,0,0,0, ,ON, ,,0,0, ,0,0,0,0, , , , , , , 
-81.306220416,43.884619033,102, ,Wingham and District Hospital,270 Carling Terrace,Wingham, , ,519-357-3210,https://data.ontario.ca/dataset/hospital-locations, , , , ,36,0,36,0,0,0,0,0,0,0,0,Listowel Wingham Hosptials Alliance,ON, ,,0,0, ,0,0,0,0, , , , , , , 
-76.025325303,44.9065854520001,103, ,Perth and Smiths Falls District Hospital - Smiths Falls,60 Cornelia Street West,SmithsFalls, , ,(613) 283-2330,https://data.ontario.ca/dataset/hospital-locations, , , , ,103,0,93,0,0,0,0,0,0,0,0,"Leeds, Grenville and Lanark",ON, ,,0,0, ,0,0,0,0, , , , , , , 
-79.337923421,43.6671756640001,104, ,Salvation Army Toronto Grace Health Centre,47 Austin Terrace,Toronto, , , ,https://data.ontario.ca/dataset/hospital-locations, , , , ,0,0,0,0,0,0,0,0,0,0,0, ,ON, ,,0,0, ,0,0,0,0, , , , , , , 
-77.10804754,45.81390786,105, ,Pembroke Regional Hospital,705 MacKay St,Pembroke, , ,613-732-2811,https://data.ontario.ca/dataset/hospital-locations, , , , ,137,0,75,0,0,0,0,0,0,0,0,Renfrew County and District Health Unit,ON, ,,0,0, ,0,0,0,0, , , , , , , 
-79.874906245,44.155366621,106, ,Stevenson Memorial Hospital,200 Fletcher Crescent,Alliston, , ,705-435-3377,https://data.ontario.ca/dataset/hospital-locations, , , , ,39,0,29,0,0,0,0,0,0,0,0,Simcoe Muskoka District Health Unit,ON, ,,0,0, ,0,0,0,0, , , , , , , 
-75.722437644,45.394018649,107, ,University of Ottawa Heart Institute,40 Ruskin Street,Ottawa, , ,613-696-7000,https://data.ontario.ca/dataset/hospital-locations, , , , ,0,0,0,0,0,0,0,0,0,0,0,Ottawa,ON, ,,0,0, ,0,0,0,0, , , , , , , 
-80.996389117,46.467613466,108, ,Health Sciences North,41 Ramsey Lake Road,Sudbury, , ,705-523-7100,https://data.ontario.ca/dataset/hospital-locations, , , , ,445,0,330,0,0,0,0,0,0,0,0,Sudbury and District Health Unit,ON, ,,0,0, ,0,0,0,0, , , , , , , 
-82.6143832129999,42.0487597270001,109, ,Erie Shores Health Care,194 Talbot St. West,Leamington, , ,519-326-2373,https://data.ontario.ca/dataset/hospital-locations, , , , ,58,0,58,0,0,0,0,0,0,0,0, ,ON, ,,0,0, ,0,0,0,0, , , , , , , 
-84.773473037,49.2103515210001,110, ,Hornepayne Community Hospital,278 Front Street,Hornepayne, , ,807-868-2442,https://data.ontario.ca/dataset/hospital-locations, , , , ,18,0,6,0,0,0,0,0,0,0,0,Porcupine Health Unit,ON, ,,0,0, ,0,0,0,0, , , , , , , 
-75.6414764849999,45.0094250870001,111, ,Kemptville District Hospital,2675 Concession Rd,Kemptville, , ,613-258-6133,https://data.ontario.ca/dataset/hospital-locations, , , , ,40,0,18,0,0,0,0,0,0,0,0,"Leeds, Grenville and Lanark",ON, ,,0,0, ,0,0,0,0, , , , , , , 
-80.950311089,43.732847624,112, ,Listowel Memorial Hospital,255 Elizabeth St E,Listowel, , ,519-291-3120,https://data.ontario.ca/dataset/hospital-locations, , , , ,50,0,50,0,0,0,0,0,0,0,0,Listowel Wingham Hospital Alliance,ON, ,,0,0, ,0,0,0,0, , , , , , , 
-80.0454695339999,42.9576316320001,113, ,West Haldimand General Hospital,75 Parkview Rd,Hagersville, , ,905-768-3311,https://data.ontario.ca/dataset/hospital-locations, , , , ,23,0,23,0,0,0,0,0,0,0,0, ,ON, ,,0,0, ,0,0,0,0, , , , , , , 
-79.2851214619999,43.7125017330001,114, ,Providence St. Joseph's and St. Michael's Healthcare,3276 St. Clair Avenue East,Toronto, , , ,https://data.ontario.ca/dataset/hospital-locations, , , , ,0,0,0,0,0,0,0,0,0,0,0, ,ON, ,,0,0, ,0,0,0,0, , , , , , , 
-78.943788661,43.85067394,115, ,Ontario Shores Centre For Mental Health Sciences,700 Gordon Street,Whitby, , ,905-430-4055,https://data.ontario.ca/dataset/hospital-locations, , , , ,346,0,0,0,0,0,0,0,0,0,0,Durham Regional Health Unit,ON, ,,0,0, ,0,0,0,0, , , , , , , 
-79.763807792,43.4503838150001,116, ,Oakville Trafalgar Memorial Hospital,3001 Hospital Gate,Oakville, , , ,https://data.ontario.ca/dataset/hospital-locations, , , , ,0,0,0,0,0,0,0,0,0,0,0, ,ON, ,,0,0, ,0,0,0,0, , , , , , , 
-79.390302052,43.657426151,117, ,Mount Sinai Hospital,600 University Avenue,Toronto, , , ,https://data.ontario.ca/dataset/hospital-locations, , , , ,0,0,0,0,0,0,0,0,0,0,0, ,ON, ,,0,0, ,0,0,0,0, , , , , , , 
-82.9971573879999,42.300055682,118, ,Windsor Regional Hospital - Metropolitan Campus,1995 Lens Ave,Windsor, , ,519-254-5577,https://data.ontario.ca/dataset/hospital-locations, , , , ,574,0,500,0,0,0,0,0,0,0,0,Windsor Regional Hospital,ON, ,,0,0, ,0,0,0,0, , , , , , , 
-82.660464179,46.3849832700001,119, ,St. Joseph's General Hospital,70 Spine Rd,Elliot Lake, , ,705-848-7181,https://data.ontario.ca/dataset/hospital-locations, , , , ,53,0,52,0,0,0,0,0,0,0,0,The District of Algoma Health Unit,ON, ,,0,0, ,0,0,0,0, , , , , , , 
-81.480885751,43.343695933,120, ,South Huron Hospital,24 Huron St. West,Exeter, , ,519-235-2700,https://data.ontario.ca/dataset/hospital-locations, , , , ,19,0,19,0,0,0,0,0,0,0,0, ,ON, ,,0,0, ,0,0,0,0, , , , , , , 
-79.232041282,43.8833812070001,121, ,Markham-Stouffville Hospital,381 Church Street,Markham, , ,905-472-7000,https://data.ontario.ca/dataset/hospital-locations, , , , ,277,0,177,0,0,0,0,0,0,0,0,York Regional Health Unit,ON, ,,0,0, ,0,0,0,0, , , , , , , 
-76.4928694,44.224552514,122, ,Kingston General Hospital,76 Stuart Street,Kingston, , ,613-548-3232,https://data.ontario.ca/dataset/hospital-locations, , , , ,440,0,440,0,0,0,0,0,0,0,0,"Kingston, Frontenac and Lennox and Addington",ON, ,,0,0, ,0,0,0,0, , , , , , , 
-80.470241618,48.5392400860001,123, ,Bingham Memorial Hospital,507 8th Avenue,Matheson, , ,705-273-2424,https://data.ontario.ca/dataset/hospital-locations, , , , ,37,0,17,0,0,0,0,0,0,0,0,Porcupine Health Unit,ON, ,,0,0, ,0,0,0,0, , , , , , , 
-79.388031901,43.6588684180001,124, ,University Health Network,200 Elizabeth Street,Toronto, , , ,https://data.ontario.ca/dataset/hospital-locations, , , , ,0,0,0,0,0,0,0,0,0,0,0, ,ON, ,,0,0, ,0,0,0,0, , , , , , , 
-81.610365196,49.2719789450001,125, ,Smooth Rock Falls Hospital,107 Kelly Road,Smooth Rock Falls, , ,705-338-2781,https://data.ontario.ca/dataset/hospital-locations, , , , ,37,0,17,0,0,0,0,0,0,0,0,Porcupine Health Unit,ON, ,,0,0, ,0,0,0,0, , , , , , , 
-75.696742214,45.431857876,126, ,Bruyère Continuing Care,43 Bruyere Street,Ottawa, , ,613-562-6262,https://data.ontario.ca/dataset/hospital-locations, , , , ,0,0,0,0,0,0,0,0,0,0,0,Ottawa,ON, ,,0,0, ,0,0,0,0, , , , , , , 
-79.403424133,43.657545962,127, ,Kensington Eye Institute,340 College Street,Toronto, , , ,https://data.ontario.ca/dataset/hospital-locations, , , , ,0,0,0,0,0,0,0,0,0,0,0, ,ON, ,,0,0, ,0,0,0,0, , , , , , , 
-89.26925534,48.4242957760001,128, ,Thunder Bay Regional Health Sciences Centre,984 Oliver Road,Thunder Bay, , ,807-684-6000,https://data.ontario.ca/dataset/hospital-locations, , , , ,388,0,300,0,0,0,0,0,0,0,0,Thunder Bay District Health Unit,ON, ,,0,0, ,0,0,0,0, , , , , , , 
-78.713267828,46.310873229,129, ,Mattawa General Hospital,217 Turcotte Park Road,Mattawa, , ,705-744-5511,https://data.ontario.ca/dataset/hospital-locations, , , , ,19,0,19,0,0,0,0,0,0,0,0,North Bay Parry Sound District Health Unit,ON, ,,0,0, ,0,0,0,0, , , , , , , 
-82.924618923,46.187241698,130, ,North Shore Health Network,525 Causley Street,Blind River, , ,705-356-2265,https://data.ontario.ca/dataset/hospital-locations, , , , ,58,0,16,0,0,0,0,0,0,0,0,The District of Algoma Health Unit,ON, ,,0,0, ,0,0,0,0, , , , , , , 
-75.638415021,45.444000761,131, ,Hopital Montfort,713 chemin Montreal,Ottawa, , ,613-746-4621,https://data.ontario.ca/dataset/hospital-locations, , , , ,0,0,0,0,0,0,0,0,0,0,0,Ottawa,ON, ,,0,0, ,0,0,0,0, , , , , , , 
-80.735156,42.863022647,132, ,Tillsonburg District Memorial Hospital,167 Rolph Street,Tillsonburg, , ,519-842-3611,https://data.ontario.ca/dataset/hospital-locations, , , , ,45,0,30,0,0,0,0,0,0,0,0, ,ON, ,,0,0, ,0,0,0,0, , , , , , , 
-80.253397483,43.556234977,133, ,Guelph General Hospital,115 Delhi Street,Guelph, , , ,https://data.ontario.ca/dataset/hospital-locations, , , , ,0,0,0,0,0,0,0,0,0,0,0, ,ON, ,,0,0, ,0,0,0,0, , , , , , , 
-79.4520814369999,44.060275254,134, ,Southlake Regional Health Centre,596 Davis Drive,Newmarket, , ,905-89-4521,https://data.ontario.ca/dataset/hospital-locations, , , , ,391,0,262,0,0,0,0,0,0,0,0,York Regional Health Unit,ON, ,,0,0, ,0,0,0,0, , , , , , , 
-81.781330041,46.2484507400001,135, ,Espanola General Hospital,825 McKinnon Dr.,Espanola, , ,705-869-1420,https://data.ontario.ca/dataset/hospital-locations, , , , ,47,0,15,0,0,0,0,0,0,0,0,Sudbury and District Health Unit,ON, ,,0,0, ,0,0,0,0, , , , , , , 
-79.661079247,44.4145900450001,136, ,Royal Victoria Regional Health Centre,201 Georgian Dr,Barrie, , ,705-728-9802,https://data.ontario.ca/dataset/hospital-locations, , , , ,328,0,232,0,0,0,0,0,0,0,0,Simcoe Muskoka District Health Unit,ON, ,,0,0, ,0,0,0,0, , , , , , , 
-79.2785077519999,43.153042654,137, ,Niagara Health System - St. Catharines Site,1200 Fourth Avenue,St. Catharines, , ,905-378-4647,https://data.ontario.ca/dataset/hospital-locations, , , , ,399,0,399,0,0,0,0,0,0,0,0,Niagara Health System,ON, ,,0,0, ,0,0,0,0, , , , , , , 
-79.3248425909999,43.6901217220001,138, ,Toronto East Health Network,825 Coxwell Avenue,Toronto, , , ,https://data.ontario.ca/dataset/hospital-locations, , , , ,0,0,0,0,0,0,0,0,0,0,0, ,ON, ,,0,0, ,0,0,0,0, , , , , , , 
-82.38946516,42.976869075,139, ,Bluewater Health,89 Norman Street,Sarnia, , ,519-464-4400,https://data.ontario.ca/dataset/hospital-locations, , , , ,326,0,326,0,0,0,0,0,0,0,0, ,ON, ,,0,0, ,0,0,0,0, , , , , , , 
-77.693848002,45.482695778,140, ,St. Francis Memorial Hospital,7 St. Francis Memorial Drive,Barry's Bay, , ,613-756-3044,https://data.ontario.ca/dataset/hospital-locations, , , , ,20,0,20,0,0,0,0,0,0,0,0,Renfrew County and District Health Unit,ON, ,,0,0, ,0,0,0,0, , , , , , , 
-75.729973646,45.387995748,141, ,Royal Ottawa Mental Health Centre,1145 Carling Avenue,Ottawa, , ,613-722-6521,https://data.ontario.ca/dataset/hospital-locations, , , , ,274,0,0,0,0,0,0,0,0,0,0,Ottawa,ON, ,,0,0, ,0,0,0,0, , , , , , , 
-79.4809670019999,43.664158598,142, ,Runnymede Healthcare Centre,625 Runnymede Road,Toronto, , , ,https://data.ontario.ca/dataset/hospital-locations, , , , ,0,0,0,0,0,0,0,0,0,0,0, ,ON, ,,0,0, ,0,0,0,0, , , , , , , 
-84.3114969489999,46.5484485970001,143, ,Sault Area Hospital,750 Great Northern Road,Sault Ste. Marie, , ,705-759-3434,https://data.ontario.ca/dataset/hospital-locations, , , , ,242,0,116,0,0,0,0,0,0,0,0,The District of Algoma Health Unit,ON, ,,0,0, ,0,0,0,0, , , , , , , 
-80.2721306889999,43.5500403400001,144, ,St. Joseph's Health Centre Guelph,100 Westmount Road,Guelph, , , ,https://data.ontario.ca/dataset/hospital-locations, , , , ,0,0,0,0,0,0,0,0,0,0,0, ,ON, ,,0,0, ,0,0,0,0, , , , , , , 
-79.7434326859999,43.747307687,145, ,William Osler Health System,2100 Bovaird Drive East,Brampton, , , ,https://data.ontario.ca/dataset/hospital-locations, , , , ,0,0,0,0,0,0,0,0,0,0,0, ,ON, ,,0,0, ,0,0,0,0, , , , , , , 
-73.577817,45.573763,146, ,Institut de Cardiologie de Montréal,"5000, rue Bélanger",Montréal, , ,(514) 376-3330,https://publications.msss.gouv.qc.ca/msss/document-001644/?&txt=La&msss_valpub&date=ASC, , , , ,153,0,153,0,0,0,0,0,0,0,0,Rosemont,QC, ,,0,0, ,0,0,0,0, , , , , , , 
-73.713971626,45.532525391,147, ,Hôpital du Sacré-Cœur de Montréal,5400 boulevard Gouin Ouest,Montréal, , ,(514) 338-2222,https://publications.msss.gouv.qc.ca/msss/document-001644/?&txt=La&msss_valpub&date=ASC, , , , ,554,0,420,0,0,0,0,0,0,0,0,Bordeaux-Cartierville,QC, ,,0,0, ,0,0,0,0, , , , , , , 
-73.58839227,45.4968143730001,148, ,Hôpital général de Montréal,"1650, avenue Cedar",Montréal, , ,(514) 937-6011,https://publications.msss.gouv.qc.ca/msss/document-001644/?&txt=La&msss_valpub&date=ASC, , , , ,1429,0,1256,0,0,0,0,0,0,0,0,Métro,QC, ,,0,0, ,0,0,0,0, , , , , , , 
-73.628806,45.497811,149, ,L'Hôpital général juif Sir Mortimer B. Davis,"3755, chemin de la Côte-Sainte-Catherin",Montréal, , ,(514) 340-8222,https://publications.msss.gouv.qc.ca/msss/document-001644/?&txt=La&msss_valpub&date=ASC, , , , ,571,0,461,0,0,0,0,0,0,0,0,Côte-des-Neiges,QC, ,,0,0, ,0,0,0,0, , , , , , , 
-68.405271,58.107046999,150, ,Centre de santé Tulattavik de l'Ungava,Kuujjuaq,Kuujjuaq, , ,(819) 964-2905,https://publications.msss.gouv.qc.ca/msss/document-001644/?&txt=La&msss_valpub&date=ASC, , , , ,25,0,25,0,0,0,0,0,0,0,0,Ungava,QC, ,,0,0, ,0,0,0,0, , , , , , , 
-73.6240767309999,45.494986415,151, ,Centre hospitalier de St. Mary,"3830, avenue Lacombe",Montréal, , ,(514) 345-3511,https://publications.msss.gouv.qc.ca/msss/document-001644/?&txt=La&msss_valpub&date=ASC, , , , ,271,0,271,0,0,0,0,0,0,0,0,Côte-des-Neiges,QC, ,,0,0, ,0,0,0,0, , , , , , , 
-73.55968211,45.5741325910001,152, ,Hôpital Maisonneuve-Rosemont,5415 boulevard de l'Assomption,Montréal, , ,514-252-3400,https://publications.msss.gouv.qc.ca/msss/document-001644/?&txt=La&msss_valpub&date=ASC, , , , ,737,0,597,0,0,0,0,0,0,0,0,Rosemont,QC, ,,0,0, ,0,0,0,0, , , , , , , 
-71.869027,45.447736,153, ,Hôpital Fleurimont,"3001, 12e Avenue Nord",Sherbrooke, , ,(819) 346-1110,https://publications.msss.gouv.qc.ca/msss/document-001644/?&txt=La&msss_valpub&date=ASC, , , , ,365,0,365,0,0,0,0,0,0,0,0,Sherbrooke,QC, ,,0,0, ,0,0,0,0, , , , , , , 
-71.8779480009999,45.3984419990001,154, ,CIUSSS de l'Estrie - CHUS Hôtel-Dieu,"580, rue Bowen Sud",Sherbrooke, , ,(819) 346-1110,https://publications.msss.gouv.qc.ca/msss/document-001644/?&txt=La&msss_valpub&date=ASC, , , , ,216,0,216,0,0,0,0,0,0,0,0,Sherbrooke,QC, ,,0,0, ,0,0,0,0, , , , , , , 
-71.246410999,46.7993569990001,155, ,Hôpital du Saint-Sacrement,1050 chemin Sainte-Foy,Québec, , ,(418) 682-7515,https://publications.msss.gouv.qc.ca/msss/document-001644/?&txt=La&msss_valpub&date=ASC, , , , ,211,0,148,0,0,0,0,0,0,0,0,Québec - Haute-Ville,QC, ,,0,0, ,0,0,0,0, , , , , , , 
-71.210988825,46.815425417,156, ,L'Hôtel-Dieu de Québec,11 Côte du Palais,Québec, , ,418-691-5042,https://publications.msss.gouv.qc.ca/msss/document-001644/?&txt=La&msss_valpub&date=ASC, , , , ,450,0,320,0,0,0,0,0,0,0,0,Québec - Haute-Ville,QC, ,,0,0, ,0,0,0,0, , , , , , , 
-71.282588763,46.768350669,157, ,CHU de Québec – Université Laval - CHUL,2705 boulevard Laurier,Québec, , ,(418) 656-4141,https://publications.msss.gouv.qc.ca/msss/document-001644/?&txt=La&msss_valpub&date=ASC, , , , ,250,0,230,0,0,0,0,0,0,0,0,Sainte-Foy - Sillery,QC, ,,0,0, ,0,0,0,0, , , , , , , 
-71.23661,46.8277939990001,158, ,Hôpital Saint-François-d'Assise,10 rue de l'Espinay,Québec, , ,418-525-4388,https://publications.msss.gouv.qc.ca/msss/document-001644/?&txt=La&msss_valpub&date=ASC, , , , ,258,0,258,0,0,0,0,0,0,0,0,Limoilou-Vanier,QC, ,,0,0, ,0,0,0,0, , , , , , , 
-75.517655,46.5492109990001,159, ,Hôpital de Mont-Laurier,2561 chemin de la Lièvre Sud,Mont-Laurier, , ,819-623-1234,https://publications.msss.gouv.qc.ca/msss/document-001644/?&txt=La&msss_valpub&date=ASC, , , , ,62,0,57,0,0,0,0,0,0,0,0,Antoine-Labelle,QC, ,,0,0, ,0,0,0,0, , , , , , , 
-74.884483517,46.4206880610001,160, ,Centre de Services de Rivière-Rouge,1525 rue de L'Annonciation Nord,Rivière-Rouge, , ,819-275-2118,https://publications.msss.gouv.qc.ca/msss/document-001644/?&txt=La&msss_valpub&date=ASC, , , , ,415,0,164,0,0,0,0,0,0,0,0,Antoine-Labelle,QC, ,,0,0, ,0,0,0,0, , , , , , , 
-73.5638736659999,45.463908,161, ,Hôpital de Verdun,"4000, boulevard LaSalle",Montréal, , ,(514) 362-1000,https://publications.msss.gouv.qc.ca/msss/document-001644/?&txt=La&msss_valpub&date=ASC, , , , ,277,0,244,0,0,0,0,0,0,0,0,Verdun,QC, ,,0,0, ,0,0,0,0, , , , , , , 
-69.540041016,47.818618761,162, ,Centre hospitalier régional du Grand-Portage,"75, rue Saint-Henri",Rivière-du-Loup, , ,(418) 868-1000,https://publications.msss.gouv.qc.ca/msss/document-001644/?&txt=La&msss_valpub&date=ASC, , , , ,340,0,145,0,0,0,0,0,0,0,0,Rivière-du-Loup,QC, ,,0,0, ,0,0,0,0, , , , , , , 
-71.0489020909999,48.4259607600001,163, ,Hôpital de Chicoutimi,"305 rue Saint-Vallier,",Saguenay, , ,(418) 541-1000,https://publications.msss.gouv.qc.ca/msss/document-001644/?&txt=La&msss_valpub&date=ASC, , , , ,255,0,255,0,0,0,0,0,0,0,0,Saguenay,QC, ,,0,0, ,0,0,0,0, , , , , , , 
-74.3491829989999,49.915951,164, ,Centre de santé de Chibougamau,"51, 3e Rue",Chibougamau, , ,(418) 748-2676,https://publications.msss.gouv.qc.ca/msss/document-001644/?&txt=La&msss_valpub&date=ASC, , , , ,54,0,26,0,0,0,0,0,0,0,0,Chibougamau-Chapais,QC, ,,0,0, ,0,0,0,0, , , , , , , 
-76.983240898,49.056169643,165, ,Centre de santé Lebel,"950, boulevard Quévillon Nord",Lebel-sur-Quévillon, , ,(819) 755-4881,http://www.crsssbaiejames.gouv.qc.ca/1401/Centre_de_sante_Isle-Dieu.crsssbaiejames, , , , ,9,0,4,0,0,0,0,0,0,0,0,Lebel-sur-Quévillon,QC, ,,0,0, ,0,0,0,0, , , , , , , 
-69.4072291109999,48.351975442,166, ,Pavillon Escoumins,"4, rue de l'Hôpital",Les Escoumins, , ,(418) 233-2931,https://publications.msss.gouv.qc.ca/msss/document-001644/?&txt=La&msss_valpub&date=ASC, , , , ,18,0,18,0,0,0,0,0,0,0,0,Les Escoumins,QC, ,,0,0, ,0,0,0,0, , , , , , , 
-79.444340101,47.3329006430001,167, ,Pavillion Sainte-Famille,22 rue Notre-Dame Nord,Ville-Marie, , ,819-629-2420,https://publications.msss.gouv.qc.ca/msss/document-001644/?&txt=La&msss_valpub&date=ASC, , , , ,31,0,29,0,0,0,0,0,0,0,0,Ville-Marie,QC, ,,0,0, ,0,0,0,0, , , , , , , 
-67.524355919,48.843238377,168, ,Hôpital de Matane,"333, rue Thibault",Matane, , ,(418) 562-3135,https://publications.msss.gouv.qc.ca/msss/document-001644/?&txt=La&msss_valpub&date=ASC, , , , ,45,0,45,0,0,0,0,0,0,0,0,Matane,QC, ,,0,0, ,0,0,0,0, , , , , , , 
-72.1446088,45.264900728,169, ,Centre hospitalier Magog,"50, rue Saint-Patrice Est",Magog, , ,(819) 843-3381,https://publications.msss.gouv.qc.ca/msss/document-001644/?&txt=La&msss_valpub&date=ASC, , , , ,168,0,36,0,0,0,0,0,0,0,0,Memphrémagog,QC, ,,0,0, ,0,0,0,0, , , , , , , 
-73.578069085,45.51406229,170, ,Centre hospitalier de l'Université de Montréal,"3840, rue Saint-Urbain",Montréal, , ,(514) 890-8000,https://publications.msss.gouv.qc.ca/msss/document-001644/?&txt=La&msss_valpub&date=ASC, , , , ,150,0,150,0,0,0,0,0,0,0,0,Saint-Louis-du-Parc,QC, ,,0,0, ,0,0,0,0, , , , , , , 
-73.563616326,45.5257808040001,171, ,Hôpital Notre-Dame,"1560, rue Sherbrooke Est",Montréal, , ,514 413-8777,https://publications.msss.gouv.qc.ca/msss/document-001644/?&txt=La&msss_valpub&date=ASC, , , , ,1416,0,1197,0,0,0,0,0,0,0,0,Montréal - Centre-Sud,QC, ,,0,0, ,0,0,0,0, , , , , , , 
-71.925823508,45.7716871710001,172, ,Hospital D'asbestos,"475, 3e Avenue",Asbestos, , ,(819) 879-7151,https://publications.msss.gouv.qc.ca/msss/document-001644/?&txt=La&msss_valpub&date=ASC, , , , ,102,0,17,0,0,0,0,0,0,0,0,Asbestos,QC, ,,0,0, ,0,0,0,0, , , , , , , 
-71.81197022,45.1347776760001,173, ,Centre hospitalier de Coaticook,"138, rue Jeanne-Mance",Coaticook, , ,(819) 849-4876,https://publications.msss.gouv.qc.ca/msss/document-001644/?&txt=La&msss_valpub&date=ASC, , , , ,3,0,0,0,0,0,0,0,0,0,0,Coaticook,QC, ,,0,0, ,0,0,0,0, , , , , , , 
-72.239152423,48.8859408230001,174, ,Hôpital de Dolbeau-Mistassini,2000 boulevard Sacré-Coeur,Dolbeau-Mistassini, , ,418-276-1234,https://publications.msss.gouv.qc.ca/msss/document-001644/?&txt=La&msss_valpub&date=ASC, , , , ,61,0,48,0,0,0,0,0,0,0,0,Maria-Chapdelaine,QC, ,,0,0, ,0,0,0,0, , , , , , , 
-71.665034767,48.550664388,175, ,Hôpital d'Alma,300 boulevard Champlain Sud,Alma, , ,418-669-2000,https://publications.msss.gouv.qc.ca/msss/document-001644/?&txt=La&msss_valpub&date=ASC, , , , ,130,0,121,0,0,0,0,0,0,0,0,Lac-Saint-Jean-Est,QC, ,,0,0, ,0,0,0,0, , , , , , , 
-76.484009,45.6059680010001,176, ,Hôpital du Pontiac,200 rue Argue,Shawville, , ,819-647-2211,https://publications.msss.gouv.qc.ca/msss/document-001644/?&txt=La&msss_valpub&date=ASC, , , , ,43,0,38,0,0,0,0,0,0,0,0,Pontiac,QC, ,,0,0, ,0,0,0,0, , , , , , , 
-72.5048676659999,46.364967156,177, ,"CLSC,Centre d'hébergement et Hôpital Cloutier-du-Rivage",155 rue Toupin,Trois-Rivières, , ,(819) 370-2100,https://publications.msss.gouv.qc.ca/msss/document-001644/?&txt=La&msss_valpub&date=ASC, , , , ,19,0,0,0,0,0,0,0,0,0,0,Cap-de-la-Madeleine,QC, ,,0,0, ,0,0,0,0, , , , , , , 
-72.785807334,47.4283003940001,178, ,Centre multiservices de santé et de services sociaux du Haut-Saint-Maurice,885 boulevard Ducharme,La Tuque, , ,819-523-4581,https://publications.msss.gouv.qc.ca/msss/document-001644/?&txt=La&msss_valpub&date=ASC, , , , ,30,0,20,0,0,0,0,0,0,0,0,Haut-Saint-Maurice,QC, ,,0,0, ,0,0,0,0, , , , , , , 
-72.7432588889999,46.5256430540001,179, ,Hôpital du Centre-de-la-Mauricie,"50, 119e Rue",Shawinigan, , ,819-536-7500,https://publications.msss.gouv.qc.ca/msss/document-001644/?&txt=La&msss_valpub&date=ASC, , , , ,175,0,130,0,0,0,0,0,0,0,0,Centre-de-la-Mauricie,QC, ,,0,0, ,0,0,0,0, , , , , , , 
-72.563184001,46.3543599990001,180, ,Centre hospitalier régional de Trois-Rivières,1991 boulevard du Carmel,Trois-Rivières, , ,819-697-3333,https://publications.msss.gouv.qc.ca/msss/document-001644/?&txt=La&msss_valpub&date=ASC, , , , ,432,0,432,0,0,0,0,0,0,0,0,Trois-Rivières,QC, ,,0,0, ,0,0,0,0, , , , , , , 
-72.6266297459999,46.2314373450001,181, ,Centre Christ-Roi,"675, rue Saint-Jean-Baptiste",Nicolet, , ,(819) 293-2071,https://publications.msss.gouv.qc.ca/msss/document-001644/?&txt=La&msss_valpub&date=ASC, , , , ,34,0,0,0,0,0,0,0,0,0,0,Nicolet-Yamaska,QC, ,,0,0, ,0,0,0,0, , , , , , , 
-64.4966921339999,48.8129681410001,182, ,Hôpital Hôtel-Dieu de Gaspé,"215, boulevard de York Ouest",Gaspé, , ,(418) 368-3301,https://publications.msss.gouv.qc.ca/msss/document-001644/?&txt=La&msss_valpub&date=ASC, , , , ,56,0,51,0,0,0,0,0,0,0,0,Gaspé,QC, ,,0,0, ,0,0,0,0, , , , , , , 
-79.198491001,48.786363,183, ,Centre Hospitalier La Sarre,"679, 2e Rue Est",La Sarre, , ,(819) 333-2311,https://publications.msss.gouv.qc.ca/msss/document-001644/?&txt=La&msss_valpub&date=ASC, , , , ,48,0,46,0,0,0,0,0,0,0,0,Abitibi-Ouest,QC, ,,0,0, ,0,0,0,0, , , , , , , 
-70.026304329,47.3717544340001,184, ,Hospital Notre-Dame-De-Fatima,"1201, 6e Avenue",La Pocatière, , ,(418) 856-7000,https://publications.msss.gouv.qc.ca/msss/document-001644/?&txt=La&msss_valpub&date=ASC, , , , ,49,0,49,0,0,0,0,0,0,0,0,Kamouraska,QC, ,,0,0, ,0,0,0,0, , , , , , , 
-70.883161999,48.3439089990001,185, ,Hôpital de La Baie,1000 rue du Docteur-Desgagné,Saguenay, , ,(418) 544-3381,https://publications.msss.gouv.qc.ca/msss/document-001644/?&txt=La&msss_valpub&date=ASC, , , , ,39,0,20,0,0,0,0,0,0,0,0,Fjord,QC, ,,0,0, ,0,0,0,0, , , , , , , 
-66.4827469699999,49.1187345010001,186, ,Hôpital de Sainte-Anne-des-Monts,"50, rue du Belvédère",Sainte-Anne-des-Monts, , ,(418) 763-2261,https://publications.msss.gouv.qc.ca/msss/document-001644/?&txt=La&msss_valpub&date=ASC, , , , ,25,0,21,0,0,0,0,0,0,0,0,Denis-Riverin,QC, ,,0,0, ,0,0,0,0, , , , , , , 
-75.6910425419999,45.4933937710001,187, ,Hôpital de Gatineau,"909, boulevard La Vérendrye Ouest",Gatineau, , ,819-966-6100,https://publications.msss.gouv.qc.ca/msss/document-001644/?&txt=La&msss_valpub&date=ASC, , , , ,156,0,121,0,0,0,0,0,0,0,0,Gatineau,QC, ,,0,0, ,0,0,0,0, , , , , , , 
-75.745888161,45.4438718600001,188, ,Hôpital de Hull,"116, boulevard Lionel-Émond",Gatineau, , ,819-966-6200,https://publications.msss.gouv.qc.ca/msss/document-001644/?&txt=La&msss_valpub&date=ASC, , , , ,245,0,230,0,0,0,0,0,0,0,0,Hull,QC, ,,0,0, ,0,0,0,0, , , , , , , 
-68.2162123319999,48.572379864,189, ,Centre hospitalier de La Mitis,"800, avenue du Sanatorium",Mont-Joli, , ,(418) 775-7261,https://publications.msss.gouv.qc.ca/msss/document-001644/?&txt=La&msss_valpub&date=ASC, , , , ,150,0,0,0,0,0,0,0,0,0,0,La Mitis,QC, ,,0,0, ,0,0,0,0, , , , , , , 
-68.799268001,47.612369,190, ,Hôpital de Notre-Dame-du-Lac,"58, rue de l'Église",Témiscouata-sur-le-Lac, , ,(418) 899-6751,https://publications.msss.gouv.qc.ca/msss/document-001644/?&txt=La&msss_valpub&date=ASC, , , , ,35,0,35,0,0,0,0,0,0,0,0,Témiscouata,QC, ,,0,0, ,0,0,0,0, , , , , , , 
-75.979405,46.390850001,191, ,Hôpital de Maniwaki,"309, boulevard Desjardins",Maniwaki, , ,819-449-2300,https://publications.msss.gouv.qc.ca/msss/document-001644/?&txt=La&msss_valpub&date=ASC, , , , ,39,0,39,0,0,0,0,0,0,0,0,Des Forestiers,QC, ,,0,0, ,0,0,0,0, , , , , , , 
-73.556680796,45.574119405,192, ,Hôpital Maisonneuve-Rosemont - Pavillon Rachel-Tourigny et Pavillon de la radio-oncologie,5305 boulevard de l'Assomption,Montréal, , ,514-252-3400,https://publications.msss.gouv.qc.ca/msss/document-001644/?&txt=La&msss_valpub&date=ASC, , , , ,0,0,0,0,0,0,0,0,0,0,0,Rosemont,QC, ,,0,0, ,0,0,0,0, , , , , , , 
-73.6243936829999,45.5031730470001,193, ,CHU Sainte-Justine,"3175, chemin de la Côte-Sainte-Catherin",Montréal, , ,(514) 345-4931,https://publications.msss.gouv.qc.ca/msss/document-001644/?&txt=La&msss_valpub&date=ASC, , , , ,417,0,333,0,0,0,0,0,0,0,0,Côte-des-Neiges,QC, ,,0,0, ,0,0,0,0, , , , , , , 
-71.822485595,46.895343558,194, ,Hôpital régional de Portneuf,700 rue Saint-Cyrille,Saint-Raymond, , ,(418) 337-4611,https://publications.msss.gouv.qc.ca/msss/document-001644/?&txt=La&msss_valpub&date=ASC, , , , ,30,0,30,0,0,0,0,0,0,0,0,Portneuf,QC, ,,0,0, ,0,0,0,0, , , , , , , 
-73.581752117,45.5083563910001,195, ,Hôpital Royal Victoria,"687, avenue des Pins Ouest",Montréal, , ,(514) 934-1934,https://publications.msss.gouv.qc.ca/msss/document-001644/?&txt=La&msss_valpub&date=ASC, , , , ,1207,0,1177,0,0,0,0,0,0,0,0,Métro,QC, ,,0,0, ,0,0,0,0, , , , , , , 
-70.905678348,45.588655567,196, ,Hôpital Lac-Mégantic - CSSS DU GRANIT,"3569, rue Laval",Lac-Mégantic, , ,(819) 583-0330,https://publications.msss.gouv.qc.ca/msss/document-001644/?&txt=La&msss_valpub&date=ASC, , , , ,35,0,35,0,0,0,0,0,0,0,0,Granit,QC, ,,0,0, ,0,0,0,0, , , , , , , 
-73.623371,45.420839,197, ,Hôpital de LaSalle,"8585, terrasse Champlain",Montréal, , ,(514) 362-1000,https://publications.msss.gouv.qc.ca/msss/document-001644/?&txt=La&msss_valpub&date=ASC, , , , ,110,0,110,0,0,0,0,0,0,0,0,Lasalle,QC, ,,0,0, ,0,0,0,0, , , , , , , 
-71.235383127,48.4134466740001,198, ,Hôpital de Jonquière,"2230, rue de l'Hôpital",Saguenay, , ,(418) 695-7700,https://publications.msss.gouv.qc.ca/msss/document-001644/?&txt=La&msss_valpub&date=ASC, , , , ,88,0,72,0,0,0,0,0,0,0,0,Jonquière,QC, ,,0,0, ,0,0,0,0, , , , , , , 
-71.3699629989999,46.853199,199, ,Hopital Chauveau,11999 rue de l'Hôpital,Québec, , ,(418) 842-3651,https://publications.msss.gouv.qc.ca/msss/document-001644/?&txt=La&msss_valpub&date=ASC, , , , ,18,0,6,0,0,0,0,0,0,0,0,Loretteville - Val-Bélair,QC, ,,0,0, ,0,0,0,0, , , , , , , 
-70.89983022,47.0429410570001,200, ,Hôpital de Sainte-Anne-de-Beaupré,"11000, rue des Montagnards",Beaupré, , ,(418) 827-3726,https://publications.msss.gouv.qc.ca/msss/document-001644/?&txt=La&msss_valpub&date=ASC, , , , ,12,0,0,0,0,0,0,0,0,0,0,Orléans,QC, ,,0,0, ,0,0,0,0, , , , , , , 
-77.7971387709999,48.0961849020001,201, ,Hopital de Val-D'Or,"725, 6e Rue",Val-d'Or, , ,819-825-5858,https://publications.msss.gouv.qc.ca/msss/document-001644/?&txt=La&msss_valpub&date=ASC, , , , ,107,0,104,0,0,0,0,0,0,0,0,Vallée-de-l'Or,QC, ,,0,0, ,0,0,0,0, , , , , , , 
-74.288947,46.05517,202, ,Hopital Laurentien,"234, rue Saint-Vincent",Sainte-Agathe-des-Monts, , ,(819) 324-4000,https://publications.msss.gouv.qc.ca/msss/document-001644/?&txt=La&msss_valpub&date=ASC, , , , ,82,0,82,0,0,0,0,0,0,0,0,Les Laurentides,QC, ,,0,0, ,0,0,0,0, , , , , , , 
-67.4191833789999,48.4685509810001,203, ,Centre hospitalier d'Amqui,"135, avenue Gaëtan-Archambault",Amqui, , ,(418) 629-2211,https://publications.msss.gouv.qc.ca/msss/document-001644/?&txt=La&msss_valpub&date=ASC, , , , ,49,0,49,0,0,0,0,0,0,0,0,La Matapédia,QC, ,,0,0, ,0,0,0,0, , , , , , , 
-71.1769758469999,46.8147308360001,204, ,Hôtel-Dieu de Lévis,"143, rue Wolfe",Lévis, , ,(418) 835-7121,https://publications.msss.gouv.qc.ca/msss/document-001644/?&txt=La&msss_valpub&date=ASC, , , , ,349,0,349,0,0,0,0,0,0,0,0,Desjardins,QC, ,,0,0, ,0,0,0,0, , , , , , , 
-64.67168,48.354823,205, ,Hôpital de Chandler,"451, rue Monseigneur-Ross Est",Chandler, , ,(418) 689-2261,https://publications.msss.gouv.qc.ca/msss/document-001644/?&txt=La&msss_valpub&date=ASC, , , , ,52,0,47,0,0,0,0,0,0,0,0,Pabok,QC, ,,0,0, ,0,0,0,0, , , , , , , 
-61.868773,47.375575,206, ,CISSS des Îles et Hôpital de l'Archipel,"430, chemin Principal",Les Îles-de-la-Madeleine, , ,(418) 986-2121,https://publications.msss.gouv.qc.ca/msss/document-001644/?&txt=La&msss_valpub&date=ASC, , , , ,94,0,26,0,0,0,0,0,0,0,0,Îles-de-la-Madeleine,QC, ,,0,0, ,0,0,0,0, , , , , , , 
-68.530678391,48.447081429,207, ,Hôpital régional de Rimouski,"150, avenue Rouleau",Rimouski, , ,(418) 723-7851,https://publications.msss.gouv.qc.ca/msss/document-001644/?&txt=La&msss_valpub&date=ASC, , , , ,185,0,170,0,0,0,0,0,0,0,0,Rimouski-Neigette,QC, ,,0,0, ,0,0,0,0, , , , , , , 
-65.9934623569999,48.169203381,208, ,Hôpital de Maria,"419, boulevard Perron",Maria, , ,(418) 759-3443,https://publications.msss.gouv.qc.ca/msss/document-001644/?&txt=La&msss_valpub&date=ASC, , , , ,68,0,64,0,0,0,0,0,0,0,0,Avignon,QC, ,,0,0, ,0,0,0,0, , , , , , , 
-73.999867001,45.1263430010001,209, ,Hôpital Barrie Memorial,"28, rue Gale",Ormstown, , ,(450) 829-2321,https://publications.msss.gouv.qc.ca/msss/document-001644/?&txt=La&msss_valpub&date=ASC, , , , ,49,0,49,0,0,0,0,0,0,0,0,Haut-Saint-Laurent,QC, ,,0,0, ,0,0,0,0, , , , , , , 
-71.9146868839999,46.040586252,210, ,Hôpital Hotel-Dieu d'Arthabaska,"5, rue des Hospitalières",Victoriaville, , ,(819) 357-2030,https://publications.msss.gouv.qc.ca/msss/document-001644/?&txt=La&msss_valpub&date=ASC, , , , ,203,0,151,0,0,0,0,0,0,0,0,Arthabaska,QC, ,,0,0, ,0,0,0,0, , , , , , , 
-73.510498449,45.7243038130001,211, ,Hôpital Pierre-Le Gardeur,911 montée des Pionniers,Terrebonne, , ,(450) 654-7525,https://publications.msss.gouv.qc.ca/msss/document-001644/?&txt=La&msss_valpub&date=ASC, , , , ,257,0,228,0,0,0,0,0,0,0,0,Les Moulins,QC, ,,0,0, ,0,0,0,0, , , , , , , 
-72.723131952,45.4107245610001,212, ,Centre hospitalier de Granby,"205, boulevard Leclerc Ouest",Granby, , ,(450) 372-5491,https://publications.msss.gouv.qc.ca/msss/document-001644/?&txt=La&msss_valpub&date=ASC, , , , ,128,0,112,0,0,0,0,0,0,0,0,Granby-Shefford-Bromont,QC, ,,0,0, ,0,0,0,0, , , , , , , 
-72.218879712,48.50771323,213, ,Hôpital de Roberval,450 rue Brassard,Roberval, , ,418-275-0110,https://publications.msss.gouv.qc.ca/msss/document-001644/?&txt=La&msss_valpub&date=ASC, , , , ,88,0,70,0,0,0,0,0,0,0,0,Domaine-du-Roy,QC, ,,0,0, ,0,0,0,0, , , , , , , 
-73.833802111,45.4484145170001,214, ,Hôpital général du Lakeshore,"160, avenue Stillview",Pointe-Claire, , ,(514) 630-2225,https://publications.msss.gouv.qc.ca/msss/document-001644/?&txt=La&msss_valpub&date=ASC, , , , ,265,0,234,0,0,0,0,0,0,0,0,Lac Saint-Louis,QC, ,,0,0, ,0,0,0,0, , , , , , , 
-73.677178119,45.4409008690001,215, ,Campus Lachine,"650, 16e Avenue",Montréal, , ,(514) 637-2351,https://publications.msss.gouv.qc.ca/msss/document-001644/?&txt=La&msss_valpub&date=ASC, , , , ,134,0,49,0,0,0,0,0,0,0,0,Lachine,QC, ,,0,0, ,0,0,0,0, , , , , , , 
-73.650366999,45.57181,216, ,Hôpital Fleury,"2180, rue Fleury Est",Montréal, , ,514-384-2000,https://publications.msss.gouv.qc.ca/msss/document-001644/?&txt=La&msss_valpub&date=ASC, , , , ,125,0,115,0,0,0,0,0,0,0,0,Ahuntsic,QC, ,,0,0, ,0,0,0,0, , , , , , , 
-73.6095379989999,45.545943,217, ,Hôpital Jean-Talon,"1385, rue Jean-Talon Est",Montréal, , ,(514) 495-6767,https://publications.msss.gouv.qc.ca/msss/document-001644/?&txt=La&msss_valpub&date=ASC, , , , ,246,0,131,0,0,0,0,0,0,0,0,Villeray,QC, ,,0,0, ,0,0,0,0, , , , , , , 
-70.151730272,47.656204454,218, ,Hôpital de La Malbaie,303 rue Saint-Étienne,La Malbaie, , ,418-665-1700,https://publications.msss.gouv.qc.ca/msss/document-001644/?&txt=La&msss_valpub&date=ASC, , , , ,36,0,36,0,0,0,0,0,0,0,0,Charlevoix-Est,QC, ,,0,0, ,0,0,0,0, , , , , , , 
-73.710446173,45.6029099140001,219, ,Hôpital de la Cité-de-la-Santé,1755 boulevard René-Laennec,Laval, , ,(450) 668-1010,https://publications.msss.gouv.qc.ca/msss/document-001644/?&txt=La&msss_valpub&date=ASC, , , , ,489,0,451,0,0,0,0,0,0,0,0,Pont-Viau,QC, ,,0,0, ,0,0,0,0, , , , , , , 
-68.2525625499999,49.1901058820001,220, ,Hôpital Le Royer,"635, boulevard Jolliet",Baie-Comeau, , ,(418) 589-3701,https://publications.msss.gouv.qc.ca/msss/document-001644/?&txt=La&msss_valpub&date=ASC, , , , ,71,0,53,0,0,0,0,0,0,0,0,Manicouagan,QC, ,,0,0, ,0,0,0,0, , , , , , , 
-72.477304,45.880009,221, ,Hôpital Sainte-Croix,"570, rue Heriot",Drummondville, , ,(819) 478-6464,https://publications.msss.gouv.qc.ca/msss/document-001644/?&txt=La&msss_valpub&date=ASC, , , , ,201,0,154,0,0,0,0,0,0,0,0,Drummond,QC, ,,0,0, ,0,0,0,0, , , , , , , 
-75.932600017,45.648519687,222, ,Hôpital memorial de Wakefield,"101, chemin Burnside",La Pêche, , ,819-459-1112,https://publications.msss.gouv.qc.ca/msss/document-001644/?&txt=La&msss_valpub&date=ASC, , , , ,24,0,15,0,0,0,0,0,0,0,0,Les Collines-de-l'Outaouais,QC, ,,0,0, ,0,0,0,0, , , , , , , 
-75.411481,45.588572001,223, ,Hôpital de Papineau,"155, rue Maclaren Est",Gatineau, , ,819-986-3341,https://publications.msss.gouv.qc.ca/msss/document-001644/?&txt=La&msss_valpub&date=ASC, , , , ,73,0,62,0,0,0,0,0,0,0,0,Vallée-de-la-Lièvre,QC, ,,0,0, ,0,0,0,0, , , , , , , 
-73.913739,45.571266,224, ,Hôpital de Saint-Eustache,520 boulevard Arthur-Sauvé,Saint-Eustache, , ,(450) 473-6811,https://publications.msss.gouv.qc.ca/msss/document-001644/?&txt=La&msss_valpub&date=ASC, , , , ,261,0,261,0,0,0,0,0,0,0,0,Deux-Montagnes - Mirabel,QC, ,,0,0, ,0,0,0,0, , , , , , , 
-74.000319745,45.7656924930001,225, ,Hôpital régional de Saint-Jérôme,290 rue Montigny,Saint-Jérôme, , ,(450) 432-2777,https://publications.msss.gouv.qc.ca/msss/document-001644/?&txt=La&msss_valpub&date=ASC, , , , ,326,0,305,0,0,0,0,0,0,0,0,La Rivière-du-Nord - Mirabel,QC, ,,0,0, ,0,0,0,0, , , , , , , 
-78.125432178,48.5746952700001,226, ,Centre hospitalier Hôtel-Dieu d'Amos,"622, 4e Rue Ouest",Amos, , ,(819) 732-3341,https://publications.msss.gouv.qc.ca/msss/document-001644/?&txt=La&msss_valpub&date=ASC, , , , ,179,0,76,0,0,0,0,0,0,0,0,Abitibi,QC, ,,0,0, ,0,0,0,0, , , , , , , 
-79.019318,48.243809,227, ,Centre hospitalier de Rouyn-Noranda,"4, 9e Rue",Rouyn-Noranda, , ,819-764-5131,https://publications.msss.gouv.qc.ca/msss/document-001644/?&txt=La&msss_valpub&date=ASC, , , , ,239,0,82,0,0,0,0,0,0,0,0,Rouyn-Noranda,QC, ,,0,0, ,0,0,0,0, , , , , , , 
-70.685194,46.109716,228, ,Hospital Saint-Georges,"1515, 17e rue",Saint-Georges, , ,(418) 228-2031,https://publications.msss.gouv.qc.ca/msss/document-001644/?&txt=La&msss_valpub&date=ASC, , , , ,117,0,107,0,0,0,0,0,0,0,0,Beauce-Sartigan,QC, ,,0,0, ,0,0,0,0, , , , , , , 
-73.45843151,45.538275952,229, ,Hôpital Pierre-Boucher,"1333, boulevard Jacques-Cartier Est",Longueuil, , ,(450) 468-8111,https://publications.msss.gouv.qc.ca/msss/document-001644/?&txt=La&msss_valpub&date=ASC, , , , ,333,0,298,0,0,0,0,0,0,0,0,Longueuil-Est,QC, ,,0,0, ,0,0,0,0, , , , , , , 
-73.2701326059999,45.3325079160001,230, ,Hôpital du Haut-Richelieu,"920, boulevard du Séminaire Nord",Saint-Jean-sur-Richelieu, , ,(450) 359-5000,https://publications.msss.gouv.qc.ca/msss/document-001644/?&txt=La&msss_valpub&date=ASC, , , , ,269,0,249,0,0,0,0,0,0,0,0,Saint-Jean-sur-Richelieu - Saint-Luc,QC, ,,0,0, ,0,0,0,0, , , , , , , 
-73.095632999,46.0457216400001,231, ,Hopital Hotel-Dieu de Sorel,"400, avenue de l'Hôtel-Dieu",Sorel-Tracy, , ,(450) 746-6000,https://publications.msss.gouv.qc.ca/msss/document-001644/?&txt=La&msss_valpub&date=ASC, , , , ,144,0,124,0,0,0,0,0,0,0,0,Bas Richelieu,QC, ,,0,0, ,0,0,0,0, , , , , , , 
-74.130489132,45.250761341,232, ,Hôpital du Suroît,"150, rue Saint-Thomas",Salaberry-de-Valleyfield, , ,(450) 371-9920,https://publications.msss.gouv.qc.ca/msss/document-001644/?&txt=La&msss_valpub&date=ASC, , , , ,187,0,171,0,0,0,0,0,0,0,0,Valleyfield-Beauharnois,QC, ,,0,0, ,0,0,0,0, , , , , , , 
-73.763360169,45.345883445,233, ,Centre hospitalier Anna-Laberge,"200, boulevard Brisebois",Châteauguay, , ,(450) 699-2425,https://publications.msss.gouv.qc.ca/msss/document-001644/?&txt=La&msss_valpub&date=ASC, , , , ,204,0,183,0,0,0,0,0,0,0,0,Châteauguay-Mercier,QC, ,,0,0, ,0,0,0,0, , , , , , , 
-72.7147282829999,45.2072623920001,234, ,Hôpital Brome-Missisquoi-Perkins,"950, rue Principale",Cowansville, , ,(450) 266-4342,https://publications.msss.gouv.qc.ca/msss/document-001644/?&txt=La&msss_valpub&date=ASC, , , , ,84,0,84,0,0,0,0,0,0,0,0,Cowansville-Farnham-Bedford,QC, ,,0,0, ,0,0,0,0, , , , , , , 
-72.959450251,45.634884013,235, ,Hôpital Honoré-Mercier,"2750, boulevard Laframboise",Saint-Hyacinthe, , ,(450) 771-3333,https://publications.msss.gouv.qc.ca/msss/document-001644/?&txt=La&msss_valpub&date=ASC, , , , ,221,0,221,0,0,0,0,0,0,0,0,Les Maskoutains,QC, ,,0,0, ,0,0,0,0, , , , , , , 
-71.2530430849999,46.7965682070001,236, ,Hôpital Jeffery Hale - Saint Brigid's,"1250, chemin Sainte-Foy",Québec, , ,(418) 683-4471,https://publications.msss.gouv.qc.ca/msss/document-001644/?&txt=La&msss_valpub&date=ASC, , , , ,289,0,25,0,0,0,0,0,0,0,0,Québec - Haute-Ville,QC, ,,0,0, ,0,0,0,0, , , , , , , 
-66.38380061,50.2101555780001,237, ,Hôpital de Sept-Îles,45 rue du Père-Divet,Sept-Îles, , ,(418) 962-9761,https://publications.msss.gouv.qc.ca/msss/document-001644/?&txt=La&msss_valpub&date=ASC, , , , ,212,0,117,0,0,0,0,0,0,0,0,Sept-Îles,QC, ,,0,0, ,0,0,0,0, , , , , , , 
-71.296563294,46.778810804,238, ,Institut universitaire de cardiologie et de pneumologie de Québec – Université Laval,"2725, chemin Sainte-Foy",Québec, , ,(418) 656-8711,https://publications.msss.gouv.qc.ca/msss/document-001644/?&txt=La&msss_valpub&date=ASC, , , , ,338,0,338,0,0,0,0,0,0,0,0,Sainte-Foy - Sillery,QC, ,,0,0, ,0,0,0,0, , , , , , , 
-72.9289880009999,46.254591,239, ,Centre de service Avellin-Dalcourt,"450, 2e Rue",Louiseville, , ,(819) 228-2731,https://publications.msss.gouv.qc.ca/msss/document-001644/?&txt=La&msss_valpub&date=ASC, , , , ,19,0,3,0,0,0,0,0,0,0,0,Maskinongé,QC, ,,0,0, ,0,0,0,0, , , , , , , 
-73.486423,45.497266,240, ,Hôpital Charles Lemoyne,"3120, boulevard Taschereau",Longueuil, , ,(450) 466-5000,https://publications.msss.gouv.qc.ca/msss/document-001644/?&txt=La&msss_valpub&date=ASC, , , , ,473,0,473,0,0,0,0,0,0,0,0,Brossard - Saint-Lambert,QC, ,,0,0, ,0,0,0,0, , , , , , , 
-71.225495,46.837203001,241, ,Hôpital de l’Enfant-Jésus,"1401, 18e Rue",Québec, , ,(418) 649-5555,https://publications.msss.gouv.qc.ca/msss/document-001644/?&txt=La&msss_valpub&date=ASC, , , , ,1263,0,376,0,0,0,0,0,0,0,0,Limoilou-Vanier,QC, ,,0,0, ,0,0,0,0, , , , , , , 
-77.275795,60.03765,242, ,Centre de sante inuulitsivik - inuulitsivik healthcenter,chemin baie d'hudson,Puvirnituq, , ,(819) 988-2957,https://publications.msss.gouv.qc.ca/msss/document-001644/?&txt=La&msss_valpub&date=ASC, , , , ,25,0,25,0,0,0,0,0,0,0,0, ,QC, ,,0,0, ,0,0,0,0, , , , , , , 
-73.601014746,45.47313023,243, ,Centre universitaire de santé McGill,"1001, rue Décarie",Montréal, , ,(514) 934-1934,https://publications.msss.gouv.qc.ca/msss/document-001644/?&txt=La&msss_valpub&date=ASC, , , , ,832,0,0,0,0,0,0,0,0,0,0,Notre-Dame-de-Grâce - Montréal-Ouest,QC, ,,0,0, ,0,0,0,0, , , , , , , 
-78.891546,53.7838439990001,244, ,Centre hospitalier régional de Chisasibi,21 rue Maamuu,Chisasibi, , ,819-855-2844,https://publications.msss.gouv.qc.ca/msss/document-001644/?&txt=La&msss_valpub&date=ASC, , , , ,29,0,17,0,0,0,0,0,0,0,0,Territoire Cri,QC, ,,0,0, ,0,0,0,0, , , , , , , 
-73.601742508,45.4718763220001,245, ,Hôpital Shriners pour enfants (Québec) Inc.,"1003, boulevard Décarie",Montréal, , ,(418) 842-4464,https://publications.msss.gouv.qc.ca/msss/document-001644/?&txt=La&msss_valpub&date=ASC, , , , ,22,0,22,0,0,0,0,0,0,0,0,Notre-Dame-de-Grâce - Montréal-Ouest,QC, ,,0,0, ,0,0,0,0, , , , , , , 
-73.571719001,45.580138,246, ,Hôpital Santa Cabrini,"5655, rue Saint-Zotique Est",Montréal, , ,(514) 252-6000,https://publications.msss.gouv.qc.ca/msss/document-001644/?&txt=La&msss_valpub&date=ASC, , , , ,369,0,351,0,0,0,0,0,0,0,0,Rosemont,QC, ,,0,0, ,0,0,0,0, , , , , , , 
-79.02059245,48.2441180820001,247, ,Centre hospitalier de Rouyn-Noranda,"3, 9e Rue",Rouyn-Noranda, , ,819-764-5131,https://publications.msss.gouv.qc.ca/msss/document-001644/?&txt=La&msss_valpub&date=ASC, , , , ,0,0,0,0,0,0,0,0,0,0,0,Rouyn-Noranda,QC, ,,0,0, ,0,0,0,0, , , , , , , 
-73.556556305,45.511418672,248, ,Centre hospitalier de l'Université de Montréal,"1000, rue Saint-Denis",Montréal, , ,(514) 890-8000,https://publications.msss.gouv.qc.ca/msss/document-001644/?&txt=La&msss_valpub&date=ASC, , , , ,782,0,734,0,0,0,0,0,0,0,0,Montréal - Centre-Ville,QC, ,,0,0, ,0,0,0,0, , , , , , , 
-73.5587571569999,45.511183906,249, ,Centre hospitalier de l'Université de Montréal,"264, boulevard René-Lévesque Est",Montréal, , ,(514) 890-8000,https://publications.msss.gouv.qc.ca/msss/document-001644/?&txt=La&msss_valpub&date=ASC, , , , ,0,0,0,0,0,0,0,0,0,0,0,Montréal - Centre-Ville,QC, ,,0,0, ,0,0,0,0, , , , , , , 
-70.512089822,47.439805655,250, ,Hôpital de Baie-Saint-Paul,"88, rue Racine",Baie-Saint-Paul, , ,418-435-5150,https://publications.msss.gouv.qc.ca/msss/document-001644/?&txt=La&msss_valpub&date=ASC, , , , ,38,0,28,0,0,0,0,0,0,0,0,Charlevoix-Ouest,QC, ,,0,0, ,0,0,0,0, , , , , , , 
-73.457012001,46.039277,251, ,Centre hospitalier régional de Lanaudière,"1000, boulevard Sainte-Anne",Saint-Charles-Borromée, , ,(000) 000-0000,https://publications.msss.gouv.qc.ca/msss/document-001644/?&txt=La&msss_valpub&date=ASC, , , , ,278,0,258,0,0,0,0,0,0,0,0,Joliette,QC, ,,0,0, ,0,0,0,0, , , , , , , 
-67.090300999,52.79669,252, ,Centre multiservices de santé et de services sociaux de Fermont,1 rue Aquilon,Fermont, , ,(418) 287-5461,https://publications.msss.gouv.qc.ca/msss/document-001644/?&txt=La&msss_valpub&date=ASC, , , , ,6,0,6,0,0,0,0,0,0,0,0,Caniapiscau,QC, ,,0,0, ,0,0,0,0, , , , , , , 
-63.605244,50.2378110010001,253, ,CSSS de la Minganie,1035 promenade des Anciens,Havre-Saint-Pierre, , ,(418) 538-2212,https://publications.msss.gouv.qc.ca/msss/document-001644/?&txt=La&msss_valpub&date=ASC, , , , ,73,0,13,0,0,0,0,0,0,0,0,Minganie,QC, ,,0,0, ,0,0,0,0, , , , , , , 
-57.203471501,51.4117777550001,254, ,CSSS de la Basse-Côte-Nord,1070 boulevard Docteur-Camille-Marcoux,Blanc-Sablon, , ,(418) 461-2144,https://publications.msss.gouv.qc.ca/msss/document-001644/?&txt=La&msss_valpub&date=ASC, , , , ,12,0,12,0,0,0,0,0,0,0,0,Basse Côte-Nord,QC, ,,0,0, ,0,0,0,0, , , , , , , 
-71.258819559,46.725306518,255, ,Centre Paul-Gilbert,"9330, boulevard du Centre-Hospitalier",Lévis, , ,(418) 380-8993,https://publications.msss.gouv.qc.ca/msss/document-001644/?&txt=La&msss_valpub&date=ASC, , , , ,6,0,6,0,0,0,0,0,0,0,0,Les Chutes-de-la-Chaudière,QC, ,,0,0, ,0,0,0,0, , , , , , , 
-70.59649086,46.976336261,256, ,Hôpital de Montmagny,"350, boulevard Taché Ouest",Montmagny, , ,(418) 248-0630,https://publications.msss.gouv.qc.ca/msss/document-001644/?&txt=La&msss_valpub&date=ASC, , , , ,60,0,54,0,0,0,0,0,0,0,0,Montmagny,QC, ,,0,0, ,0,0,0,0, , , , , , , 
-71.2786870269999,46.1094582870001,257, ,Hôpital de Thetford Mines,"1717, rue Notre-Dame Est",Thetford Mines, , ,(418) 338-7777,https://publications.msss.gouv.qc.ca/msss/document-001644/?&txt=La&msss_valpub&date=ASC, , , , ,426,0,96,0,0,0,0,0,0,0,0,Les Appalaches,QC, ,,0,0, ,0,0,0,0, , , , , , , 
-74.352292988,45.6619319970001,258, ,CSSS d'Argenteuil,145 avenue de la Providence,Lachute, , ,(450) 562-3761,https://publications.msss.gouv.qc.ca/msss/document-001644/?&txt=La&msss_valpub&date=ASC, , , , ,180,0,49,0,0,0,0,0,0,0,0,Argenteuil,QC, ,,0,0, ,0,0,0,0, , , , , , , 
-73.562116,45.577463,259, ,Hôpital Maisonneuve-Rosemont - Pavillon Rosemont et Pavillon Lavoisier,5689 boulevard Rosemont,Montréal, , ,514-252-3400,https://publications.msss.gouv.qc.ca/msss/document-001644/?&txt=La&msss_valpub&date=ASC, , , , ,0,0,0,0,0,0,0,0,0,0,0,Rosemont,QC, ,,0,0, ,0,0,0,0, , , , , , , 
-65.0592516309999,44.946846291,260, ,Soldiers Memorial Hospital,462 Main Street,Middleton, , , 902-825-3411,https://novascotia.ca/dhw/about/hospitals.asp, , , , ,82,0,39,0,0,0,0,0,0,0,0,Zone 1 - Western,NS, ,,0,0, ,0,0,0,0, , , , , , , 
-64.5006027919999,45.082737971,261, ,Valley Regional Hospital,150 Exhibition Street,Kentville, , , 902-678-7381,https://novascotia.ca/dhw/about/hospitals.asp, , , , ,137,0,109,0,0,0,0,0,0,0,0,Zone 1 - Western,NS, ,,0,0, ,0,0,0,0, , , , , , , 
-65.5018157969999,44.736633473,262, ,Annapolis Community Health Centre,821 St. George Street,Annapolis Royal, , , 902-532-2381,https://novascotia.ca/dhw/about/hospitals.asp, , , , ,6,0,6,0,0,0,0,0,0,0,0,Zone 1 - Western,NS, ,,0,0, ,0,0,0,0, , , , , , , 
-60.333825463,46.8105087710001,263, ,Buchanan Memorial Community Health Centre,32610 Cabot Trail,Neil’s Harbour, , , 902-336-2200,https://novascotia.ca/dhw/about/hospitals.asp, , , , ,10,0,10,0,0,0,0,0,0,0,0,Zone 3 - Eastern,NS, ,,0,0, ,0,0,0,0, , , , , , , 
-60.174296988,46.112815896,264, ,Cape Breton Regional Hospital,1482 George Street,Sydney, , , 902- 567-8000,https://novascotia.ca/dhw/about/hospitals.asp, , , , ,459,0,336,0,0,0,0,0,0,0,0,Zone 3 - Eastern,NS, ,,0,0, ,0,0,0,0, , , , , , , 
-59.938916746,46.1832659570001,265, ,Glace Bay Health Care Facility,300 South Street,Glace Bay, , , 902-849-5511,https://novascotia.ca/dhw/about/hospitals.asp, , , , ,66,0,44,0,0,0,0,0,0,0,0,Zone 3 - Eastern,NS, ,,0,0, ,0,0,0,0, , , , , , , 
-60.2221995,46.2347369990001,266, ,Harbourview Hospital,22 Richard Street,Sydney Mines, , , 902-736-2831,https://novascotia.ca/dhw/about/hospitals.asp, , , , ,49,0,21,0,0,0,0,0,0,0,0,Zone 3 - Eastern,NS, ,,0,0, ,0,0,0,0, , , , , , , 
-61.304800757,46.227019393,267, ,Inverness Consolidated Memorial Hospital,39 James Street,Inverness, , , 902-258-2100,https://novascotia.ca/dhw/about/hospitals.asp, , , , ,33,0,33,0,0,0,0,0,0,0,0,Zone 3 - Eastern,NS, ,,0,0, ,0,0,0,0, , , , , , , 
-60.235677287,46.2182452930001,268, ,Northside General Hospital,520 Purves Street,North Sydney, , , 902-794-8521,https://novascotia.ca/dhw/about/hospitals.asp, , , , ,81,0,45,0,0,0,0,0,0,0,0,Zone 3 - Eastern,NS, ,,0,0, ,0,0,0,0, , , , , , , 
-61.01567957,46.623468411,269, ,Sacred Heart Community Health Centre,15102 Cabot Trail,Cheticamp, , , 902-224-1500,https://novascotia.ca/dhw/about/hospitals.asp, , , , ,10,0,10,0,0,0,0,0,0,0,0,Zone 3 - Eastern,NS, ,,0,0, ,0,0,0,0, , , , , , , 
-60.085864433,46.2398308960001,270, ,New Waterford Consolidated Hospital,716 King Street,New Waterford, , , 902-862-6411,https://novascotia.ca/dhw/about/hospitals.asp, , , , ,45,0,21,0,0,0,0,0,0,0,0,Zone 3 - Eastern,NS, ,,0,0, ,0,0,0,0, , , , , , , 
-60.755893143,46.1002611170001,271, ,Victoria County Memorial Hospital,30 Old Margaree Road,Baddeck, , , 902-295-2112,https://novascotia.ca/dhw/about/hospitals.asp, , , , ,12,0,12,0,0,0,0,0,0,0,0,Zone 3 - Eastern,NS, ,,0,0, ,0,0,0,0, , , , , , , 
-63.658664345,44.7569827340001,272, ,Cobequid Community Health Centre,40 Freer Lane,Lower Sackville, , , 902-869-6100,https://novascotia.ca/dhw/about/hospitals.asp, , , , ,0,0,0,0,0,0,0,0,0,0,0,Zone 4 - Central,NS, ,,0,0, ,0,0,0,0, , , , , , , 
-63.5476185,44.653977,273, ,Dartmouth General Hospital,325 Pleasant Street,Dartmouth, , , 902-465-8300,https://novascotia.ca/dhw/about/hospitals.asp, , , , ,115,0,115,0,0,0,0,0,0,0,0,Zone 4 - Central,NS, ,,0,0, ,0,0,0,0, , , , , , , 
-64.1203695,44.986383,274, ,Hants Community Hospital,89 Payzant Drive,Windsor, , , 902-792-2000,https://novascotia.ca/dhw/about/hospitals.asp, , , , ,70,0,38,0,0,0,0,0,0,0,0,Zone 4 - Central,NS, ,,0,0, ,0,0,0,0, , , , , , , 
-62.532921191,44.9207243720001,275, ,Eastern Shore Memorial Hospital,22637 #7 Highway,Sheet Harbour, , , 902- 885-2554,https://novascotia.ca/dhw/about/hospitals.asp, , , , ,5,0,5,0,0,0,0,0,0,0,0,Zone 4 - Central,NS, ,,0,0, ,0,0,0,0, , , , , , , 
-63.548953318,44.6520487990001,276, ,The Nova Scotia Hospital,300 Pleasant Street,Dartmouth, , , 902- 464-3111,https://novascotia.ca/dhw/about/hospitals.asp, , , , ,98,0,0,0,0,0,0,0,0,0,0,Zone 4 - Central,NS, ,,0,0, ,0,0,0,0, , , , , , , 
-63.1403685,45.040284,277, ,Musquodoboit Valley Memorial Hospital,492 Archibald Brook Road,Middle Musquodoboit, , , 902-384-2220,https://novascotia.ca/dhw/about/hospitals.asp, , , , ,6,0,6,0,0,0,0,0,0,0,0,Zone 4 - Central,NS, ,,0,0, ,0,0,0,0, , , , , , , 
-63.303513962,45.3492923480001,278, ,Colchester East Hants Health Centre,600 Abenaki Road,Truro, , ,902-893-4321,https://novascotia.ca/dhw/about/hospitals.asp, , , , ,106,0,80,0,0,0,0,0,0,0,0,Zone 2 - Northern,NS, ,,0,0, ,0,0,0,0, , , , , , , 
-63.580458478,44.6384304960001,279, ,QEII Health Sciences Centre (multiple buildings),1276 South Park Street,Halifax, , ,902- 473-2700,https://novascotia.ca/dhw/about/hospitals.asp, , , , ,975,0,661,0,0,0,0,0,0,0,0,Zone 4 - Central,NS, ,,0,0, ,0,0,0,0, , , , , , , 
-63.1584053619999,44.7830012900001,280, ,Twin Oaks Memorial Hospital,7702 #7 Highway,Musquodoboit Harbour, , , 902- 889-4110,https://novascotia.ca/dhw/about/hospitals.asp, , , , ,15,0,15,0,0,0,0,0,0,0,0,Zone 4 - Central,NS, ,,0,0, ,0,0,0,0, , , , , , , 
-63.583527324,44.637509945,281, ,IWK Health Centre,5850/5980 University Avenue,Halifax, , , 902-470-8888,https://novascotia.ca/dhw/about/hospitals.asp, , , , ,132,0,69,0,0,0,0,0,0,0,0, ,NS, ,,0,0, ,0,0,0,0, , , , , , , 
-63.296352,45.711531,282, ,Lillian Fraser Memorial Hospital,110 Blair Avenue,Tatamagouche, , , 902-657-2382,https://novascotia.ca/dhw/about/hospitals.asp, , , , ,13,0,13,0,0,0,0,0,0,0,0,Zone 2 - Northern,NS, ,,0,0, ,0,0,0,0, , , , , , , 
-63.65896335,45.856113469,283, ,North Cumberland Memorial Hospital,260 Church Street,Pugwash, , , 902-243-2521,https://novascotia.ca/dhw/about/hospitals.asp, , , , ,4,0,4,0,0,0,0,0,0,0,0,Zone 2 - Northern,NS, ,,0,0, ,0,0,0,0, , , , , , , 
-64.050250395,45.6504555010001,284, ,All Saints Springhill Hospital,10 Princess Street,Springhill, , , 902-597-3773,https://novascotia.ca/dhw/about/hospitals.asp, , , , ,30,0,0,0,0,0,0,0,0,0,0,Zone 2 - Northern,NS, ,,0,0, ,0,0,0,0, , , , , , , 
-64.3259295,45.409076999,285, ,South Cumberland Community Care Centre,50 Jenks Avenue,Parrsboro, , , 902-254-2540,https://novascotia.ca/dhw/about/hospitals.asp, , , , ,16,0,2,0,0,0,0,0,0,0,0,Zone 2 - Northern,NS, ,,0,0, ,0,0,0,0, , , , , , , 
-60.984172121,45.3327941,286, ,Eastern Memorial Hospital,1746 Union Street,Canso, , , 902-366-2794,https://novascotia.ca/dhw/about/hospitals.asp, , , , ,6,0,6,0,0,0,0,0,0,0,0,Zone 3 - Eastern,NS, ,,0,0, ,0,0,0,0, , , , , , , 
-64.197056276,45.804172415,287, ,Cumberland Regional Health Care Centre,"19428 Highway 2, RR 6",Amherst, , , 902-667-3361,https://novascotia.ca/dhw/about/hospitals.asp, , , , ,72,0,64,0,0,0,0,0,0,0,0,Zone 2 - Northern,NS, ,,0,0, ,0,0,0,0, , , , , , , 
-61.507129318,45.402215078,288, ,Guysborough Memorial Hospital,10560 Route 16,Guysborough, , , 902-533-3702,https://novascotia.ca/dhw/about/hospitals.asp, , , , ,10,0,10,0,0,0,0,0,0,0,0,Cumberland County,NS, ,,0,0, ,0,0,0,0, , , , , , , 
-61.9821759819999,45.628163188,289, ,St. Martha’s Regional Hospital,25 Bay Street,Antigonish, , , 902-863-2830,https://novascotia.ca/dhw/about/hospitals.asp, , , , ,92,0,51,0,0,0,0,0,0,0,0,Zone 3 - Eastern,NS, ,,0,0, ,0,0,0,0, , , , , , , 
-61.9817805,45.1469491330001,290, ,St. Mary’s Memorial Hospital,91 Hospital Road,Sherbrooke, , , 902-522-2882,https://novascotia.ca/dhw/about/hospitals.asp, , , , ,6,0,6,0,0,0,0,0,0,0,0,Zone 3 - Eastern,NS, ,,0,0, ,0,0,0,0, , , , , , , 
-61.222942899,45.616899561,291, ,Strait Richmond Hospital,138 Hospital Road,Evanston, , , 902-625-3100,https://novascotia.ca/dhw/about/hospitals.asp, , , , ,31,0,15,0,0,0,0,0,0,0,0,Zone 3 - Eastern,NS, ,,0,0, ,0,0,0,0, , , , , , , 
-62.727029999,45.676512,292, ,Sutherland Harris Memorial Hospital,222 Haliburton Road,Pictou, , , 902-485-4324,https://novascotia.ca/dhw/about/hospitals.asp, , , , ,38,0,0,0,0,0,0,0,0,0,0,Zone 2 - Northern,NS, ,,0,0, ,0,0,0,0, , , , , , , 
-62.6431482849999,45.5730162610001,293, ,Aberdeen Hospital,835 East River Road,New Glasgow, , , 902-752-7600,https://novascotia.ca/dhw/about/hospitals.asp, , , , ,113,0,90,0,0,0,0,0,0,0,0,Zone 2 - Northern,NS, ,,0,0, ,0,0,0,0, , , , , , , 
-64.705599,44.037657,294, ,Queens General Hospital,175 School Street,Liverpool, , , 902-354-3436,https://novascotia.ca/dhw/about/hospitals.asp, , , , ,22,0,22,0,0,0,0,0,0,0,0,Zone 1 - Western,NS, ,,0,0, ,0,0,0,0, , , , , , , 
-64.32698855,44.3823513460001,295, ,Fishermen's Memorial Hospital,14 High Street,Lunenburg, , , 902-634-8801,https://novascotia.ca/dhw/about/hospitals.asp, , , , ,53,0,18,0,0,0,0,0,0,0,0,Zone 1 - Western,NS, ,,0,0, ,0,0,0,0, , , , , , , 
-65.761659,44.616528,296, ,Digby General Hospital,75 Warwick Street,Digby, , ,902-245-2501,https://novascotia.ca/dhw/about/hospitals.asp, , , , ,33,0,20,0,0,0,0,0,0,0,0,Zone 1 - Western,NS, ,,0,0, ,0,0,0,0, , , , , , , 
-64.510839656,44.3831132330001,297, ,South Shore Regional Hospital,90 Glen Allan Drive,Bridgewater, , , 902-543-4603,https://novascotia.ca/dhw/about/hospitals.asp, , , , ,80,0,60,0,0,0,0,0,0,0,0,Zone 1 - Western,NS, ,,0,0, ,0,0,0,0, , , , , , , 
-66.1215745769999,43.850565569,298, ,Yarmouth Regional Hospital,60 Vancouver Street,Yarmouth, , , 902-742-3541,https://novascotia.ca/dhw/about/hospitals.asp, , , , ,122,0,83,0,0,0,0,0,0,0,0,Zone 1 - Western,NS, ,,0,0, ,0,0,0,0, , , , , , , 
-67.266463098,45.19467074,299, ,Charlotte County Hospital,4 Garden Street,St. Stephen, , ,506-465-4444,https://en.horizonnb.ca/home/facilities-and-services/facilities.aspx?cat=1&type=hospital, , , , ,44,0,29,0,0,0,0,0,0,0,0,Zone 2 (Saint John area/région de Saint John),NB, ,,0,0, ,0,0,0,0, , , , , , , 
-65.31027979,43.7492847350001,300, ,Roseway Hospital,1606 Lake Road,Shelburne, , , 902-875-3011,https://novascotia.ca/dhw/about/hospitals.asp, , , , ,19,0,19,0,0,0,0,0,0,0,0,Zone 1 - Western,NS, ,,0,0, ,0,0,0,0, , , , , , , 
-66.763748865,44.7622085310001,301, ,Grand Manan Hospital,196 Route 776,Grand Manan, , ,506-662-4060,https://en.horizonnb.ca/home/facilities-and-services/facilities.aspx?cat=1&type=hospital, , , , ,10,0,8,0,0,0,0,0,0,0,0,Zone 2 (Saint John area/région de Saint John),NB, ,,0,0, ,0,0,0,0, , , , , , , 
-66.654429866,45.9384765550001,302, ,Dr. Everett Chalmers Regional Hospital,700 Priestman Street,Fredericton, , ,506-452-5400,https://en.horizonnb.ca/home/facilities-and-services/facilities.aspx?cat=1&type=hospital, , , , ,314,0,201,0,0,0,0,0,0,0,0,Zone 3 (Fredericton area/région de Fredericton),NB, ,,0,0, ,0,0,0,0, , , , , , , 
-65.5413298989999,47.0029601640001,303, ,Miramichi Regional Hospital,500 Water Street,Miramichi, , ,506-623-3000,https://en.horizonnb.ca/home/facilities-and-services/facilities.aspx?cat=1&type=hospital, , , , ,150,0,68,0,0,0,0,0,0,0,0,Zone 7 (Miramichi area/région de Miramichi),NB, ,,0,0, ,0,0,0,0, , , , , , , 
-66.473374728,45.8486354730001,304, ,Oromocto Public Hospital,103 Winnebago Street,Oromocto, , ,506-357-4700,https://en.horizonnb.ca/home/facilities-and-services/facilities.aspx?cat=1&type=hospital, , , , ,45,0,28,0,0,0,0,0,0,0,0,Zone 3 (Fredericton area/région de Fredericton),NB, ,,0,0, ,0,0,0,0, , , , , , , 
-67.7100727979999,46.7291382390001,305, ,Hotel-Dieu of St. Joseph,10 Woodland Hill,Perth-Andover, , ,506-273-7100,https://en.horizonnb.ca/home/facilities-and-services/facilities.aspx?cat=1&type=hospital, , , , ,22,0,22,0,0,0,0,0,0,0,0,Zone 3 (Fredericton area/région de Fredericton),NB, ,,0,0, ,0,0,0,0, , , , , , , 
-64.3734392819999,45.8922920380001,306, ,Sackville Memorial Hospital,8 Main Street,Sackville, , ,506-364-4100,https://en.horizonnb.ca/home/facilities-and-services/facilities.aspx?cat=1&type=hospital, , , , ,21,0,21,0,0,0,0,0,0,0,0,Zone 1 (Moncton area/région de Moncton),NB, ,,0,0, ,0,0,0,0, , , , , , , 
-66.057734974,45.2789364070001,307, ,St. Joseph's Hospital,130 Bayard Drive,Saint John, , ,506-632-5555,https://en.horizonnb.ca/home/facilities-and-services/facilities.aspx?cat=1&type=hospital, , , , ,104,0,0,0,0,0,0,0,0,0,0,Zone 2 (Saint John area/région de Saint John),NB, ,,0,0, ,0,0,0,0, , , , , , , 
-65.4899102539999,45.7262645600001,308, ,Sussex Health Centre,75 Leonard Drive,Sussex, , ,506-432-3100,https://en.horizonnb.ca/home/facilities-and-services/facilities.aspx?cat=1&type=hospital, , , , ,25,0,25,0,0,0,0,0,0,0,0,Zone 2 (Saint John area/région de Saint John),NB, ,,0,0, ,0,0,0,0, , , , , , , 
-66.085055664,45.3021959180001,309, ,Saint John Regional Hospital,400 University Avenue,Saint John, , ,506-648-6000,https://en.horizonnb.ca/home/facilities-and-services/facilities.aspx?cat=1&type=hospital, , , , ,486,0,348,0,0,0,0,0,0,0,0,Zone 2 (Saint John area/région de Saint John),NB, ,,0,0, ,0,0,0,0, , , , , , , 
-64.8050208289999,46.104851941,310, ,The Moncton Hospital,135 MacBeath Avenue,Moncton, , ,506-857-5111,https://en.horizonnb.ca/home/facilities-and-services/facilities.aspx?cat=1&type=hospital, , , , ,382,0,235,0,0,0,0,0,0,0,0,Zone 1 (Moncton area/région de Moncton),NB, ,,0,0, ,0,0,0,0, , , , , , , 
-67.57089773,46.2835388230001,311, ,Upper River Valley Hospital,11300 Route 130,Waterville, , ,506-375-5900,https://en.horizonnb.ca/home/facilities-and-services/facilities.aspx?cat=1&type=hospital, , , , ,52,0,47,0,0,0,0,0,0,0,0,Zone 3 (Fredericton area/région de Fredericton),NB, ,,0,0, ,0,0,0,0, , , , , , , 
-68.310507184,47.3764596980001,312, ,Edmunston Regional Hospital,275 Hébert Boulevard,Edmundston, , ,506-739-2200,https://www.vitalitenb.ca/en/interactive-network-map, , , , ,169,0,63,0,0,0,0,0,0,0,0,Zone 4 (Edmundston area/région d'Edmundston),NB, ,,0,0, ,0,0,0,0, , , , , , , 
-67.393323068,47.4976091180001,313, ,Hôtel-Dieu Saint-Joseph de Saint-Quentin,21 Canada Street,Saint-Quentin, , ,506-235-2300,https://www.vitalitenb.ca/en/interactive-network-map, , , , ,6,0,6,0,0,0,0,0,0,0,0,Zone 4 (Edmundston area/région d'Edmundston),NB, ,,0,0, ,0,0,0,0, , , , , , , 
-67.7546220139999,47.045070809,314, ,Grand Falls General Hospital,625 Everard H. Daigle Boulevard,Grand Falls, , ,506-473-7555,https://www.vitalitenb.ca/en/interactive-network-map, , , , ,20,0,20,0,0,0,0,0,0,0,0,Zone 4 (Edmundston area/région d'Edmundston),NB, ,,0,0, ,0,0,0,0, , , , , , , 
-65.693486747,47.6493782750001,315, ,Chaleur Regional Hospital,1750 Sunset Drive,Bathurst, , ,506-544-3000,https://www.vitalitenb.ca/en/interactive-network-map, , , , ,215,0,112,0,0,0,0,0,0,0,0,Zone 6 (Bathurst area/région de Bathurst),NB, ,,0,0, ,0,0,0,0, , , , , , , 
-66.666657253,47.992932481,316, ,Campbellton Regional Hospital,189 Lily Lake Road,Campbellton, , ,506-789-5000,https://www.vitalitenb.ca/en/interactive-network-map, , , , ,163,0,82,0,0,0,0,0,0,0,0,Zone 5 (Campbellton area/région de Campbellton),NB, ,,0,0, ,0,0,0,0, , , , , , , 
-64.6527379299999,47.791733139,317, ,Lamèque Hospital and Community Health Centre,29 De l'Hôpital Street,Lamèque, , ,506-344-2261,https://www.vitalitenb.ca/en/interactive-network-map, , , , ,12,0,9,0,0,0,0,0,0,0,0,Zone 6 (Bathurst area/région de Bathurst),NB, ,,0,0, ,0,0,0,0, , , , , , , 
-64.906364056,47.512383673,318, ,Tracadie Hospital,400 Des Hospitalières Street,Tracadie, , ,506-394-3000,https://www.vitalitenb.ca/en/interactive-network-map, , , , ,59,0,59,0,0,0,0,0,0,0,0,Zone 6 (Bathurst area/région de Bathurst),NB, ,,0,0, ,0,0,0,0, , , , , , , 
-64.938576042,47.794582038,319, ,Enfant-Jésus RHSJ† Hospital,1 Saint-Pierre Boulevard West,Caraquet, , ,506-726-2100,https://www.vitalitenb.ca/en/interactive-network-map, , , , ,12,0,12,0,0,0,0,0,0,0,0,Zone 6 (Bathurst area/région de Bathurst),NB, ,,0,0, ,0,0,0,0, , , , , , , 
-64.782048539,46.558329171,320, ,Stella-Maris-de-Kent Hospital,7714 Route 134,Sainte-Anne-de-Kent, , ,506-743-7800,https://www.vitalitenb.ca/en/interactive-network-map, , , , ,20,0,20,0,0,0,0,0,0,0,0,Zone 1 (Moncton area/région de Moncton),NB, ,,0,0, ,0,0,0,0, , , , , , , 
-64.787031,46.097973,321, ,Dr. Georges-L.-Dumont University Hospital Centre,330 Université Avenue,Moncton, , ,506-862-4000,https://www.vitalitenb.ca/en/interactive-network-map, , , , ,302,0,174,0,0,0,0,0,0,0,0,Zone 1 (Moncton area/région de Moncton),NB, ,,0,0, ,0,0,0,0, , , , , , , 
-62.244048302,46.351820381,322, ,Souris Hospital ,17 Knights Avenue,Souris, , ,902-687-7150,https://www.princeedwardisland.ca/en/information/health-pei/hospital-services, , , , ,17,0,17,0,0,0,0,0,0,0,0,Prince Edward Island,PE, ,,0,0, ,0,0,0,0, , , , , , , 
-63.773206746,46.4172359780001,323, ,Prince County Hospital ,65 Roy Boates Avenue,Summerside, , ,902-438-4200,https://www.princeedwardisland.ca/en/information/health-pei/hospital-services, , , , ,110,0,110,0,0,0,0,0,0,0,0,1100 Prince Edward Island,PE, ,,0,0, ,0,0,0,0, , , , , , , 
-62.655317211,46.170293616,324, ,Kings County Memorial Hospital ,409 MacIntyre Avenue,Montague, , ,902-838-0777,https://www.princeedwardisland.ca/en/information/health-pei/hospital-services, , , , ,30,0,30,0,0,0,0,0,0,0,0,Prince Edward Island,PE, ,,0,0, ,0,0,0,0, , , , , , , 
-64.236677356,46.7074555,325, ,Community Hospital O'Leary ,14 MacKinnon Drive,O'Leary, , ,902-859-8700,https://www.princeedwardisland.ca/en/information/health-pei/hospital-services, , , , ,13,0,13,0,0,0,0,0,0,0,0,Prince Edward Island,PE, ,,0,0, ,0,0,0,0, , , , , , , 
-64.066252119,46.810682484,326, ,Western Hospital ,148 Poplar Street,Alberton, , ,902-853-8650,https://www.princeedwardisland.ca/en/information/health-pei/hospital-services, , , , ,27,0,25,0,0,0,0,0,0,0,0,Prince Edward Island,PE, ,,0,0, ,0,0,0,0, , , , , , , 
-63.100280106,46.255395428,327, ,Queen Elizabeth Hospital,60 Riverside Drive,Charlottetown, , ,902-894-2111,https://www.princeedwardisland.ca/en/information/health-pei/hospital-services, , , , ,243,0,243,0,0,0,0,0,0,0,0,Prince Edward Island,PE, ,,0,0, ,0,0,0,0, , , , , , , 
-53.226637959,47.725124173,328, ,Carbonear General Hospital,86 Highroad South,Carbonear, , ,709-945-5111,http://www.easternhealth.ca/AboutEH.aspx?d=2&id=724&p=460, , , , ,80,0,80,0,0,0,0,0,0,0,0,Eastern Regional Health Authority,NL, ,,0,0, ,0,0,0,0, , , , , , , 
-52.7214456149999,47.557275131,329, ,St. Clare's Mercy Hospital,154 LeMarchant Road,St. John's, , ,709-777-5000,http://www.easternhealth.ca/AboutEH.aspx?d=2&id=724&p=460, , , , ,209,0,209,0,0,0,0,0,0,0,0,Eastern Regional Health Authority,NL, ,,0,0, ,0,0,0,0, , , , , , , 
-53.984443026,48.1651795670001,330, ,Dr. G.B. Cross Memorial Hospital,67 Manitoba Drive,Clarenville, , ,709-466-3411,http://www.easternhealth.ca/AboutEH.aspx?d=2&id=724&p=460, , , , ,91,0,47,0,0,0,0,0,0,0,0,Eastern Regional Health Authority,NL, ,,0,0, ,0,0,0,0, , , , , , , 
-56.857690421,48.823614585,331, ,A.M. Guy Memorial Health Centre,Water Street,Buchans, , ,709-672-3304,https://www.centralhealth.nl.ca/, , , , ,22,0,2,0,0,0,0,0,0,0,0,Central Regional Health Authority,NL, ,,0,0, ,0,0,0,0, , , , , , , 
-52.749431999,47.528946,332, ,Waterford Hospital,306 Waterford Bridge Road,St. John's, , ,709-777-3300,http://www.easternhealth.ca/AboutEH.aspx?d=2&id=724&p=460, , , , ,174,0,174,0,0,0,0,0,0,0,0,Eastern Health,NL, ,,0,0, ,0,0,0,0, , , , , , , 
-52.7419725299999,47.5716478240001,333, ,Health Sciences Centre - General Hospital,300 Prince Phillip Drive,St. John's, , ,709-777-6300,http://www.easternhealth.ca/AboutEH.aspx?d=2&id=724&p=460, , , , ,348,0,294,0,0,0,0,0,0,0,0,Eastern Regional Health Authority,NL, ,,0,0, ,0,0,0,0, , , , , , , 
-56.047690909,49.5078496360001,334, ,Green Bay Health Centre,326 Main Street,Springdale, , ,709-673-3911,https://www.centralhealth.nl.ca/, , , , ,87,0,9,0,0,0,0,0,0,0,0,Central Regional Health Authority,NL, ,,0,0, ,0,0,0,0, , , , , , , 
-56.221603401,49.9257387600001,335, ,Baie Verte Peninsula Health Centre,7 Hospital Drive,Baie Verte, , ,709-532-4281,https://www.centralhealth.nl.ca/, , , , ,26,0,6,0,0,0,0,0,0,0,0,Central Regional Health Authority,NL, ,,0,0, ,0,0,0,0, , , , , , , 
-54.6286558429999,48.9559208470001,336, ,James Paton Memorial Regional Health Centre,201 Trans-Canada Highway,Gander, , ,709-256-2500,https://www.centralhealth.nl.ca/, , , , ,85,0,75,0,0,0,0,0,0,0,0,Central Regional Health Authority,NL, ,,0,0, ,0,0,0,0, , , , , , , 
-55.644796143,48.934022951,337, ,Central Newfoundland Regional Health Centre,50 Union Street,Grand Falls - Windsor, , ,709-292-2500,https://www.centralhealth.nl.ca/, , , , ,145,0,130,0,0,0,0,0,0,0,0,Central Regional Health Authority,NL, ,,0,0, ,0,0,0,0, , , , , , , 
-57.3056456689999,50.649446858,338, ,Rufus Guinchard Health Centre, ,Port Saunders, , ,709-861-3139,http://www.westernhealth.nl.ca/home/locations/, , , , ,29,0,7,0,0,0,0,0,0,0,0,Western Regional Health Authority,NL, ,,0,0, ,0,0,0,0, , , , , , , 
-54.224589489,49.6655807070001,339, ,Fogo Island Health Centre,Main Street,Fogo, , ,709-266-2221,https://www.centralhealth.nl.ca/, , , , ,14,0,0,0,0,0,0,0,0,0,0,Central Regional Health Authority,NL, ,,0,0, ,0,0,0,0, , , , , , , 
-57.622694197,47.6139533360001,340, ,Calder Health Centre,7 Peddle Place,Burgeo, , ,709-886-2898,http://www.westernhealth.nl.ca/home/locations/, , , , ,21,0,3,0,0,0,0,0,0,0,0,Western Regional Health Authority,NL, ,,0,0, ,0,0,0,0, , , , , , , 
-58.552506977,48.5594349950001,341, ,Sir Thomas Roddick Hospital,142 Minnesota Drive,Stephenville, , ,709-643-5111,http://www.westernhealth.nl.ca/home/locations/, , , , ,44,0,44,0,0,0,0,0,0,0,0,Western Regional Health Authority,NL, ,,0,0, ,0,0,0,0, , , , , , , 
-57.930807156,48.948710926,342, ,Western Memorial Regional Hospital,1 Brookfield Avenue,Corner Brook, , ,709-637-5000,http://www.westernhealth.nl.ca/home/locations/, , , , ,217,0,160,0,0,0,0,0,0,0,0,Western Regional Health Authority,NL, ,,0,0, ,0,0,0,0, , , , , , , 
-59.162992156,47.5886732710001,343, ,Dr. Charles L. LeGrow Health Centre,2 Grand Bay Road,Port aux Basques, , ,709-695-2175,http://www.westernhealth.nl.ca/home/locations/, , , , ,44,0,14,0,0,0,0,0,0,0,0,Western Regional Health Authority,NL, ,,0,0, ,0,0,0,0, , , , , , , 
-57.875096152,49.5367730240001,344, ,Bonne Health Care Centre,212 Main Street,Norris Point, , ,709-458-2211,http://www.westernhealth.nl.ca/home/locations/, , , , ,22,0,8,0,0,0,0,0,0,0,0,Western Regional Health Authority,NL, ,,0,0, ,0,0,0,0, , , , , , , 
-55.5866604839999,51.362354425,345, ,Charles S. Curtis Memorial Hospital,178-200 West Street,St. Anthony, , ,709-454-3333,https://www.lghealth.ca/facilities/hospitals/, , , , ,50,0,28,0,0,0,0,0,0,0,0,Labrador-Grenfell Regional Health Authority,NL, ,,0,0, ,0,0,0,0, , , , , , , 
-97.8566624219999,55.7353880060001,346, ,Thompson General Hospital,871 Thompson Drive South,Thompson, , ,204-677-2381,https://northernhealthregion.com/our-locations/our-locations-thompson/, , , , ,124,0,79,0,0,0,0,0,0,0,0,Northern Regional Health Authority,MB, ,,0,0, ,0,0,0,0, , , , , , , 
-60.339381057,53.2963025180001,347, ,Labrador Health Centre,227 Hamilton River Road,Happy Valley - Goose Bay, , ,709-897-2000,https://www.lghealth.ca/facilities/hospitals/, , , , ,25,0,20,0,0,0,0,0,0,0,0,Labrador-Grenfell Regional Health Authority,NL, ,,0,0, ,0,0,0,0, , , , , , , 
-66.933197384,52.9498790230001,348, ,Labrador West Health Centre,1700 Nichols-Adam Highway,Labrador City, , ,709-285-8100,https://www.lghealth.ca/facilities/hospitals/, , , , ,28,0,14,0,0,0,0,0,0,0,0,Labrador-Grenfell Regional Health Authority,NL, ,,0,0, ,0,0,0,0, , , , , , , 
-101.877100057,54.764593007,349, ,Flin Flon General Hospital,Third Avenue & Church Street,Flin Flon, , ,204-687-7591,https://northernhealthregion.com/our-locations/#1540668509106-d9d2c9b8-cb85, , , , ,108,0,42,0,0,0,0,0,0,0,0,Northern Regional Health Authority,MB, ,,0,0, ,0,0,0,0, , , , , , , 
-101.362276145,51.2274115370001,350, ,Roblin District Health Centre,15 Hospital Street,Roblin, , ,204-937-2142,https://www.prairiemountainhealth.ca/index.php?option=com_content&view=article&id=64, , , , ,85,0,25,0,0,0,0,0,0,0,0,Prairie Mountain Health,MB, ,,0,0, ,0,0,0,0, , , , , , , 
-100.061361033,51.147969027,351, ,Dauphin Regional Health Centre,"625, 3rd Street, SW",Dauphin, , ,204-638-3010,https://www.prairiemountainhealth.ca/our-locations, , , , ,242,0,82,0,0,0,0,0,0,0,0,Prairie Mountain Health,MB, ,,0,0, ,0,0,0,0, , , , , , , 
-101.262234475,52.105791352,352, ,Swan Valley Health Centre,1011 Main Street,Swan River, , ,204-734-3441,https://www.prairiemountainhealth.ca/our-locations, , , , ,167,0,52,0,0,0,0,0,0,0,0,Prairie Mountain Health,MB, ,,0,0, ,0,0,0,0, , , , , , , 
-101.250905537,53.8274689520001,353, ,St. Anthony's Hospital (The Pas),67 1st Street West,The Pas, , ,204-623-6431,https://northernhealthregion.com/our-locations/#1540668509106-d9d2c9b8-cb86, , , , ,108,0,40,0,0,0,0,0,0,0,0,Northern Regional Health Authority,MB, ,,0,0, ,0,0,0,0, , , , , , , 
-99.9362793449999,49.8398467390001,354, ,Brandon Regional Health Centre,150 McTavish Ave. East,Brandon, , ,205-578-4000,https://www.prairiemountainhealth.ca/our-locations, , , , ,902,0,305,0,0,0,0,0,0,0,0,Prairie Mountain Health,MB, ,,0,0, ,0,0,0,0, , , , , , , 
-99.463110203,50.2347241310001,355, ,Neepawa Health Centre,500 Hospital Street,Neepawa, , ,204-476-2394,https://www.pmh-mb.ca/index.php/neepawa-health-centre-memorial-hospital, , , , ,138,0,38,0,0,0,0,0,0,0,0,Prairie Mountain Health,MB, ,,0,0, ,0,0,0,0, , , , , , , 
-99.518634293,51.05793887,356, ,Ste. Rose General Hospital,480 3rd Ave. SE,Ste. Rose du Lac, , ,204-447-2131,https://www.prairiemountainhealth.ca/our-locations, , , , ,90,0,25,0,0,0,0,0,0,0,0,Prairie Mountain Health,MB, ,,0,0, ,0,0,0,0, , , , , , , 
-99.662330899,49.1758644940001,357, ,Tri-Lakes Health Centre (Killarney),86 Ellis Drive,Killarney, , ,204-523-4661,https://www.prairiemountainhealth.ca/our-locations, , , , ,82,0,22,0,0,0,0,0,0,0,0,Prairie Mountain Health,MB, ,,0,0, ,0,0,0,0, , , , , , , 
-99.839975406,50.2415238610001,358, ,Minnedosa Health Centre,334 1st. Street SW,Minnedosa, , ,204-867-2701,https://www.prairiemountainhealth.ca/index.php/8-our-locations/178-minnedosa-health-centre, , , , ,77,0,27,0,0,0,0,0,0,0,0,Prairie Mountain Health,MB, ,,0,0, ,0,0,0,0, , , , , , , 
-97.226246659,50.906179788,359, ,Arborg & Districts Health Centre,234 Gislason Drive,Arborg, , ,204-376-5247,https://www.ierha.ca/default.aspx?cid=6348&lang=1, , , , ,54,0,14,0,0,0,0,0,0,0,0,Interlake-Eastern,MB, ,,0,0, ,0,0,0,0, , , , , , , 
-98.352624916,51.180378913,360, ,Ashern - Lakeshore General Hospital,1 Steenson Drive,Ashern, , ,204-768-2461,https://www.ierha.ca/default.aspx?cid=6348&lang=1, , , , ,34,0,14,0,0,0,0,0,0,0,0,Interlake-Eastern,MB, ,,0,0, ,0,0,0,0, , , , , , , 
-96.9941323039999,50.6276513080001,361, ,Gimli - Johnson Memorial Hospital in Gimli Community Health Centre,120-6th Avenue,Gimli, , ,204-642-5116,https://www.ierha.ca/default.aspx?cid=6348&lang=1, , , , ,106,0,26,0,0,0,0,0,0,0,0,Interlake-Eastern,MB, ,,0,0, ,0,0,0,0, , , , , , , 
-96.5199599319999,50.0578562170001,362, ,Beausejour Hospital in Beausejour Health Centre,151 First Street S.,Beausejour, , ,204-268-1076,https://www.ierha.ca/default.aspx?cid=6348&lang=1, , , , ,110,0,30,0,0,0,0,0,0,0,0,Interlake-Eastern,MB, ,,0,0, ,0,0,0,0, , , , , , , 
-95.883566759,50.1512945150001,363, ,Pinawa Hospital,30 Vanier Drive,Pinawa, , ,204-753-2334,https://www.ierha.ca/default.aspx?cid=6348&lang=1, , , , ,17,0,17,0,0,0,0,0,0,0,0,Interlake-Eastern,MB, ,,0,0, ,0,0,0,0, , , , , , , 
-98.10468052,50.8645940500001,364, ,E.M. Crowe Memorial Hospital (Eriksdale),40 Railway Avenue,Eriksdale, , ,204-739-2611,http://www.ierha.ca/default.aspx?cid=6342, , , , ,33,0,13,0,0,0,0,0,0,0,0,Interlake-Eastern,MB, ,,0,0, ,0,0,0,0, , , , , , , 
-96.887505242,50.1577903850001,365, ,Selkirk & District General Hospital,120 Easton Drive,Selkirk, , ,204-482-5800,https://www.ierha.ca/default.aspx?cid=6348&lang=1, , , , ,336,0,65,0,0,0,0,0,0,0,0,Interlake-Eastern,MB, ,,0,0, ,0,0,0,0, , , , , , , 
-96.215147889,50.563341479,366, ,Pine Falls Hospital in Pine Falls Health Complex,37 Maple Street,Pine Falls, , ,204-367-4441,https://www.ierha.ca/default.aspx?cid=6348&lang=1, , , , ,43,0,23,0,0,0,0,0,0,0,0,Interlake-Eastern,MB, ,,0,0, ,0,0,0,0, , , , , , , 
-97.335114361,50.1309538830001,367, ,Stonewall & District Health Centre (Dr. Evelyn Memorial Hospital),589 3rd Avenue,Stonewall, , ,2041-467-5514,https://www.ierha.ca/default.aspx?cid=6348&lang=1, , , , ,65,0,15,0,0,0,0,0,0,0,0,Interlake-Eastern,MB, ,,0,0, ,0,0,0,0, , , , , , , 
-97.254875944,50.387520452,368, ,Teulon - Hunter Memorial Hospital,162-3rd Avenue,Teulon, , ,204-886-2433,https://www.ierha.ca/default.aspx?cid=6348&lang=1, , , , ,58,0,18,0,0,0,0,0,0,0,0,Interlake-Eastern,MB, ,,0,0, ,0,0,0,0, , , , , , , 
-98.2813978949999,49.967333001,369, ,Portage District General Hospital,524 5th Street SE,Portage la Prairie, , ,204-239-2211,https://www.southernhealth.ca/en/finding-care/find-a-service/health-centres-2/, , , , ,480,0,88,0,0,0,0,0,0,0,0,Southern Health-Santé Sud,MB, ,,0,0, ,0,0,0,0, , , , , , , 
-97.148886284,49.9551639760001,370, ,Seven Oaks General Hospital,2300 McPhillips Street,Winnipeg, , ,204-632-7133,https://wrha.mb.ca/locations-services/hospitals/, , , , ,0,0,0,0,0,0,0,0,0,0,0,Winnipeg Regional Health Authority,MB, ,,0,0, ,0,0,0,0, , , , , , , 
-97.277087643,49.8823917070001,371, ,Grace General Hospital,300 Booth Drive,Winnipeg, , ,204-837-0111,https://wrha.mb.ca/locations-services/hospitals/, , , , ,258,0,209,0,0,0,0,0,0,0,0,Winnipeg Regional Health Authority,MB, ,,0,0, ,0,0,0,0, , , , , , , 
-97.1588067609999,49.904142672,372, ,Health Sciences Centre,820 Sherbrook Street,Winnipeg, , ,204-787-3661,https://wrha.mb.ca/locations-services/hospitals/, , , , ,1012,0,571,0,0,0,0,0,0,0,0,Winnipeg Regional Health Authority,MB, ,,0,0, ,0,0,0,0, , , , , , , 
-98.003269613,49.1891285140001,373, ,Boundary Trails Health Centre (Winkler),Highway 3 & Manitoba 14,Winkler, , ,204-331-8800,https://www.southernhealth.ca/en/finding-care/find-a-service/health-centres-2/, , , , ,94,0,94,0,0,0,0,0,0,0,0,Southern Health-Santé Sud,MB, ,,0,0, ,0,0,0,0, , , , , , , 
-97.064734016,49.9132495750001,374, ,Concordia Hospital,1095 Concordia Avenue,Winnipeg, , ,204-667-1560,https://wrha.mb.ca/locations-services/hospitals/, , , , ,185,0,185,0,0,0,0,0,0,0,0,Winnipeg Regional Health Authority,MB, ,,0,0, ,0,0,0,0, , , , , , , 
-97.124717666,49.883816161,375, ,St. Boniface General Hospital,409 Taché Avenue,Winnipeg, , ,204-233-8563,https://wrha.mb.ca/locations-services/hospitals/, , , , ,499,0,383,0,0,0,0,0,0,0,0,Winnipeg Regional Health Authority,MB, ,,0,0, ,0,0,0,0, , , , , , , 
-97.160286883,49.8796436590001,376, ,Misericordia Health Centre,99 Cornish Avenue,Winnipeg, , ,204-774-6581,https://wrha.mb.ca/locations-services/hospitals/, , , , ,14,0,14,0,0,0,0,0,0,0,0,Winnipeg Regional Health Authority,MB, ,,0,0, ,0,0,0,0, , , , , , , 
-97.550909201,49.1074056520001,377, ,Altona Community Memorial Health Centre,240 5th Avenue NW,Altona, , ,204-324-6411,https://www.southernhealth.ca/en/finding-care/find-a-service/health-centres-2/, , , , ,87,0,22,0,0,0,0,0,0,0,0,Southern Health-Santé Sud,MB, ,,0,0, ,0,0,0,0, , , , , , , 
-94.170335638,58.771614594,378, ,Churchill Health Centre,162 La Vérendrye Avenue,Churchill, , ,204-675-8881,https://churchillhealthcentre.com/child-family-services/, , , , ,0,0,0,0,0,0,0,0,0,0,0,Winnipeg Regional Health Authority,MB, ,,0,0, ,0,0,0,0, , , , , , , 
-97.152661891,49.806801025,379, ,Victoria General Hospital,2340 Pembina Highway,Winnipeg, , ,204-269-3570,https://wrha.mb.ca/locations-services/hospitals/, , , , ,223,0,173,0,0,0,0,0,0,0,0,Winnipeg Regional Health Authority,MB, ,,0,0, ,0,0,0,0, , , , , , , 
-98.950780731,49.1509642890001,380, ,Rock Lake Health District Hospital,135 Machray Avenue,Crystal City, , ,204-873-2132,https://www.southernhealth.ca/en/finding-care/find-a-service/health-centres-2/, , , , ,16,0,16,0,0,0,0,0,0,0,0,Southern Health-Santé Sud,MB, ,,0,0, ,0,0,0,0, , , , , , , 
-96.647767852,49.6678997610001,381, ,Hôpital Ste-Anne Hospital,52 Rue Saint Gerard,Ste. Anne, , ,204-422-8837,https://www.southernhealth.ca/en/finding-care/find-a-service/health-centres-2/, , , , ,87,0,21,0,0,0,0,0,0,0,0,Southern Health-Santé Sud,MB, ,,0,0, ,0,0,0,0, , , , , , , 
-96.9900251779999,49.4445810120001,382, ,Centre médico-social De Salaberry District Health Centre,354 Préfontaine Avenue,Saint-Pierre-Jolys, , ,204-433-7611,https://www.southernhealth.ca/en/finding-care/find-a-service/health-centres-2/, , , , ,36,0,14,0,0,0,0,0,0,0,0,Southern Health-Santé Sud,MB, ,,0,0, ,0,0,0,0, , , , , , , 
-97.3606206109999,49.353341501,383, ,Morris General Hospital,215 Railroad Avenue E,Morris, , ,204-746-2301,https://www.southernhealth.ca/en/finding-care/find-a-service/health-centres-2/, , , , ,63,0,23,0,0,0,0,0,0,0,0,Southern Health-Santé Sud,MB, ,,0,0, ,0,0,0,0, , , , , , , 
-98.008248811,49.4971486380001,384, ,Carmen Memorial Hosptial,350 4th Street SW,Carmen, , ,204-745-2021,https://www.southernhealth.ca/en/finding-care/find-a-service/health-centres-2/, , , , ,95,0,25,0,0,0,0,0,0,0,0,Southern Health-Santé Sud,MB, ,,0,0, ,0,0,0,0, , , , , , , 
-96.6802126859999,49.5297208320001,385, ,Bethesda Regional Health Centre,316 Henry Street,Steinbach, , ,204-326-6411,https://www.southernhealth.ca/en/finding-care/find-a-service/health-centres-2/, , , , ,198,0,78,0,0,0,0,0,0,0,0,Southern Health-Santé Sud,MB, ,,0,0, ,0,0,0,0, , , , , , , 
-105.121058875,52.212844536,386, ,Humboldt District Health Complex,515 14th Avenue,Humboldt, , ,306-682-2603,https://www.saskatoonhealthregion.ca/locations_services/locations/Pages/Hospitals/Humboldt-District-Health-Complex.aspx, , , , ,38,0,38,0,0,0,0,0,0,0,0,Saskatoon Health Region,SK, ,,0,0, ,0,0,0,0, , , , , , , 
-105.023911949,51.8514030430001,387, ,Lanigan Hospital,36 Downing Street,Lanigan, , ,306-365-1400,https://www.saskatoonhealthregion.ca/locations_services/locations, , , , ,10,0,4,0,0,0,0,0,0,0,0,Saskatoon Health Region,SK, ,,0,0, ,0,0,0,0, , , , , , , 
-106.65411839,52.1357925250001,388, ,Saskatoon City Hospital,701 Queen Street,Saskatoon, , ,306-655-8000,https://www.saskatoonhealthregion.ca/locations_services/locations, , , , ,393,0,330,0,0,0,0,0,0,0,0,Saskatoon Health Region,SK, ,,0,0, ,0,0,0,0, , , , , , , 
-106.642388589,52.132008625,389, ,Jim Pattison Children's Hospital,103 Hospital Drive,Saskatoon, , ,306-655-6500,https://www.saskatoonhealthregion.ca/locations_services/locations, , , , ,0,0,0,0,0,0,0,0,0,0,0,Saskatoon Health Region,SK, ,,0,0, ,0,0,0,0, , , , , , , 
-98.787380188,49.4124047430001,390, ,Lorne Memorial Hospital,9 Second Street N,Swan Lake, , ,204-836-2132,https://www.southernhealth.ca/en/finding-care/find-a-service/health-centres-2/, , , , ,0,0,0,0,0,0,0,0,0,0,0,Southern Health-Santé Sud,MB, ,,0,0, ,0,0,0,0, , , , , , , 
-106.696276741,52.127122576,391, ,St. Paul's Hospital,1702 – 20th Street,Saskatoon, , ,306-655-5000,https://www.saskatoonhealthregion.ca/locations_services/locations, , , , ,0,0,0,0,0,0,0,0,0,0,0,Saskatoon Health Region,SK, ,,0,0, ,0,0,0,0, , , , , , , 
-106.332286142,52.667032648,392, ,Rosthern Hospital,2016 - 2nd Street,Rosthern, , ,306-232-4811,https://www.saskatoonhealthregion.ca/locations_services/locations, , , , ,30,0,30,0,0,0,0,0,0,0,0,Saskatoon Health Region,SK, ,,0,0, ,0,0,0,0, , , , , , , 
-106.642868028,52.1307931850001,393, ,Royal University Hospital,103 Hospital Drive,Saskatoon, , ,306-655-1000,https://www.saskatoonhealthregion.ca/locations_services/locations, , , , ,385,0,244,0,0,0,0,0,0,0,0,Saskatoon Health Region,SK, ,,0,0, ,0,0,0,0, , , , , , , 
-103.795325338,51.9524033100001,394, ,Wadena Hospital,533 - 5th Street,Wadena, , ,306-338-2515,https://www.saskatoonhealthregion.ca/locations_services/locations/Pages/Hospitals/Wadena-Hospital.aspx, , , , ,70,0,18,0,0,0,0,0,0,0,0,Saskatoon Health Region,SK, ,,0,0, ,0,0,0,0, , , , , , , 
-105.456333614,51.6749948730001,395, ,Watrous District Health Complex,702 - 4th Street,Watrous, , ,306-946-1200,https://www.saskatoonhealthregion.ca/locations_services/locations, , , , ,22,0,8,0,0,0,0,0,0,0,0,Saskatoon Health Region,SK, ,,0,0, ,0,0,0,0, , , , , , , 
-104.167447108,51.7680493140001,396, ,Wynyard Hospital,300 - 10th Street East,Wynyard, , ,306-554-2586,https://www.saskatoonhealthregion.ca/locations_services/locations/Pages/Hospitals/Wynyard-Hospital.aspx, , , , ,67,0,8,0,0,0,0,0,0,0,0,Saskatoon Health Region,SK, ,,0,0, ,0,0,0,0, , , , , , , 
-102.584694919,50.3740339,397, ,Broadview Hospital,901 Nina Street,Broadview, , ,306-696-5500,http://www.rqhealth.ca/facilities/the-broadview-hospital, , , , ,16,0,16,0,0,0,0,0,0,0,0,Regina Qu'Appelle Health Region,SK, ,,0,0, ,0,0,0,0, , , , , , , 
-104.639573324,50.4541695030001,398, ,Pasqua Hospital,4101 Dewdney Avenue,Regina, , ,306-766-2222,http://www.rqhealth.ca/facilities/pasqua-hospital, , , , ,273,0,249,0,0,0,0,0,0,0,0,Regina Qu'Appelle Health Region,SK, ,,0,0, ,0,0,0,0, , , , , , , 
-103.67796058,50.5369088150001,399, ,Indian Head Union Hospital,300 Hospital Street,Indian Head, , ,306-695-4000,http://www.rqhealth.ca/facilities/hospitals, , , , ,15,0,15,0,0,0,0,0,0,0,0,Regina Qu'Appelle Health Region,SK, ,,0,0, ,0,0,0,0, , , , , , , 
-103.786759651,50.7611496470001,400, ,All Nations' Healing Hospital,450 8th Street,Fort Qu'Appelle, , ,306-332-5611,http://www.rqhealth.ca/facilities/hospitals, , , , ,0,0,0,0,0,0,0,0,0,0,0,Regina Qu'Appelle Health Region,SK, ,,0,0, ,0,0,0,0, , , , , , , 
-104.601154302,50.443594579,401, ,Regina General Hospital,1440 - 14th Avenue,Regina, , ,306-766-4444,http://www.rqhealth.ca/facilities/regina-general-hospital, , , , ,492,0,346,0,0,0,0,0,0,0,0,Regina Qu'Appelle Health Region,SK, ,,0,0, ,0,0,0,0, , , , , , , 
-101.656381118,50.136159751,402, ,Southeast Integrated Care Centre – Moosomin,601 Wright Rd,Moosomin, , ,306-435-3303,http://www.rqhealth.ca/facilities/southeast-integrated-care-centre-moosomin, , , , ,85,0,27,0,0,0,0,0,0,0,0,Regina Qu'Appelle Health Region,SK, ,,0,0, ,0,0,0,0, , , , , , , 
-104.611552795,50.424947516,403, ,Wascana Rehabilitation Centre,2180 23rd Avenue,Regina  , , ,306-766-5100,http://www.rqhealth.ca/facilities/hospitals, , , , ,302,0,43,0,0,0,0,0,0,0,0,Regina Qu'Appelle Health Region,SK, ,,0,0, ,0,0,0,0, , , , , , , 
-103.269378796,50.426452408,404, ,Wolseley Memorial Integrated Care Centre,801 Ouimet Street,Wolseley, , ,306-698-4440,http://www.rqhealth.ca/facilities/hospitals, , , , ,10,0,10,0,0,0,0,0,0,0,0,Regina Qu'Appelle Health Region,SK, ,,0,0, ,0,0,0,0, , , , , , , 
-105.512776711,49.109613633,405, ,Coronach Health Centre,240 South Avenue E,Coronach, , ,306-267-2022,https://www.suncountry.sk.ca/map/work/menu_id/94/id/9, , , , ,15,0,3,0,0,0,0,0,0,0,0,Sun Country Health Region,SK, ,,0,0, ,0,0,0,0, , , , , , , 
-103.853840973,49.668415527,406, ,Weyburn General Hospital,201 1 Avenue NE,Weyburn, , ,306-842-8428,https://www.suncountry.sk.ca/map/findex/menu_id/94/pN/facilities-by-community-map, , , , ,75,0,40,0,0,0,0,0,0,0,0,Sun Country Health Region,SK, ,,0,0, ,0,0,0,0, , , , , , , 
-104.662086387,49.646247868,407, ,Pangman Health Centre,211 Keeler Street,Pangman, , ,306-442-2044,https://www.suncountry.sk.ca/map/findex/menu_id/94/pN/facilities-by-community-map, , , , ,0,0,0,0,0,0,0,0,0,0,0,Sun Country Health Region,SK, ,,0,0, ,0,0,0,0, , , , , , , 
-104.306065847,49.463783753,408, ,Radville Marian Health Centre,840 Conrad Avenue,Radville, , ,306-869-2224,https://www.suncountry.sk.ca/map/work/menu_id/94/id/19, , , , ,30,0,5,0,0,0,0,0,0,0,0,Sun Country Health Region,SK, ,,0,0, ,0,0,0,0, , , , , , , 
-103.405607319,49.3920715690001,409, ,Mainprize Manor & Health Centre,206 South Street,Midale, , ,306-458-4000,https://www.suncountry.sk.ca/map/work/menu_id/94/id/16, , , , ,15,0,0,0,0,0,0,0,0,0,0,Sun Country Health Region,SK, ,,0,0, ,0,0,0,0, , , , , , , 
-103.011905453,49.1526062030001,410, ,St. Joseph's Hospital,1174 Nicholson Road,Estevan, , ,306-637-2400,https://www.suncountry.sk.ca/map/findex/menu_id/94/pN/facilities-by-community-map, , , , ,0,0,0,0,0,0,0,0,0,0,0,Sun Country Health Region,SK, ,,0,0, ,0,0,0,0, , , , , , , 
-102.759425708,49.378507814,411, ,Lampman Community Health Centre,309 - 2nd Avenue,Lampman, , ,306-487-2561,https://www.suncountry.sk.ca/map/work/menu_id/94/id/14, , , , ,22,0,3,0,0,0,0,0,0,0,0,Sun Country Health Region,SK, ,,0,0, ,0,0,0,0, , , , , , , 
-105.134229939,49.3935029560001,412, ,Bengough Health Centre,400 - 2nd Street W,Bengough, , ,306-268-2048,https://www.suncountry.sk.ca/map/work/menu_id/94/id/6, , , , ,28,0,2,0,0,0,0,0,0,0,0,Sun Country Health Region,SK, ,,0,0, ,0,0,0,0, , , , , , , 
-102.173155199,49.235198213,413, ,Galloway Health Centre,917 Tupper Street,Oxbow, , ,306-483-2956,https://www.suncountry.sk.ca/map/work/menu_id/94/id/17, , , , ,22,0,10,0,0,0,0,0,0,0,0,Sun Country Health Region,SK, ,,0,0, ,0,0,0,0, , , , , , , 
-101.694150784,49.5727445040001,414, ,Redvers Health Centre,18 Eichhorst Street,Redvers, , ,306-452-3553,https://www.suncountry.sk.ca/map/work/menu_id/94/id/20, , , , ,31,0,7,0,0,0,0,0,0,0,0,Sun Country Health Region,SK, ,,0,0, ,0,0,0,0, , , , , , , 
-101.451137116,49.1789296960001,415, ,Gainsborough & Area Health Centre,312 Stephens Street,Gainsborough, , ,306-685-2277,https://www.suncountry.sk.ca/map/work/menu_id/94/id/12, , , , ,19,0,3,0,0,0,0,0,0,0,0,Sun Country Health Region,SK, ,,0,0, ,0,0,0,0, , , , , , , 
-102.641017248,50.1023729340001,416, ,Kipling Integrated Health Centre,906 Industrial Drive,Kipling, , ,306-736-2552,https://www.suncountry.sk.ca/map/findex/menu_id/94/pN/facilities-by-community-map, , , , ,12,0,12,0,0,0,0,0,0,0,0,Sun Country Health Region,SK, ,,0,0, ,0,0,0,0, , , , , , , 
-105.983196488,49.6286376400001,417, ,Assiniboia Union Hospital,501 6th Avenue,Assiniboia, , ,306-642-9400,https://www.fhhr.ca/AssiniboiaHospital.htm, , , , ,34,0,12,0,0,0,0,0,0,0,0,Five Hills Health Region,SK, ,,0,0, ,0,0,0,0, , , , , , , 
-106.563010315,49.8743061960001,418, ,St. Joseph's Hospital,216 Bettez Street,Gravelbourg, , ,306-648-3185,https://www.fhhr.ca/facilities.htm, , , , ,59,0,9,0,0,0,0,0,0,0,0,Five Hills Health Region,SK, ,,0,0, ,0,0,0,0, , , , , , , 
-102.021711746,49.906512983,419, ,Wawota Memorial Health Centre,201 1 Avenue NW,Wawota, , ,306-739-5200,https://www.suncountry.sk.ca/map/findex/menu_id/94/pN/facilities-by-community-map, , , , ,32,0,3,0,0,0,0,0,0,0,0,Sun Country Health Region,SK, ,,0,0, ,0,0,0,0, , , , , , , 
-105.525138297,50.4190254700001,420, ,Dr. F.H. Wigmore Regional Hospital,55 Diefenbaker Drive,Moose Jaw, , ,306-694-0200,https://www.fhhr.ca/facilities.htm, , , , ,73,0,44,0,0,0,0,0,0,0,0,Five Hills Health Region,SK, ,,0,0, ,0,0,0,0, , , , , , , 
-108.467416845,50.617734548,421, ,Prairie Health Care Centre,517 1st Street N,Cabri, , ,306-587-2623,https://cypresshealth.ca/health-facilities/cabri/, , , , ,21,0,4,0,0,0,0,0,0,0,0,Cypress Health Region,SK, ,,0,0, ,0,0,0,0, , , , , , , 
-105.60288989,59.133372873,422, ,Athabasca Health Facility,49MX+FH Black Lake,Black Lake, , ,306-439-2200,http://www.ehealth-north.sk.ca/health_authority.aspx?m=4&dir=3&ha=1, , , , ,0,0,0,0,0,0,0,0,0,0,0,Athabasca Health Authority,SK, ,,0,0, ,0,0,0,0, , , , , , , 
-108.824779758,49.514887872,423, ,Wolf Willow Health Centre,555 Red Coat Drive,Eastend, , ,306-295-3534,https://cypresshealth.ca/health-facilities/eastend/, , , , ,26,0,3,0,0,0,0,0,0,0,0,Cypress Health Region,SK, ,,0,0, ,0,0,0,0, , , , , , , 
-107.218401756,50.4262495460001,424, ,Hebert & District Integrated Health Facility,405 Hebert Avenue,Herbert, , ,306-784-2466,https://cypresshealth.ca/health-facilities/herbert/, , , , ,44,0,6,0,0,0,0,0,0,0,0,Cypress Health Region,SK, ,,0,0, ,0,0,0,0, , , , , , , 
-108.481222298,50.090300298,425, ,Gull Lake Special Care Centre,751 Grey Street,Gull Lake, , ,306-672-4700,https://cypresshealth.ca/health-facilities/gull-lake/, , , , ,35,0,2,0,0,0,0,0,0,0,0,Cypress Health Region,SK, ,,0,0, ,0,0,0,0, , , , , , , 
-108.404752554,49.6512454790001,426, ,Shaunavon Hospital & Care Centre,660 Fourth Street E,Shaunavon, , ,306-297-2644,https://cypresshealth.ca/health-facilities/, , , , ,54,0,13,0,0,0,0,0,0,0,0,Cypress Health Region,SK, ,,0,0, ,0,0,0,0, , , , , , , 
-107.996195065,52.057391857,427, ,Biggar & District Health Centre,501 - 1st Avenue W,Biggar, , ,306-948-3323,https://www.hrha.sk.ca/health-facilities/Pages/Biggar.aspx, , , , ,69,0,16,0,0,0,0,0,0,0,0,Heartland Health Region,SK, ,,0,0, ,0,0,0,0, , , , , , , 
-107.775245771,50.3096287270001,428, ,Cypress Regional Hospital,2004 Saskatchewan Drive,Swift Current, , ,306-778-9400,https://cypresshealth.ca/health-facilities/, , , , ,91,0,91,0,0,0,0,0,0,0,0,Cypress Health Region,SK, ,,0,0, ,0,0,0,0, , , , , , , 
-109.489651328,49.9031749970001,429, ,Southwest Integrated Healthcare Facility,102 5th Avenue W,Maple Creek, , ,3063-662-2611,https://cypresshealth.ca/health-facilities/, , , , ,27,0,27,0,0,0,0,0,0,0,0,Cypress Health Region,SK, ,,0,0, ,0,0,0,0, , , , , , , 
-107.07201936,49.4191693600001,430, ,Prairie View Health Centre,241 1st Avenue,Mankota, , ,306-478-2200,https://cypresshealth.ca/health-facilities/mankota/, , , , ,18,0,3,0,0,0,0,0,0,0,0,Cypress Health Region,SK, ,,0,0, ,0,0,0,0, , , , , , , 
-108.032509308,51.198180463,431, ,Elrose Health Centre,505 Main Street,Elrose, , ,306-378-2882,https://www.hrha.sk.ca/health-facilities/Pages/Elrose.aspx, , , , ,33,0,3,0,0,0,0,0,0,0,0,Heartland Health Region,SK, ,,0,0, ,0,0,0,0, , , , , , , 
-105.985128417,51.2674477580001,432, ,Davidson Health Centre,900 Government Road,Davidson, , ,306-567-2300,https://www.hrha.sk.ca/health-facilities/Pages/Davidson.aspx, , , , ,38,0,8,0,0,0,0,0,0,0,0,Heartland Health Region,SK, ,,0,0, ,0,0,0,0, , , , , , , 
-108.751995693,51.146214048,433, ,Eston Health Centre,800 Main Street,Eston, , ,306-962-3667,https://www.hrha.sk.ca/health-facilities/Pages/Eston.aspx, , , , ,33,0,2,0,0,0,0,0,0,0,0,Heartland Health Region,SK, ,,0,0, ,0,0,0,0, , , , , , , 
-109.132651446,51.9135432160001,434, ,Kerrobert & District Health Centre,115 Manitoba Avenue,Kerrobert, , ,306-834-2646,https://www.hrha.sk.ca/health-facilities/Pages/Kerrobert.aspx, , , , ,38,0,8,0,0,0,0,0,0,0,0,Heartland Health Region,SK, ,,0,0, ,0,0,0,0, , , , , , , 
-107.134110297,50.9831512870001,435, ,Lucky Lake Health Centre,1st Avenue & SK Highway 42,Lucky Lake, , ,306-858-2133,https://www.hrha.sk.ca/Pages/default.aspx, , , , ,20,0,3,0,0,0,0,0,0,0,0,Heartland Health Region,SK, ,,0,0, ,0,0,0,0, , , , , , , 
-109.164433519,51.4710066470001,436, ,Kindersley & District Health Centre,1003 - 1st Street W,Kindersley, , ,306-463-1000,https://www.hrha.sk.ca/health-facilities/Pages/Kindersley.aspx, , , , ,105,0,28,0,0,0,0,0,0,0,0,Heartland Health Region,SK, ,,0,0, ,0,0,0,0, , , , , , , 
-108.037195432,50.828018979,437, ,Kyle District Health Centre,208 - 3rd Avenue E,Kyle, , ,306-375-2251,https://www.hrha.sk.ca/health-facilities/Pages/Kyle.aspx, , , , ,20,0,3,0,0,0,0,0,0,0,0,Heartland Health Region,SK, ,,0,0, ,0,0,0,0, , , , , , , 
-107.444536706,51.3334284,438, ,Dinsmore Health Care Centre,207 - 1st Street E,Dinsmore, , ,306-846-2222,https://dinsmore.ca/Services/amenities.html, , , , ,3,0,3,0,0,0,0,0,0,0,0,Heartland Health Region,SK, ,,0,0, ,0,0,0,0, , , , , , , 
-109.935908,52.33281,439, ,St. Joseph’s Health Facility,4601 Express Avenue,Macklin, , ,306-753-2115,https://www.hrha.sk.ca/Pages/default.aspx, , , , ,26,0,4,0,0,0,0,0,0,0,0,Heartland Health Region,SK, ,,0,0, ,0,0,0,0, , , , , , , 
-107.063317618,51.4835381190001,440, ,Outlook & District Health Centre,500 Semple Street,Outlook, , ,306-867-5020,https://www.hrha.sk.ca/health-facilities/Pages/Outlook.aspx, , , , ,58,0,16,0,0,0,0,0,0,0,0,Heartland Health Region,SK, ,,0,0, ,0,0,0,0, , , , , , , 
-109.172879576,52.4428931510001,441, ,Unity & District Health Centre,Airport Road Unity,Unity, , ,306-228-2666,https://www.hrha.sk.ca/Pages/default.aspx, , , , ,11,0,11,0,0,0,0,0,0,0,0,Heartland Health Region,SK, ,,0,0, ,0,0,0,0, , , , , , , 
-107.999328138,51.5507668710001,442, ,Rosetown & District Health Centre,409 Highway 4 North,Rosetown, , ,306-882-2672,https://www.hrha.sk.ca/health-facilities/Pages/Rosetown.aspx, , , , ,75,0,23,0,0,0,0,0,0,0,0,Heartland Health Region,SK, ,,0,0, ,0,0,0,0, , , , , , , 
-102.084197239,50.6504155380001,443, ,St. Anthony's Hospital,216 Ancona Street,Esterhazy, , ,306-745-3973,http://www.sunrisehealthregion.sk.ca/, , , , ,22,0,22,0,0,0,0,0,0,0,0,Sunrise Health Region,SK, ,,0,0, ,0,0,0,0, , , , , , , 
-101.887414089,51.5574175880001,444, ,Kamsack Hospital & Nursing Home,341 Stewart Street,Kamsack, , ,306-542-2635,http://www.sunrisehealthregion.sk.ca/default.aspx?page=19, , , , ,83,0,20,0,0,0,0,0,0,0,0,Sunrise Health Region,SK, ,,0,0, ,0,0,0,0, , , , , , , 
-108.701202874,52.4053798410001,445, ,Wilkie & District Health Centre,304 - 7th Avenue E,Wilkie, , ,306-843-2644,https://www.hrha.sk.ca/Pages/default.aspx, , , , ,34,0,5,0,0,0,0,0,0,0,0,Heartland Health Region,SK, ,,0,0, ,0,0,0,0, , , , , , , 
-102.480466238,51.202110513,446, ,Yorkton Regional Health Centre,270 Bradbrooke Drive,Yorkton, , ,306-786-6295,http://www.sunrisehealthregion.sk.ca/, , , , ,87,0,60,0,0,0,0,0,0,0,0,Sunrise Health Region,SK, ,,0,0, ,0,0,0,0, , , , , , , 
-102.821680543,50.9380912140001,447, ,St. Peter's Hospital,200 Heritage Drive,Melville, , ,306-728-5407,http://www.sunrisehealthregion.sk.ca/default.aspx?page=21, , , , ,30,0,30,0,0,0,0,0,0,0,0,Sunrise Health Region,SK, ,,0,0, ,0,0,0,0, , , , , , , 
-104.614713147,52.865923347,448, ,Melfort Hospital,510 Broadway Avenue,Melfort, , ,306-752-8700,https://www.kelseytrailhealth.ca/Facilities/Pages/default.aspx, , , , ,24,0,24,0,0,0,0,0,0,0,0,Kelsey Trail Health Region,SK, ,,0,0, ,0,0,0,0, , , , , , , 
-102.440854035,51.62557236,449, ,Canora Hospital,1219 Main Street,Canora, , ,306-563-5621,http://www.sunrisehealthregion.sk.ca/default.aspx?page=14, , , , ,16,0,16,0,0,0,0,0,0,0,0,Sunrise Health Region,SK, ,,0,0, ,0,0,0,0, , , , , , , 
-103.261401782,52.5977782480001,450, ,Porcupine Carragana Hospital,Windsor Avenue & Oak Street W,Porcupine Plain, , ,306-278-6262,https://www.kelseytrailhealth.ca/Facilities/Pages/default.aspx, , , , ,10,0,7,0,0,0,0,0,0,0,0,Kelsey Trail Health Region,SK, ,,0,0, ,0,0,0,0, , , , , , , 
-103.529528,52.164573,451, ,Kelvington Hospital,701 - 6th Avenue W,Kelvington, , ,306-327-5500,https://www.kelseytrailhealth.ca/Facilities/Kelvington/Pages/default.aspx, , , , ,52,0,7,0,0,0,0,0,0,0,0,Kelsey Trail Health Region,SK, ,,0,0, ,0,0,0,0, , , , , , , 
-104.003869617,53.356009853,452, ,Nipawin Hospital,800 - 6th Street E,Nipawin, , ,306-862-6100,https://www.kelseytrailhealth.ca/Facilities/Pages/default.aspx, , , , ,24,0,24,0,0,0,0,0,0,0,0,Kelsey Trail Health Region,SK, ,,0,0, ,0,0,0,0, , , , , , , 
-109.98950266,53.272503348,453, ,Lloydminster Hospital,3820 - 43 Avenue,Lloydminster, , ,306-820-6000,https://www.pnrha.ca/facilities_sites/Pages/default.aspx, , , , ,54,0,39,0,0,0,0,0,0,0,0,Prairie North Regional Health Authority,SK, ,,0,0, ,0,0,0,0, , , , , , , 
-104.054917591,52.856835044,454, ,Tisdale Hospital,2010 - 110th Avenue W,Tisdale, , ,306-873-6500,https://www.kelseytrailhealth.ca/Facilities/Tisdale/Pages/default.aspx, , , , ,87,0,15,0,0,0,0,0,0,0,0,Kelsey Trail Health Region,SK, ,,0,0, ,0,0,0,0, , , , , , , 
-105.784273435,53.192087067,455, ,Victoria Hospital,1200 24th Street W,Prince Albert, , ,306-765-6000,https://paphr.ca/hospitals-clinic-locations, , , , ,173,0,107,0,0,0,0,0,0,0,0,Prince Albert Parkland Health Region,SK, ,,0,0, ,0,0,0,0, , , , , , , 
-106.3883915,53.220804,456, ,Parkland Integrated Health Centre,Dr. J.L.Spencer Drive #100,Shellbrook, , ,306-747-2603,https://paphr.ca/hospitals-clinic-locations, , , , ,20,0,20,0,0,0,0,0,0,0,0,Prince Albert Parkland Health Region,SK, ,,0,0, ,0,0,0,0, , , , , , , 
-108.434802091,54.1236003070001,457, ,Meadow Lake Hospital,2-711 Centre Street,Meadow Lake, , ,306-236-1500,https://www.pnrha.ca/facilities_sites/Pages/default.aspx, , , , ,0,0,0,0,0,0,0,0,0,0,0,Prairie North Regional Health Authority,SK, ,,0,0, ,0,0,0,0, , , , , , , 
-108.288697083,52.7727467770001,458, ,Battlefords Union Hospital,1092 - 107 Street,North Battleford, , ,306-446-6600,https://www.pnrha.ca/facilities_sites/Pages/default.aspx, , , , ,69,0,54,0,0,0,0,0,0,0,0,Prairie North Regional Health Authority,SK, ,,0,0, ,0,0,0,0, , , , , , , 
-109.284828339,53.09118756,459, ,Maidstone Health Complex,214 - 5th Avenue E,Maidstone, , ,306-893-2622,https://www.pnrha.ca/facilities_sites/Pages/default.aspx, , , , ,28,0,28,0,0,0,0,0,0,0,0,Prairie North Regional Health Authority,SK, ,,0,0, ,0,0,0,0, , , , , , , 
-105.289546153,55.1049573070001,460, ,La Ronge Health Centre,227 Backlund Street,La Ronge, , ,306-425-2422,http://www.mcrhealth.ca/facilities.html, , , , ,24,0,24,0,0,0,0,0,0,0,0,Mamawetan Churchill River Health Region,SK, ,,0,0, ,0,0,0,0, , , , , , , 
-107.899469875,55.4457462250001,461, ,St. Joseph's Health Centre,La Jeunesse Avenue,Ile a la Crosse, , ,306-833-2016,https://kyrha.ca/our-communities/, , , , ,13,0,13,0,0,0,0,0,0,0,0,Keewatin Yatthe Regional Health Authority,SK, ,,0,0, ,0,0,0,0, , , , , , , 
-121.292259082,51.6386410420001,462, ,100 Mile District General Hospital,555 Cedar Avenue South,100 Mile House, , ,250-395-7600,https://www.healthlinkbc.ca/services-and-resources/find-services, , , , ,21,0,21,0,0,0,0,0,0,0,0,Interior Health Authority,BC, ,,0,0, ,0,0,0,0, , , , , , , 
-117.795041986,50.2387906210001,463, ,Arrow Lakes Hospital,97 1st Avenue NE,Nakusp, , ,250-265-3622,https://www.healthlinkbc.ca/services-and-resources/find-services, , , , ,6,0,6,0,0,0,0,0,0,0,0,Interior Health Authority,BC, ,,0,0, ,0,0,0,0, , , , , , , 
-122.312047117,49.036893106,464, ,Abbotsford Regional Hospital and Cancer Centre,32900 Marshall Road,Abbotsford, , ,604-851-4700,https://www.healthlinkbc.ca/services-and-resources/find-services, , , , ,281,0,194,0,0,0,0,0,0,0,0,Fraser Health Authority,BC, ,,0,0, ,0,0,0,0, , , , , , , 
-108.972643385,53.3890578200001,465, ,Riverside Health Complex,1st Street S,Turtleford, , ,306-845-2195,https://www.pnrha.ca/facilities_sites/Pages/default.aspx, , , , ,26,0,11,0,0,0,0,0,0,0,0,Prairie North Regional Health Authority,SK, ,,0,0, ,0,0,0,0, , , , , , , 
-123.125567753,49.2445254020001,466, ,BC Children's Hospital,4480 Oak Street,Vancouver, , ,604-875-2345,https://www.healthlinkbc.ca/services-and-resources/find-services, , , , ,0,0,0,0,0,0,0,0,0,0,0,Provincial Health Services Authority,BC, ,,0,0, ,0,0,0,0, , , , , , , 
-123.12574865,49.2444213690001,467, ,BC Women's Hospital & Health Centre,4500 Oak Street,Vancouver, , ,604-875-2424,https://www.healthlinkbc.ca/services-and-resources/find-services, , , , ,0,0,0,0,0,0,0,0,0,0,0,Provincial Health Services Authority,BC, ,,0,0, ,0,0,0,0, , , , , , , 
-118.468736433,49.029694507,468, ,Boundary District Hospital,7649 22nd Street,Grand Forks, , ,250-443-2100,https://www.healthlinkbc.ca/services-and-resources/find-services, , , , ,0,0,0,0,0,0,0,0,0,0,0,Interior Health Authority,BC, ,,0,0, ,0,0,0,0, , , , , , , 
-126.757964741,52.3741985240001,469, ,Bella Coola General Hospital,1025 Elcho Street,Bella Coola, , ,250-799-5311,https://www.healthlinkbc.ca/services-and-resources/find-services, , , , ,14,0,14,0,0,0,0,0,0,0,0,Vancouver Coastal Health,BC, ,,0,0, ,0,0,0,0, , , , , , , 
-127.1629767,54.7849489800001,470, ,Bulkley Valley District Hospital,3950 8th Avenue,Smithers, , ,250-847-2611,https://www.healthlinkbc.ca/services-and-resources/find-services, , , , ,17,0,14,0,0,0,0,0,0,0,0,Northern Health Authority,BC, ,,0,0, ,0,0,0,0, , , , , , , 
-123.01580301,49.249640454,471, ,Burnaby Hospital,3935 Kincaid Street,Burnaby, , ,604-434-4211,https://www.healthlinkbc.ca/services-and-resources/find-services, , , , ,300,0,248,0,0,0,0,0,0,0,0,Fraser Health Authority,BC, ,,0,0, ,0,0,0,0, , , , , , , 
-121.28017673,50.734676784,472, ,Ashcroft Hospital and Community Health Care Centre,700 Ash-Cache Creek Highway,Ashcroft, , ,250-453-2211,https://www.healthlinkbc.ca/services-and-resources/find-services, , , , ,0,0,0,0,0,0,0,0,0,0,0,Interior Health Authority,BC, ,,0,0, ,0,0,0,0, , , , , , , 
-121.644536038,55.696345572,473, ,Chetwynd Hospital and Health Centre,5500 Hospital Road,Chetwynd, , ,250-788-2236,https://www.healthlinkbc.ca/services-and-resources/find-services, , , , ,4,0,4,0,0,0,0,0,0,0,0,Northern Health Authority,BC, ,,0,0, ,0,0,0,0, , , , , , , 
-122.143575383,52.1372710110001,474, ,Cariboo Memorial Hospital,517 6th Avenue N,Williams Lake, , ,250-392-4411,https://www.healthlinkbc.ca/services-and-resources/find-services, , , , ,0,0,0,0,0,0,0,0,0,0,0,Interior Health Authority,BC, ,,0,0, ,0,0,0,0, , , , , , , 
-121.962923095,49.166539594,475, ,Chilliwack General Hospital,45600 Menholm Road,Chilliwack, , ,604-795-4141,https://www.healthlinkbc.ca/services-and-resources/find-services, , , , ,231,0,107,0,0,0,0,0,0,0,0,Fraser Health Authority,BC, ,,0,0, ,0,0,0,0, , , , , , , 
-123.722845941,48.7860692350001,476, ,Cowichan District Hospital,3045 Gibbins Road,Duncan, , ,250-737-2030,https://www.healthlinkbc.ca/services-and-resources/find-services, , , , ,140,0,105,0,0,0,0,0,0,0,0,Island Health,BC, ,,0,0, ,0,0,0,0, , , , , , , 
-126.942776532,50.593858761,477, ,Cormorant Island Health Centre,49 School Road,Alert Bay, , ,250-974-5585,https://www.healthlinkbc.ca/services-and-resources/find-services, , , , ,0,0,0,0,0,0,0,0,0,0,0,Island Health,BC, ,,0,0, ,0,0,0,0, , , , , , , 
-116.50775597,49.0985147740001,478, ,Creston Valley Hospital and Health Centre,312 15th Avenue N,Creston, , ,250-428-2286,https://www.healthlinkbc.ca/services-and-resources/find-services, , , , ,0,0,0,0,0,0,0,0,0,0,0,Interior Health Authority,BC, ,,0,0, ,0,0,0,0, , , , , , , 
-120.235838676,55.7497351320001,479, ,Dawson Creek and District Hospital,11100 13th Street,Dawson Creek, , ,250-782-8501,https://www.healthlinkbc.ca/services-and-resources/find-services, , , , ,42,0,27,0,0,0,0,0,0,0,0,Northern Health Authority,BC, ,,0,0, ,0,0,0,0, , , , , , , 
-120.017858551,51.6451487190001,480, ,Dr. Helmcken Memorial Hospital,640 Park Drive,Clearwater, , ,250-674-2244,https://www.healthlinkbc.ca/services-and-resources/find-services, , , , ,8,0,8,0,0,0,0,0,0,0,0,Interior Health Authority,BC, ,,0,0, ,0,0,0,0, , , , , , , 
-123.061232969,49.0856043740001,481, ,Delta Hospital,5800 Mountain View Boulevard,Delta, , ,604-946-1121,https://www.healthlinkbc.ca/services-and-resources/find-services, , , , ,150,0,58,0,0,0,0,0,0,0,0,Fraser Health Authority,BC, ,,0,0, ,0,0,0,0, , , , , , , 
-115.056289131,49.513691694,482, ,Elk Valley Hospital,1501 5th Avenue,Fernie, , ,250-423-4453,https://www.healthlinkbc.ca/services-and-resources/find-services, , , , ,21,0,21,0,0,0,0,0,0,0,0,Interior Health Authority,BC, ,,0,0, ,0,0,0,0, , , , , , , 
-122.823579058,49.2855706290001,483, ,Eagle Ridge Hospital,475 Guildford Way,Port Moody, , ,604-461-9972,https://www.healthlinkbc.ca/services-and-resources/find-services, , , , ,248,0,147,0,0,0,0,0,0,0,0,Fraser Health Authority,BC, ,,0,0, ,0,0,0,0, , , , , , , 
-122.704932212,58.8090430400001,484, ,Fort Nelson General Hospital,5315 Liard Street,Fort Nelson, , ,250-774-8100,https://www.healthlinkbc.ca/services-and-resources/find-services, , , , ,10,0,10,0,0,0,0,0,0,0,0,Interior Health Authority,BC, ,,0,0, ,0,0,0,0, , , , , , , 
-121.423963944,49.3773888330001,485, ,Fraser Canyon Hospital,1275 7th Avenue,Hope, , ,604-869-5656,https://www.healthlinkbc.ca/services-and-resources/find-services, , , , ,60,0,10,0,0,0,0,0,0,0,0,Fraser Health Authority,BC, ,,0,0, ,0,0,0,0, , , , , , , 
-115.7500597,49.512292255,486, ,East Kootenay Regional Hospital,13 24th Avenue N,Cranbrook, , ,250-426-5281,https://www.healthlinkbc.ca/services-and-resources/find-services, , , , ,81,0,61,0,0,0,0,0,0,0,0,Interior Health Authority,BC, ,,0,0, ,0,0,0,0, , , , , , , 
-122.4996705,52.981686,487, ,G.R. Baker Hospital,543 Front Street,Quesnel, , ,250-985-5600,https://www.healthlinkbc.ca/services-and-resources/find-services, , , , ,0,0,0,0,0,0,0,0,0,0,0,Northern Health Authority,BC, ,,0,0, ,0,0,0,0, , , , , , , 
-116.967593985,51.2970191360001,488, ,Golden and District Hospital,835 9th Avenue South,Golden, , ,250-344-5271,https://www.healthlinkbc.ca/services-and-resources/find-services, , , , ,0,0,0,0,0,0,0,0,0,0,0,Interior Health Authority,BC, ,,0,0, ,0,0,0,0, , , , , , , 
-116.033507448,50.506856074,489, ,Invermere and District Hospital,850 10th Avenue,Invermere, , ,250-342-9201,https://www.healthlinkbc.ca/services-and-resources/find-services, , , , ,0,0,0,0,0,0,0,0,0,0,0,Interior Health Authority,BC, ,,0,0, ,0,0,0,0, , , , , , , 
-123.073109992,49.212803647,490, ,Holy Family Hospital,7801 Argyle Street,Vancouver, , ,604-321-2661,https://www.healthlinkbc.ca/services-and-resources/find-services, , , , ,207,0,0,0,0,0,0,0,0,0,0,Providence Health Care Society,BC, ,,0,0, ,0,0,0,0, , , , , , , 
-120.817954917,56.256690576,491, ,Fort St. John Hospital,8407 112th Avenue,Fort St. John, , ,250-262-5200,https://www.healthlinkbc.ca/services-and-resources/find-services, , , , ,0,0,0,0,0,0,0,0,0,0,0,Northern Health Authority,BC, ,,0,0, ,0,0,0,0, , , , , , , 
-119.493256521,49.8735964260001,492, ,Kelowna General Hospital,2268 Pandosy Street,Kelowna, , ,250-862-4000,https://www.healthlinkbc.ca/services-and-resources/find-services, , , , ,0,0,0,0,0,0,0,0,0,0,0,Interior Health Authority,BC, ,,0,0, ,0,0,0,0, , , , , , , 
-128.64735696,54.0503057980001,493, ,Kitimat General Hospital and Health Centre,920 Lahakas Boulevard S,Kitimat, , ,250-632-2121,https://www.healthlinkbc.ca/services-and-resources/find-services, , , , ,0,0,0,0,0,0,0,0,0,0,0,Northern Health Authority,BC, ,,0,0, ,0,0,0,0, , , , , , , 
-122.833273657,49.17949809,494, ,Jim Pattison Outpatient Care and Surgery Centre,9750 140th Street,Surrey, , ,604-582-4550,https://www.healthlinkbc.ca/services-and-resources/find-services, , , , ,0,0,0,0,0,0,0,0,0,0,0,Fraser Health Authority,BC, ,,0,0, ,0,0,0,0, , , , , , , 
-117.284880902,49.494909842,495, ,Kootenay Lake Hospital,3 View Street,Nelson, , ,250-352-3111,https://www.healthlinkbc.ca/services-and-resources/find-services, , , , ,33,0,33,0,0,0,0,0,0,0,0,Interior Health Authority,BC, ,,0,0, ,0,0,0,0, , , , , , , 
-117.701506791,49.1029221920001,496, ,Kootenay Boundary Regional Hospital,1200 Hospital Bench,Trail, , ,250-368-3311,https://www.healthlinkbc.ca/services-and-resources/find-services, , , , ,78,0,56,0,0,0,0,0,0,0,0,Interior Health Authority,BC, ,,0,0, ,0,0,0,0, , , , , , , 
-125.761149705,54.235992294,497, ,Lakes District Hospital and Health Centre,741 Centre Street,Burns Lake, , ,250-692-2400,https://www.healthlinkbc.ca/services-and-resources/find-services, , , , ,9,0,9,0,0,0,0,0,0,0,0,Northern Health Authority,BC, ,,0,0, ,0,0,0,0, , , , , , , 
-123.508349681,48.861988796,498, ,Lady Minto / Gulf Islands Hospital,135 Crofton Road,Saltspring Island, , ,250-538-4800,https://www.healthlinkbc.ca/services-and-resources/find-services, , , , ,0,0,0,0,0,0,0,0,0,0,0,Island Health,BC, ,,0,0, ,0,0,0,0, , , , , , , 
-122.611247486,49.094564947,499, ,Langley Memorial Hospital,22051 Fraser Highway,Langley, , ,604-514-6000,https://www.healthlinkbc.ca/services-and-resources/find-services, , , , ,422,0,147,0,0,0,0,0,0,0,0,Fraser Health Authority,BC, ,,0,0, ,0,0,0,0, , , , , , , 
-121.939351538,50.689357644,500, ,Lillooet Hospital and Health Centre,951 Murray Street,Lillooet, , ,250-256-4233,https://www.healthlinkbc.ca/services-and-resources/find-services, , , , ,8,0,8,0,0,0,0,0,0,0,0,Interior Health Authority,BC, ,,0,0, ,0,0,0,0, , , , , , , 
-120.16184372,53.300980651,501, ,McBride and District Hospital,1136 5th Avenue,Mcbride, , ,250-569-2251,https://www.healthlinkbc.ca/services-and-resources/find-services, , , , ,3,0,3,0,0,0,0,0,0,0,0,Northern Health Authority,BC, ,,0,0, ,0,0,0,0, , , , , , , 
-128.596196503,54.5103492060001,502, ,Mills Memorial Hospital,4720 Haugland Avenue,Terrace, , ,250-635-2211,https://www.healthlinkbc.ca/services-and-resources/find-services, , , , ,44,0,31,0,0,0,0,0,0,0,0,Northern Health Authority,BC, ,,0,0, ,0,0,0,0, , , , , , , 
-123.100649525,55.3374190320001,503, ,Mackenzie and District Hospital and Health Centre,45 Centennial Drive,Mackenzie, , ,250-997-3263,https://www.healthlinkbc.ca/services-and-resources/find-services, , , , ,4,0,4,0,0,0,0,0,0,0,0,Northern Health Authority,BC, ,,0,0, ,0,0,0,0, , , , , , , 
-122.331277854,49.135260648,504, ,Mission Memorial Hospital,7324 Hurd Street,Mission, , ,604-826-6261,https://www.healthlinkbc.ca/services-and-resources/find-services, , , , ,245,0,45,0,0,0,0,0,0,0,0,Fraser Health Authority,BC, ,,0,0, ,0,0,0,0, , , , , , , 
-123.067810586,49.320927856,505, ,Lions Gate Hospital,231 East 15th Street,North Vancouver, , ,604-988-3131,https://www.healthlinkbc.ca/services-and-resources/find-services, , , , ,552,0,182,0,0,0,0,0,0,0,0,Vancouver Coastal Health,BC, ,,0,0, ,0,0,0,0, , , , , , , 
-123.971337218,49.1840210140001,506, ,Nanaimo Regional General Hospital,1200 Dufferin Crescent,Nanaimo, , ,250-755-7691,https://www.healthlinkbc.ca/services-and-resources/find-services, , , , ,364,0,266,0,0,0,0,0,0,0,0,Island Health,BC, ,,0,0, ,0,0,0,0, , , , , , , 
-123.0952005,49.257909,507, ,Mount Saint Joseph Hospital,3080 Prince Edward Street,Vancouver, , ,604-874-1141,https://www.healthlinkbc.ca/services-and-resources/find-services, , , , ,201,0,85,0,0,0,0,0,0,0,0,Providence Health Care Society,BC, ,,0,0, ,0,0,0,0, , , , , , , 
-120.773094913,50.121888099,508, ,Nicola Valley Hospital and Health Centre,3451 Voght Street,Merritt, , ,250-378-2242,https://www.healthlinkbc.ca/services-and-resources/find-services, , , , ,0,0,0,0,0,0,0,0,0,0,0,Interior Health Authority,BC, ,,0,0, ,0,0,0,0, , , , , , , 
-132.157138034,54.0204691370001,509, ,Northern Haida Gwaii Hospital and Health Centre - Xaayda Gwaay Ngaaysdll Naay,2520 Harrison Avenue,Masset, , ,250-559-4900,https://www.healthlinkbc.ca/services-and-resources/find-services, , , , ,0,0,0,0,0,0,0,0,0,0,0,Northern Health Authority,BC, ,,0,0, ,0,0,0,0, , , , , , , 
-125.242567224,50.010094613,510, ,North Island Hospital Campbell River and District,375 2nd Avenue,Campbell River, , ,250-286-7100,https://www.healthlinkbc.ca/services-and-resources/find-services, , , , ,0,0,0,0,0,0,0,0,0,0,0,Island Health,BC, ,,0,0, ,0,0,0,0, , , , , , , 
-122.792180208,49.030092483,511, ,Peace Arch Hospital,15521 Russell Avenue,White Rock, , ,604-531-5512,https://www.healthlinkbc.ca/services-and-resources/find-services, , , , ,412,0,133,0,0,0,0,0,0,0,0,Fraser Health Authority,BC, ,,0,0, ,0,0,0,0, , , , , , , 
-124.969759542,49.7125354840001,512, ,North Island Hospital Comox Valley,101 Lerwick Road,Courtenay, , ,250-331-5900,https://www.healthlinkbc.ca/services-and-resources/find-services, , , , ,0,0,0,0,0,0,0,0,0,0,0,Island Health,BC, ,,0,0, ,0,0,0,0, , , , , , , 
-119.577454854,49.4816156260001,513, ,Penticton Regional Hospital,550 Carmi Avenue,Penticton, , ,250-492-4000,https://www.healthlinkbc.ca/services-and-resources/find-services, , , , ,152,0,82,0,0,0,0,0,0,0,0,Interior Health Authority,BC, ,,0,0, ,0,0,0,0, , , , , , , 
-127.066987496,50.5813337640001,514, ,Port McNeill and District Hospital,2750 Kingcome Place,Port McNeill, , ,250-956-4461,https://www.healthlinkbc.ca/services-and-resources/find-services, , , , ,10,0,10,0,0,0,0,0,0,0,0,Island Health,BC, ,,0,0, ,0,0,0,0, , , , , , , 
-130.331456919,54.304513415,515, ,Prince Rupert Regional Hospital,1305 Summit Avenue,Prince Rupert, , ,250-624-2171,https://www.healthlinkbc.ca/services-and-resources/find-services, , , , ,28,0,28,0,0,0,0,0,0,0,0,Northern Health Authority,BC, ,,0,0, ,0,0,0,0, , , , , , , 
-127.502979205,50.7200555360001,516, ,Port Hardy Hospital,9120 Granville Street,Port Hardy, , ,250-902-6011,https://www.healthlinkbc.ca/services-and-resources/find-services, , , , ,34,0,12,0,0,0,0,0,0,0,0,Island Health,BC, ,,0,0, ,0,0,0,0, , , , , , , 
-124.518399738,49.850818098,517, ,Powell River General Hospital,5000 Joyce Avenue,Powell River, , ,604-485-3211,https://www.healthlinkbc.ca/services-and-resources/find-services, , , , ,108,0,22,0,0,0,0,0,0,0,0,Vancouver Coastal Health,BC, ,,0,0, ,0,0,0,0, , , , , , , 
-118.191494087,50.9774480950001,518, ,Queen Victoria Hospital,1200 Newlands Road,Revelstoke, , ,250-837-2131,https://www.healthlinkbc.ca/services-and-resources/find-services, , , , ,16,0,16,0,0,0,0,0,0,0,0,Interior Health Authority,BC, ,,0,0, ,0,0,0,0, , , , , , , 
-120.526758954,49.4544011190001,519, ,Princeton General Hospital,98 Ridgewood Drive,Princeton, , ,250-295-3233,https://www.healthlinkbc.ca/services-and-resources/find-services, , , , ,6,0,6,0,0,0,0,0,0,0,0,Interior Health Authority,BC, ,,0,0, ,0,0,0,0, , , , , , , 
-123.146400504,49.1688748600001,520, ,Richmond Hospital,7000 Westminster Highway,Richmond, , ,604-278-9711,https://www.healthlinkbc.ca/services-and-resources/find-services, , , , ,0,0,0,0,0,0,0,0,0,0,0,Vancouver Coastal Health,BC, ,,0,0, ,0,0,0,0, , , , , , , 
-128.143173965,52.161301404,521, ,R.W. Large Memorial Hospital,88 Waglisla Street,Bella Bella, , ,250-957-2314,https://www.healthlinkbc.ca/services-and-resources/find-services, , , , ,0,0,0,0,0,0,0,0,0,0,0,Vancouver Coastal Health,BC, ,,0,0, ,0,0,0,0, , , , , , , 
-122.629597082,49.2156000480001,522, ,Ridge Meadows Hospital,11666 Laity Street,Maple Ridge, , ,604-463-4111,https://www.healthlinkbc.ca/services-and-resources/find-services, , , , ,0,0,0,0,0,0,0,0,0,0,0,Fraser Health Authority,BC, ,,0,0, ,0,0,0,0, , , , , , , 
-123.327388314,48.4331436140001,523, ,Royal Jubilee Hospital,1952 Bay Street,Victoria, , ,250-370-8000,https://www.healthlinkbc.ca/services-and-resources/find-services, , , , ,486,0,370,0,0,0,0,0,0,0,0,Island Health,BC, ,,0,0, ,0,0,0,0, , , , , , , 
-120.333672,50.671152,524, ,Royal Inland Hospital,311 Columbia Street,Kamloops, , ,250-374-5111,https://www.healthlinkbc.ca/services-and-resources/find-services, , , , ,274,0,181,0,0,0,0,0,0,0,0,Interior Health Authority,BC, ,,0,0, ,0,0,0,0, , , , , , , 
-122.891063231,49.2265833550001,525, ,Royal Columbian Hospital,330 East Columbia Street,New Westminster, , ,604-520-4253,https://www.healthlinkbc.ca/services-and-resources/find-services, , , , ,454,0,356,0,0,0,0,0,0,0,0,Fraser Health Authority,BC, ,,0,0, ,0,0,0,0, , , , , , , 
-119.539120233,49.1834655910001,526, ,South Okanagan General Hospital,911 McKinney Road,Oliver, , ,250-498-5000,https://www.healthlinkbc.ca/services-and-resources/find-services, , , , ,18,0,18,0,0,0,0,0,0,0,0,Interior Health Authority,BC, ,,0,0, ,0,0,0,0, , , , , , , 
-123.409462386,48.5959166370001,527, ,Saanich Peninsula Hospital,2166 Mount Newton Cross Road,Saanichton, , ,250-544-7676,https://www.healthlinkbc.ca/services-and-resources/find-services, , , , ,202,0,59,0,0,0,0,0,0,0,0,Island Health,BC, ,,0,0, ,0,0,0,0, , , , , , , 
-123.749140679,49.475701127,528, ,Sechelt Hospital,5544 Sunshine Coast Highway,Sechelt, , ,604-885-2224,https://www.healthlinkbc.ca/services-and-resources/find-services, , , , ,0,0,0,0,0,0,0,0,0,0,0,Vancouver Coastal Health,BC, ,,0,0, ,0,0,0,0, , , , , , , 
-123.141248445,49.6978157140001,529, ,Squamish General Hospital,38140 Behrner Drive,Squamish, , ,604-892-5211,https://www.healthlinkbc.ca/services-and-resources/find-services, , , , ,21,0,21,0,0,0,0,0,0,0,0,Vancouver Coastal Health,BC, ,,0,0, ,0,0,0,0, , , , , , , 
-119.274403745,50.7041845320001,530, ,Shuswap Lake General Hospital,601 10th Street NE,Salmon Arm, , ,250-833-3600,https://www.healthlinkbc.ca/services-and-resources/find-services, , , , ,48,0,40,0,0,0,0,0,0,0,0,Interior Health Authority,BC, ,,0,0, ,0,0,0,0, , , , , , , 
-124.010552498,54.028970846,531, ,St. John Hospital,3255 Hospital Road,Vanderhoof, , ,250-567-2211,https://www.healthlinkbc.ca/services-and-resources/find-services, , , , ,18,0,18,0,0,0,0,0,0,0,0,Northern Health Authority,BC, ,,0,0, ,0,0,0,0, , , , , , , 
-123.128037653,49.2805182590001,532, ,St. Paul's Hospital,1081 Burrard Street,Vancouver, , ,604-682-2344,https://www.healthlinkbc.ca/services-and-resources/find-services, , , , ,0,0,0,0,0,0,0,0,0,0,0,Providence Health Care Society,BC, ,,0,0, ,0,0,0,0, , , , , , , 
-125.90858094,49.1514300150001,533, ,Tofino General Hospital,261 Neill Street,Tofino, , ,250-725-4010,https://www.healthlinkbc.ca/services-and-resources/find-services, , , , ,12,0,12,0,0,0,0,0,0,0,0,Island Health,BC, ,,0,0, ,0,0,0,0, , , , , , , 
-124.242031531,54.4403068730001,534, ,Stuart Lake Hospital,600 Stuart Drive East,Fort St James, , ,250-996-8201,https://www.healthlinkbc.ca/services-and-resources/find-services, , , , ,3,0,3,0,0,0,0,0,0,0,0,Northern Health Authority,BC, ,,0,0, ,0,0,0,0, , , , , , , 
-122.764232614,53.9117045250001,535, ,The University Hospital of Northern British Columbia,1475 Edmonton Street,Prince George, , ,250-565-2000,https://www.healthlinkbc.ca/services-and-resources/find-services, , , , ,0,0,0,0,0,0,0,0,0,0,0,Northern Health Authority,BC, ,,0,0, ,0,0,0,0, , , , , , , 
-122.842543999,49.1763034320001,536, ,Surrey Memorial Hospital,13750 96th Avenue,Surrey, , ,604-581-2211,https://www.healthlinkbc.ca/services-and-resources/find-services, , , , ,692,0,496,0,0,0,0,0,0,0,0,Fraser Health Authority,BC, ,,0,0, ,0,0,0,0, , , , , , , 
-123.246042239,49.2641599620001,537, ,UBC Hospital,2255 Wesbrook Mall,Vancouver, , ,604-822-7121,https://www.healthlinkbc.ca/services-and-resources/find-services, , , , ,336,0,42,0,0,0,0,0,0,0,0,Vancouver Coastal Health,BC, ,,0,0, ,0,0,0,0, , , , , , , 
-123.118569605,49.261160159,538, ,Vancouver General Hospital,2785 Ash Street,Vancouver, , ,604-875-4111,https://www.healthlinkbc.ca/services-and-resources/find-services, , , , ,1015,0,687,0,0,0,0,0,0,0,0,Vancouver Coastal Health,BC, ,,0,0, ,0,0,0,0, , , , , , , 
-119.27264861,50.2571299640001,539, ,Vernon Jubilee Hospital,2101 32nd Street,Vernon, , ,250-545-2211,https://www.healthlinkbc.ca/services-and-resources/find-services, , , , ,192,0,150,0,0,0,0,0,0,0,0,Interior Health Authority,BC, ,,0,0, ,0,0,0,0, , , , , , , 
-123.432759226,48.466811454,540, ,Victoria General Hospital,1 Hospital Way,Victoria, , ,250-727-4212,https://www.healthlinkbc.ca/services-and-resources/find-services, , , , ,379,0,279,0,0,0,0,0,0,0,0,Island Health,BC, ,,0,0, ,0,0,0,0, , , , , , , 
-135.044621759,60.7184854640001,541, ,Whitehorse General Hospital,5 Hospital Road,Whitehorse, , ,867-393-8700,https://www.healthlinkbc.ca/services-and-resources/find-services, , , , ,55,0,55,0,0,0,0,0,0,0,0,Northern Health Authority,YT, ,,0,0, ,0,0,0,0, , , , , , , 
-124.782426368,49.24872177,542, ,West Coast General Hospital,3949 Port Alberni Highway,Port Alberni, , ,250-731-1370,https://www.healthlinkbc.ca/services-and-resources/find-services, , , , ,56,0,48,0,0,0,0,0,0,0,0,Island Health,BC, ,,0,0, ,0,0,0,0, , , , , , , 
-127.647016808,55.26437501,543, ,Wrinch Memorial Hospital,2510 62 Highway,Hazelton, , ,250-842-5211,https://www.healthlinkbc.ca/services-and-resources/find-services, , , , ,10,0,10,0,0,0,0,0,0,0,0,Northern Health Authority,BC, ,,0,0, ,0,0,0,0, , , , , , , 
-68.508469952,63.7498344210001,544, ,Qikiqtani General Hospital, ,Iqaluit, , ,867-975-8600,https://www.gov.nu.ca/health/information/health-centres, , , , ,0,0,0,0,0,0,0,0,0,0,0,Nunavut,NU, ,,0,0, ,0,0,0,0, , , , , , , 
-133.703292223,68.35383864,545, ,Inuvik Regional Hospital ,285 MacKenzie Rd,Inuvik, , ,867-777-8000,https://www.hss.gov.nt.ca/en/hospitals-and-health-centres, , , , ,0,0,0,0,0,0,0,0,0,0,0,Northwest Territories,NT, ,,0,0, ,0,0,0,0, , , , , , , 
-114.401347486,62.447186383,546, ,Stanton Territorial Hospital,548 Byrne Rd,Yellowknife, , ,867-669-4111,https://www.hss.gov.nt.ca/en/hospitals-and-health-centres, , , , ,80,0,34,0,0,0,0,0,0,0,0,Northwest Territories,NT, ,,0,0, ,0,0,0,0, , , , , , , 
-113.2551763,54.718178949,547, ,Athabasca Healthcare Centre,3100 48 Avenue,Athabasca, , ,780-675-6000,https://www.albertahealthservices.ca/FindHealth/results.aspx?type=facility&id=3&locationCity=Athabasca&radius=all#contentStart, , , , ,50,0,27,0,0,0,0,0,0,0,0,North Zone,AB, ,,0,0, ,0,0,0,0, , , , , , , 
-113.85344039,54.1473522,548, ,Westlock Healthcare Centre,10220 93 Street,Westlock, , ,780-349-3301,https://www.albertahealthservices.ca/FindHealth/results.aspx?type=facility&id=3&locationCity=Athabasca&radius=all#contentStart, , , , ,166,0,46,0,0,0,0,0,0,0,0,North Zone,AB, ,,0,0, ,0,0,0,0, , , , , , , 
-112.801472847,54.588304523,549, ,Boyle Healthcare Centre,5004 Lakeview Road,Boyle, , ,780-689-3731,https://www.albertahealthservices.ca/FindHealth/results.aspx?type=facility&id=3&locationCity=Athabasca&radius=all#contentStart, , , , ,20,0,20,0,0,0,0,0,0,0,0,North Zone,AB, ,,0,0, ,0,0,0,0, , , , , , , 
-111.964756905,54.7644347090001,550, ,William J. Cadzow - Lac La Biche Healthcare Centre,9110 93 Street,Lac La Biche, , ,780-623-4404,https://www.albertahealthservices.ca/FindHealth/results.aspx?type=facility&id=3&locationCity=Athabasca&radius=all#contentStart, , , , ,64,0,23,0,0,0,0,0,0,0,0,North Zone,AB, ,,0,0, ,0,0,0,0, , , , , , , 
-112.465130496,54.121216492,551, ,George McDougall - Smoky Lake Healthcare Centre,4212 55 Avenue,Smoky Lake, , ,780-656-3034,https://www.albertahealthservices.ca/FindHealth/results.aspx?type=facility&id=3&locationCity=Athabasca&radius=all#contentStart, , , , ,35,0,12,0,0,0,0,0,0,0,0,North Zone,AB, ,,0,0, ,0,0,0,0, , , , , , , 
-113.125870341,53.949720712,552, ,Redwater Health Centre,4812 58 Street,Redwater, , ,780-942-3932,https://www.albertahealthservices.ca/FindHealth/results.aspx?type=facility&id=3&locationCity=Athabasca&radius=all#contentStart, , , , ,21,0,14,0,0,0,0,0,0,0,0,North Zone,AB, ,,0,0, ,0,0,0,0, , , , , , , 
-114.400056627,54.119119901,553, ,Barrhead Healthcare Centre,4815 51 Avenue,Barrhead, , ,780-674-2221,https://www.albertahealthservices.ca/FindHealth/results.aspx?type=facility&id=3&locationCity=Athabasca&radius=all#contentStart, , , , ,34,0,34,0,0,0,0,0,0,0,0,North Zone,AB, ,,0,0, ,0,0,0,0, , , , , , , 
-112.788339816,53.762743534,554, ,Lamont Health Care Centre,5216 53 Street,Lamont, , ,780-895-2211,https://www.albertahealthservices.ca/FindHealth/results.aspx?type=facility&id=3&locationCity=Athabasca&radius=all#contentStart, , , , ,120,0,15,0,0,0,0,0,0,0,0,Central Zone,AB, ,,0,0, ,0,0,0,0, , , , , , , 
-115.805701515,60.8018524500001,555, ,Hay River Regional Health Centre, 37911 MacKenzie Highway,Hay River, , ,867-874-8000,https://www.hss.gov.nt.ca/en/hospitals-and-health-centres, , , , ,0,0,0,0,0,0,0,0,0,0,0,Northwest Territories,NT, ,,0,0, ,0,0,0,0, , , , , , , 
-113.276777522,53.5681710280001,556, ,Strathcona Community Hospital,9000 Emerald Drive,Sherwood Park, , ,780-449-5380,https://www.albertahealthservices.ca/FindHealth/results.aspx?type=facility&id=3&locationCity=Athabasca&radius=all#contentStart, , , , ,0,0,0,0,0,0,0,0,0,0,0,Edmonton Zone,AB, ,,0,0, ,0,0,0,0, , , , , , , 
-113.21086546,53.691837766,557, ,Fort Saskatchewan Community Hospital,9401 86 Avenue,Fort Saskatchewan, , ,780-998-2256,https://www.albertahealthservices.ca/FindHealth/results.aspx?type=facility&id=3&locationCity=Athabasca&radius=all#contentStart, , , , ,36,0,36,0,0,0,0,0,0,0,0,Edmonton Zone,AB, ,,0,0, ,0,0,0,0, , , , , , , 
-114.762722704,55.284097682,558, ,Salve Lake Healthcare Centre,309 6 Street NE,Slave Lake, , ,780-805-3500,https://www.albertahealthservices.ca/FindHealth/results.aspx?type=facility&id=3&locationCity=Athabasca&radius=all#contentStart, , , , ,44,0,24,0,0,0,0,0,0,0,0,North Zone,AB, ,,0,0, ,0,0,0,0, , , , , , , 
-113.625454269,53.6553771600001,559, ,Sturgeon Community Hospital,201 Boudreau Road,St. Albert, , ,780-418-8200,https://www.albertahealthservices.ca/FindHealth/results.aspx?type=facility&id=3&locationCity=Athabasca&radius=all#contentStart, , , , ,163,0,141,0,0,0,0,0,0,0,0,Edmonton Zone,AB, ,,0,0, ,0,0,0,0, , , , , , , 
-113.498136511,53.56021551,560, ,Glenrose Rehabilitation Hospital,10230 111 Avenue NW,Edmonton, , ,780-735-7999,https://www.albertahealthservices.ca/FindHealth/results.aspx?type=facility&id=3&locationCity=Athabasca&radius=all#contentStart, , , , ,244,0,0,0,0,0,0,0,0,0,0,Edmonton Zone,AB, ,,0,0, ,0,0,0,0, , , , , , , 
-113.497952299,53.5585553070001,561, ,Lois Hole Hospital for Women,10240 Kingsway Avenue,Edmonton, , ,780-735-4111,https://www.albertahealthservices.ca/FindHealth/results.aspx?type=facility&id=3&locationCity=Athabasca&radius=all#contentStart, , , , ,0,0,0,0,0,0,0,0,0,0,0,Edmonton Zone,AB, ,,0,0, ,0,0,0,0, , , , , , , 
-113.497072535,53.5567071150001,562, ,Royal Alexandra Hospital,10240 Kingsway Avenue NW,Edmonton, , ,780-735-4111,https://www.albertahealthservices.ca/FindHealth/results.aspx?type=facility&id=3&locationCity=Athabasca&radius=all#contentStart, , , , ,858,0,737,0,0,0,0,0,0,0,0,Edmonton Zone,AB, ,,0,0, ,0,0,0,0, , , , , , , 
-113.524295834,53.520780142,563, ,Stollery Children's Hospital,8440 112 Street NW,Edmonton, , ,780-407-8822,https://www.albertahealthservices.ca/FindHealth/results.aspx?type=facility&id=3&locationCity=Athabasca&radius=all#contentStart, , , , ,0,0,0,0,0,0,0,0,0,0,0,Edmonton Zone,AB, ,,0,0, ,0,0,0,0, , , , , , , 
-113.522565102,53.520173302,564, ,Mazankowski Alberta Heart Institute,11220 83 Avenue NW,Edmonton, , ,780-407-8822,https://www.albertahealthservices.ca/FindHealth/results.aspx?type=facility&id=3&locationCity=Athabasca&radius=all#contentStart, , , , ,0,0,0,0,0,0,0,0,0,0,0,Edmonton Zone,AB, ,,0,0, ,0,0,0,0, , , , , , , 
-113.524295834,53.520780142,565, ,University of Alberta Hospital,8440 112 Street NW,Edmonton, , ,780-407-8822,https://www.albertahealthservices.ca/FindHealth/results.aspx?type=facility&id=3&locationCity=Athabasca&radius=all#contentStart, , , , ,846,0,687,0,0,0,0,0,0,0,0,Edmonton Zone,AB, ,,0,0, ,0,0,0,0, , , , , , , 
-113.61226226,53.520983105,566, ,Misericordia Community Hospital,16940 87 Avenue,Edmonton, , ,780-735-2000,https://www.albertahealthservices.ca/FindHealth/results.aspx?type=facility&id=3&locationCity=Athabasca&radius=all#contentStart, , , , ,309,0,248,0,0,0,0,0,0,0,0,Edmonton Zone,AB, ,,0,0, ,0,0,0,0, , , , , , , 
-113.530911966,53.51811379,567, ,Cross Cancer Institute,11560 University Avenue,Edmonton, , ,780-432-8771,https://www.albertahealthservices.ca/FindHealth/results.aspx?type=facility&id=3&locationCity=Athabasca&radius=all#contentStart, , , , ,55,0,55,0,0,0,0,0,0,0,0,Edmonton Zone,AB, ,,0,0, ,0,0,0,0, , , , , , , 
-115.403120866,54.7274102050001,568, ,Swan Hills Healthcare Centre,29 Freeman Drive,Swan Hills, , ,780-333-7000,https://www.albertahealthservices.ca/FindHealth/results.aspx?type=facility&id=3&locationCity=Athabasca&radius=all#contentStart, , , , ,4,0,4,0,0,0,0,0,0,0,0,North Zone,AB, ,,0,0, ,0,0,0,0, , , , , , , 
-113.976732247,53.5374919860001,569, ,WestView Health Centre - Stony Plain,4405 South Park Drive,Stony Plain, , ,780-968-3600,https://www.albertahealthservices.ca/FindHealth/results.aspx?type=facility&id=3&locationCity=Athabasca&radius=all#contentStart, , , , ,69,0,29,0,0,0,0,0,0,0,0,Edmonton Zone,AB, ,,0,0, ,0,0,0,0, , , , , , , 
-115.131527946,53.9485595900001,570, ,Mayerthorpe Healthcare Centre,4417 45 Street,Mayerthorpe, , ,780-786-2261,https://www.albertahealthservices.ca/FindHealth/results.aspx?type=facility&id=3&locationCity=Athabasca&radius=all#contentStart, , , , ,55,0,25,0,0,0,0,0,0,0,0,North Zone,AB, ,,0,0, ,0,0,0,0, , , , , , , 
-113.801792689,55.9429381150001,571, ,Wabasca / Desmarais Health Care Centre,881 Mistassiniy Road,Wabasca, , ,780-891-3007,https://www.albertahealthservices.ca/FindHealth/results.aspx?type=facility&id=3&locationCity=Athabasca&radius=all#contentStart, , , , ,10,0,10,0,0,0,0,0,0,0,0,North Zone,AB, ,,0,0, ,0,0,0,0, , , , , , , 
-111.290434639,53.988755837,572, ,St. Therese - St. Paul Healthcare Centre,4713 48 Avenue,St. Paul, , ,780-645-3331,https://www.albertahealthservices.ca/FindHealth/results.aspx?type=facility&id=3&locationCity=Athabasca&radius=all#contentStart, , , , ,70,0,30,0,0,0,0,0,0,0,0,North Zone,AB, ,,0,0, ,0,0,0,0, , , , , , , 
-111.731782803,53.7135146630001,573, ,Two Hills Health Centre,4401 53 Avenue,Two Hills, , ,780-657-3344,https://www.albertahealthservices.ca/FindHealth/results.aspx?type=facility&id=3&locationCity=Athabasca&radius=all#contentStart, , , , ,83,0,15,0,0,0,0,0,0,0,0,Central Zone,AB, ,,0,0, ,0,0,0,0, , , , , , , 
-113.730905845,53.351485057,574, ,Devon General Hospital,101 Erie Street S,Devon, , ,780-342-7000,https://www.albertahealthservices.ca/FindHealth/results.aspx?type=facility&id=3&locationCity=Athabasca&radius=all#contentStart, , , , ,24,0,10,0,0,0,0,0,0,0,0,Edmonton Zone,AB, ,,0,0, ,0,0,0,0, , , , , , , 
-112.651174786,53.3725319530001,575, ,Tofield Health Centre,5543 44 Street,Tofield, , ,780-662-3263,https://www.albertahealthservices.ca/FindHealth/results.aspx?type=facility&id=3&locationCity=Athabasca&radius=all#contentStart, , , , ,66,0,16,0,0,0,0,0,0,0,0,Central Zone,AB, ,,0,0, ,0,0,0,0, , , , , , , 
-113.545419968,53.2548073670001,576, ,Leduc Community Hospital,4210 48 Street,Leduc, , ,780-986-7711,https://www.albertahealthservices.ca/FindHealth/results.aspx?type=facility&id=3&locationCity=Athabasca&radius=all#contentStart, , , , ,74,0,74,0,0,0,0,0,0,0,0,Edmonton Zone,AB, ,,0,0, ,0,0,0,0, , , , , , , 
-112.033362508,53.4942181390001,577, ,St. Joseph's General Hospital,5241 43 Street,Vegreville, , ,780-632-2811,https://www.albertahealthservices.ca/FindHealth/results.aspx?type=facility&id=3&locationCity=Athabasca&radius=all#contentStart, , , , ,25,0,25,0,0,0,0,0,0,0,0,Central Zone,AB, ,,0,0, ,0,0,0,0, , , , , , , 
-115.674543403,54.131213421,578, ,Whitecourt Healthcare Centre,20 Sunset Boulevard,Whitecourt, , ,780-778-2285,https://www.albertahealthservices.ca/FindHealth/results.aspx?type=facility&id=3&locationCity=Athabasca&radius=all#contentStart, , , , ,22,0,22,0,0,0,0,0,0,0,0,North Zone,AB, ,,0,0, ,0,0,0,0, , , , , , , 
-110.906779315,53.8979078360001,579, ,Elk Point Healthcare Centre,5310 50 Avenue,Elk Point, , ,780-724-3847,https://www.albertahealthservices.ca/FindHealth/results.aspx?type=facility&id=3&locationCity=Athabasca&radius=all#contentStart, , , , ,42,0,12,0,0,0,0,0,0,0,0,North Zone,AB, ,,0,0, ,0,0,0,0, , , , , , , 
-113.429413903,53.4619376530001,580, ,Grey Nuns Community Hospital,1100 Youville Drive NW,Edmonton, , ,780-735-7000,https://www.albertahealthservices.ca/FindHealth/results.aspx?type=facility&id=3&locationCity=Athabasca&radius=all#contentStart, , , , ,354,0,254,0,0,0,0,0,0,0,0,Edmonton Zone,AB, ,,0,0, ,0,0,0,0, , , , , , , 
-110.7392985,54.263727,581, ,Bonnyville Healthcare Centre,5001 Lakeshore Drive,Bonnyville, , ,780-826-3311,https://www.albertahealthservices.ca/FindHealth/results.aspx?type=facility&id=3&locationCity=Athabasca&radius=all#contentStart, , , , ,52,0,22,0,0,0,0,0,0,0,0,North Zone,AB, ,,0,0, ,0,0,0,0, , , , , , , 
-112.829830329,53.0141909490001,582, ,St. Mary's Hospital,4607 53 Street,Camrose, , ,780-679-6100,https://www.albertahealthservices.ca/FindHealth/results.aspx?type=facility&id=3&locationCity=Athabasca&radius=all#contentStart, , , , ,76,0,48,0,0,0,0,0,0,0,0,Central Zone,AB, ,,0,0, ,0,0,0,0, , , , , , , 
-113.368097944,52.986644276,583, ,Wetaskiwin Hospital and Care Centre,6910 47 Street,Wetaskiwin, , ,780-361-7100,https://www.albertahealthservices.ca/FindHealth/results.aspx?type=facility&id=3&locationCity=Athabasca&radius=all#contentStart, , , , ,176,0,54,0,0,0,0,0,0,0,0,Central Zone,AB, ,,0,0, ,0,0,0,0, , , , , , , 
-114.96968135,53.2117963580001,584, ,Drayton Valley Hospital and Care Centre,4550 Madsen Avenue,Drayton Valley, , ,780-542-5321,https://www.albertahealthservices.ca/FindHealth/results.aspx?type=facility&id=3&locationCity=Athabasca&radius=all#contentStart, , , , ,86,0,36,0,0,0,0,0,0,0,0,Central Zone,AB, ,,0,0, ,0,0,0,0, , , , , , , 
-111.776523967,53.1002908310001,585, ,Viking Health Centre,5110 57 Avenue,Viking, , ,780-336-4786,https://www.albertahealthservices.ca/FindHealth/results.aspx?type=facility&id=3&locationCity=Athabasca&radius=all#contentStart, , , , ,16,0,16,0,0,0,0,0,0,0,0,Central Zone,AB, ,,0,0, ,0,0,0,0, , , , , , , 
-110.19666309,54.4684718340001,586, ,Cold Lake Healthcare Centre,314 25 Street,Cold Lake, , ,780-639-3322,https://www.albertahealthservices.ca/FindHealth/results.aspx?type=facility&id=3&locationCity=Athabasca&radius=all#contentStart, , , , ,55,0,24,0,0,0,0,0,0,0,0,North Zone,AB, ,,0,0, ,0,0,0,0, , , , , , , 
-112.273538983,52.8693198980001,587, ,Daysland Health Centre,5920 51 Avenue,Daysland, , ,780-374-3746,https://www.albertahealthservices.ca/FindHealth/results.aspx?type=facility&id=3&locationCity=Athabasca&radius=all#contentStart, , , , ,26,0,26,0,0,0,0,0,0,0,0,Central Zone,AB, ,,0,0, ,0,0,0,0, , , , , , , 
-116.454836113,55.431568397,588, ,High Prairie Health Complex,5101 38 Street,High Prairie, , ,780-523-6440,https://www.albertahealthservices.ca/FindHealth/results.aspx?type=facility&id=3&locationCity=Athabasca&radius=all#contentStart, , , , ,25,0,25,0,0,0,0,0,0,0,0,North Zone,AB, ,,0,0, ,0,0,0,0, , , , , , , 
-113.589836631,52.6846813070001,589, ,Ponoka Hospital and Care Centre,5800 57 Avenue,Ponoka, , ,403-783-3341,https://www.albertahealthservices.ca/FindHealth/results.aspx?type=facility&id=3&locationCity=Athabasca&radius=all#contentStart, , , , ,57,0,29,0,0,0,0,0,0,0,0,Central Zone,AB, ,,0,0, ,0,0,0,0, , , , , , , 
-116.801432935,54.404675185,590, ,Fox Creek Healthcare Centre,600 3 Street,Fox Creek, , ,780-622-3545,https://www.albertahealthservices.ca/FindHealth/results.aspx?type=facility&id=3&locationCity=Athabasca&radius=all#contentStart, , , , ,4,0,4,0,0,0,0,0,0,0,0,North Zone,AB, ,,0,0, ,0,0,0,0, , , , , , , 
-110.872467373,53.3554692120001,591, ,Vermilion Health Centre,5720 50 Avenue,Vermilion, , ,780-853-5305,https://www.albertahealthservices.ca/FindHealth/results.aspx?type=facility&id=3&locationCity=Athabasca&radius=all#contentStart, , , , ,25,0,25,0,0,0,0,0,0,0,0,Central Zone,AB, ,,0,0, ,0,0,0,0, , , , , , , 
-111.85924571,52.7887157430001,592, ,Killam Health Care Centre,5203 49 Avenue,Killam, , ,780-385-3741,https://www.albertahealthservices.ca/FindHealth/results.aspx?type=facility&id=3&locationCity=Athabasca&radius=all#contentStart, , , , ,50,0,5,0,0,0,0,0,0,0,0,Central Zone,AB, ,,0,0, ,0,0,0,0, , , , , , , 
-116.406678075,53.5913019880001,593, ,Edson Healthcare Centre,3837 6 Avenue,Edson, , ,780-723-3331,https://www.albertahealthservices.ca/FindHealth/results.aspx?type=facility&id=3&locationCity=Athabasca&radius=all#contentStart, , , , ,22,0,22,0,0,0,0,0,0,0,0,North Zone,AB, ,,0,0, ,0,0,0,0, , , , , , , 
-114.246251594,52.6401363850001,594, ,Rimbey Hospital and Care Centre,5228 50 Avenue,Rimbey, , ,403-843-2271,https://www.albertahealthservices.ca/FindHealth/results.aspx?type=facility&id=3&locationCity=Athabasca&radius=all#contentStart, , , , ,107,0,23,0,0,0,0,0,0,0,0,Central Zone,AB, ,,0,0, ,0,0,0,0, , , , , , , 
-113.740708475,52.4606739330001,595, ,Lacombe Hospital and Care Centre,5430 47 Avenue,Lacombe, , ,403-782-3336,https://www.albertahealthservices.ca/FindHealth/results.aspx?type=facility&id=3&locationCity=Athabasca&radius=all#contentStart, , , , ,110,0,31,0,0,0,0,0,0,0,0,Central Zone,AB, ,,0,0, ,0,0,0,0, , , , , , , 
-111.36180577,56.71632536,596, ,Northern Lights Regional Health Centre,7 Hospital Street,Fort McMurray, , ,780-791-6161,https://www.albertahealthservices.ca/FindHealth/results.aspx?type=facility&id=3&locationCity=Athabasca&radius=all#contentStart, , , , ,136,0,76,0,0,0,0,0,0,0,0,North Zone,AB, ,,0,0, ,0,0,0,0, , , , , , , 
-116.91416339,55.710394116,597, ,Sacred Heart Community Health Centre,350 3 Avenue NW,McLennan, , ,780-324-3730,https://www.albertahealthservices.ca/FindHealth/results.aspx?type=facility&id=3&locationCity=Athabasca&radius=all#contentStart, , , , ,20,0,20,0,0,0,0,0,0,0,0,North Zone,AB, ,,0,0, ,0,0,0,0, , , , , , , 
-110.865730525,52.8409724420001,598, ,Wainwright Health Centre,530 6 Avenue,Wainwright, , ,780-842-3324,https://www.albertahealthservices.ca/FindHealth/results.aspx?type=facility&id=3&locationCity=Athabasca&radius=all#contentStart, , , , ,94,0,25,0,0,0,0,0,0,0,0,Central Zone,AB, ,,0,0, ,0,0,0,0, , , , , , , 
-111.30777159,52.668981339,599, ,Hardisty Health Centre,4531 47 Avenue,Hardisty, , ,780-888-3742,https://www.albertahealthservices.ca/FindHealth/results.aspx?type=facility&id=3&locationCity=Athabasca&radius=all#contentStart, , , , ,20,0,5,0,0,0,0,0,0,0,0,Central Zone,AB, ,,0,0, ,0,0,0,0, , , , , , , 
-112.723399606,52.3235451830001,600, ,Stettler Hospital and Care Centre,5912 47 Avenue,Stettler, , ,403-742-7400,https://www.albertahealthservices.ca/FindHealth/results.aspx?type=facility&id=3&locationCity=Athabasca&radius=all#contentStart, , , , ,76,0,30,0,0,0,0,0,0,0,0,Central Zone,AB, ,,0,0, ,0,0,0,0, , , , , , , 
-111.90740306,52.2235220310001,601, ,Our Lady of the Rosary Hospital,5402 47 Street,Castor, , ,403-882-3434,https://www.albertahealthservices.ca/FindHealth/results.aspx?type=facility&id=3&locationCity=Athabasca&radius=all#contentStart, , , , ,27,0,5,0,0,0,0,0,0,0,0,Central Zone,AB, ,,0,0, ,0,0,0,0, , , , , , , 
-113.817461847,52.2606472190001,602, ,Red Deer Regional Hospital Centre,3942 50A Avenue,Red Deer, , ,403-343-4422,https://www.albertahealthservices.ca/FindHealth/results.aspx?type=facility&id=3&locationCity=Athabasca&radius=all#contentStart, , , , ,370,0,267,0,0,0,0,0,0,0,0,Central Zone,AB, ,,0,0, ,0,0,0,0, , , , , , , 
-117.273171706,55.0666532590001,603, ,Valleyview Health Centre,4802 Highway Street E,Valleyview, , ,780-524-3356,https://www.albertahealthservices.ca/FindHealth/results.aspx?type=facility&id=3&locationCity=Athabasca&radius=all#contentStart, , , , ,45,0,20,0,0,0,0,0,0,0,0,North Zone,AB, ,,0,0, ,0,0,0,0, , , , , , , 
-114.920390645,52.3785160800001,604, ,Rocky Mountain House Health Centre,5016 52 Avenue,Rocky Mountain House, , ,403-845-3347,https://www.albertahealthservices.ca/FindHealth/results.aspx?type=facility&id=3&locationCity=Athabasca&radius=all#contentStart, , , , ,31,0,31,0,0,0,0,0,0,0,0,Central Zone,AB, ,,0,0, ,0,0,0,0, , , , , , , 
-113.951619,52.019523,605, ,Innisfail Health Centre,5023 42 Street,Innisfail, , ,403-227-7800,https://www.albertahealthservices.ca/FindHealth/results.aspx?type=facility&id=3&locationCity=Athabasca&radius=all#contentStart, , , , ,106,0,28,0,0,0,0,0,0,0,0,Central Zone,AB, ,,0,0, ,0,0,0,0, , , , , , , 
-117.35419888,56.2303132150001,606, ,Peace River Community Health Centre,10101 68 Street,Peace River, , ,780-624-7500,https://www.albertahealthservices.ca/FindHealth/results.aspx?type=facility&id=3&locationCity=Athabasca&radius=all#contentStart, , , , ,71,0,31,0,0,0,0,0,0,0,0,North Zone,AB, ,,0,0, ,0,0,0,0, , , , , , , 
-117.585201857,53.398190722,607, ,Hinton Healthcare Centre,1280 Switzer Drive,Hinton, , ,780-865-3333,https://www.albertahealthservices.ca/FindHealth/results.aspx?type=facility&id=3&locationCity=Athabasca&radius=all#contentStart, , , , ,23,0,23,0,0,0,0,0,0,0,0,North Zone,AB, ,,0,0, ,0,0,0,0, , , , , , , 
-114.117744478,51.801435461,608, ,Olds Hospital and Care Centre,3901 57 Avenue,Olds, , ,403-556-3381,https://www.albertahealthservices.ca/FindHealth/results.aspx?type=facility&id=3&locationCity=Athabasca&radius=all#contentStart, , , , ,83,0,33,0,0,0,0,0,0,0,0,Central Zone,AB, ,,0,0, ,0,0,0,0, , , , , , , 
-110.264810693,52.3579176210001,609, ,Provost Health Centre,5002 54 Avenue,Provost, , ,780-753-2291,https://www.albertahealthservices.ca/FindHealth/results.aspx?type=facility&id=3&locationCity=Athabasca&radius=all#contentStart, , , , ,62,0,15,0,0,0,0,0,0,0,0,Central Zone,AB, ,,0,0, ,0,0,0,0, , , , , , , 
-117.62717484,56.1902009120001,610, ,Grimshaw / Berwyn and District Community Health Centre,5621 Wilcox Avenue,Grimshaw, , ,780-332-6500,https://www.albertahealthservices.ca/FindHealth/results.aspx?type=facility&id=3&locationCity=Athabasca&radius=all#contentStart, , , , ,19,0,0,0,0,0,0,0,0,0,0,North Zone,AB, ,,0,0, ,0,0,0,0, , , , , , , 
-111.459148006,52.0962498490001,611, ,Coronation Hospital and Care Centre,5000 Municipal Road,Coronation, , ,403-578-3803,https://www.albertahealthservices.ca/FindHealth/results.aspx?type=facility&id=3&locationCity=Athabasca&radius=all#contentStart, , , , ,33,0,10,0,0,0,0,0,0,0,0,Central Zone,AB, ,,0,0, ,0,0,0,0, , , , , , , 
-114.635641381,51.8075839900001,612, ,Sundre Hospital and Care Centre,709 1 Street NE,Sundre, , ,403-638-3033,https://www.albertahealthservices.ca/FindHealth/results.aspx?type=facility&id=3&locationCity=Athabasca&radius=all#contentStart, , , , ,23,0,14,0,0,0,0,0,0,0,0,Central Zone,AB, ,,0,0, ,0,0,0,0, , , , , , , 
-110.781957283,52.0096561990001,613, ,Consort Hospital and Care Centre,5402 52 Avenue,Consort, , ,403-577-3555,https://www.albertahealthservices.ca/FindHealth/results.aspx?type=facility&id=3&locationCity=Athabasca&radius=all#contentStart, , , , ,20,0,5,0,0,0,0,0,0,0,0,Central Zone,AB, ,,0,0, ,0,0,0,0, , , , , , , 
-114.123697572,51.661803069,614, ,Didsbury District Health Services,1210 20 Avenue,Didsbury, , ,403-335-9393,https://www.albertahealthservices.ca/FindHealth/results.aspx?type=facility&id=3&locationCity=Athabasca&radius=all#contentStart, , , , ,37,0,16,0,0,0,0,0,0,0,0,Calgary Zone,AB, ,,0,0, ,0,0,0,0, , , , , , , 
-113.25108807,51.708347088,615, ,Three Hills Health Centre,1504 2 Street N,Three Hills, , ,403-443-2444,https://www.albertahealthservices.ca/FindHealth/results.aspx?type=facility&id=3&locationCity=Athabasca&radius=all#contentStart, , , , ,45,0,21,0,0,0,0,0,0,0,0,Central Zone,AB, ,,0,0, ,0,0,0,0, , , , , , , 
-118.384849653,56.0716036570001,616, ,Fairview Health Complex,10628 110 Street,Fairview, , ,780-835-6100,https://www.albertahealthservices.ca/FindHealth/results.aspx?type=facility&id=3&locationCity=Athabasca&radius=all#contentStart, , , , ,92,0,25,0,0,0,0,0,0,0,0,North Zone,AB, ,,0,0, ,0,0,0,0, , , , , , , 
-118.786381687,55.175162044,617, ,Queen Elizabeth II Hospital,10409 98 Street,Grande Prairie, , ,780-538-7100,https://www.albertahealthservices.ca/FindHealth/results.aspx?type=facility&id=3&locationCity=Athabasca&radius=all#contentStart, , , , ,161,0,115,0,0,0,0,0,0,0,0,North Zone,AB, ,,0,0, ,0,0,0,0, , , , , , , 
-112.725870108,51.4700828680001,618, ,Drumheller Health Centre,351 9 Street NW,Drumheller, , ,403-823-6500,https://www.albertahealthservices.ca/FindHealth/results.aspx?type=facility&id=3&locationCity=Athabasca&radius=all#contentStart, , , , ,133,0,33,0,0,0,0,0,0,0,0,Central Zone,AB, ,,0,0, ,0,0,0,0, , , , , , , 
-118.838311128,55.7769903180001,619, ,Central Peace Health Complex,5010 45 Avenue,Spirit River, , ,780-864-3993,https://www.albertahealthservices.ca/FindHealth/results.aspx?type=facility&id=3&locationCity=Athabasca&radius=all#contentStart, , , , ,28,0,12,0,0,0,0,0,0,0,0,North Zone,AB, ,,0,0, ,0,0,0,0, , , , , , , 
-118.084407036,52.87604206,620, ,Seton - Jasper Healthcare Centre,518 Robson Street,Jasper, , ,780-852-3344,https://www.albertahealthservices.ca/FindHealth/results.aspx?type=facility&id=3&locationCity=Athabasca&radius=all#contentStart, , , , ,11,0,11,0,0,0,0,0,0,0,0,North Zone,AB, ,,0,0, ,0,0,0,0, , , , , , , 
-117.6211717,56.927962441,621, ,Manning Community Health Centre,600 2 Street NE,Manning, , ,780-836-3391,https://www.albertahealthservices.ca/FindHealth/results.aspx?type=facility&id=3&locationCity=Athabasca&radius=all#contentStart, , , , ,27,0,11,0,0,0,0,0,0,0,0,North Zone,AB, ,,0,0, ,0,0,0,0, , , , , , , 
-111.927735342,51.650322712,622, ,Hanna Health Centre,904 Centre Street N,Hanna, , ,403-854-3331,https://www.albertahealthservices.ca/FindHealth/results.aspx?type=facility&id=3&locationCity=Athabasca&radius=all#contentStart, , , , ,17,0,17,0,0,0,0,0,0,0,0,Central Zone,AB, ,,0,0, ,0,0,0,0, , , , , , , 
-119.425013384,55.2137610450001,623, ,Beaverlodge Municipal Hospital,422 10A Street,Beaverlodge, , ,780-354-2136,https://www.albertahealthservices.ca/FindHealth/results.aspx?type=facility&id=3&locationCity=Athabasca&radius=all#contentStart, , , , ,18,0,18,0,0,0,0,0,0,0,0,North Zone,AB, ,,0,0, ,0,0,0,0, , , , , , , 
-119.12019072,53.891348167,624, ,Grande Cache Community Health Complex,10200 Shand Avenue,Grande Cache, , ,780-827-3701,https://www.albertahealthservices.ca/FindHealth/results.aspx?type=facility&id=3&locationCity=Athabasca&radius=all#contentStart, , , , ,12,0,12,0,0,0,0,0,0,0,0,North Zone,AB, ,,0,0, ,0,0,0,0, , , , , , , 
-114.148779053,51.0743272230001,625, ,Alberta Children's Hospital,28 Oki Drive NW,Calgary, , ,403-955-7211,https://www.albertahealthservices.ca/FindHealth/results.aspx?type=facility&id=3&locationCity=Athabasca&radius=all#contentStart, , , , ,141,0,37,0,0,0,0,0,0,0,0,Calgary Zone,AB, ,,0,0, ,0,0,0,0, , , , , , , 
-114.134549245,51.065971473,626, ,Foothills Medical Centre,1403 29 Street NW,Calgary, , ,403-944-1110,https://www.albertahealthservices.ca/FindHealth/results.aspx?type=facility&id=3&locationCity=Athabasca&radius=all#contentStart, , , , ,1065,0,886,0,0,0,0,0,0,0,0,Calgary Zone,AB, ,,0,0, ,0,0,0,0, , , , , , , 
-113.983870681,51.0788351520001,627, ,Peter Lougheed Centre,3500 26 Avenue NE,Calgary, , ,403-943-4555,https://www.albertahealthservices.ca/FindHealth/results.aspx?type=facility&id=3&locationCity=Athabasca&radius=all#contentStart, , , , ,497,0,336,0,0,0,0,0,0,0,0,Calgary Zone,AB, ,,0,0, ,0,0,0,0, , , , , , , 
-113.387258729,51.0607783470001,628, ,Strathmore District Health Services,200 Brent Boulevard,Strathmore, , ,403-361-7000,https://www.albertahealthservices.ca/FindHealth/results.aspx?type=facility&id=3&locationCity=Athabasca&radius=all#contentStart, , , , ,23,0,23,0,0,0,0,0,0,0,0,Calgary Zone,AB, ,,0,0, ,0,0,0,0, , , , , , , 
-114.134031559,51.063201334,629, ,Tom Baker Cancer Centre,1331 29 Street NW,Calgary, , ,403-521-3723,https://www.albertahealthservices.ca/FindHealth/results.aspx?type=facility&id=3&locationCity=Athabasca&radius=all#contentStart, , , , ,0,0,0,0,0,0,0,0,0,0,0,Calgary Zone,AB, ,,0,0, ,0,0,0,0, , , , , , , 
-114.098029986,50.9903525070001,630, ,Rockyview General Hospital,7007 14 Street SW,Calgary, , ,403-943-3000,https://www.albertahealthservices.ca/FindHealth/results.aspx?type=facility&id=3&locationCity=Athabasca&radius=all#contentStart, , , , ,593,0,433,0,0,0,0,0,0,0,0,Calgary Zone,AB, ,,0,0, ,0,0,0,0, , , , , , , 
-115.57627649,51.1790183270001,631, ,Mineral Springs Hospital,305 Lynx Street,Banff, , ,403-762-2222,https://www.albertahealthservices.ca/FindHealth/results.aspx?type=facility&id=3&locationCity=Athabasca&radius=all#contentStart, , , , ,47,0,22,0,0,0,0,0,0,0,0,Calgary Zone,AB, ,,0,0, ,0,0,0,0, , , , , , , 
-115.350514873,51.0929629550001,632, ,Canmore General Hospital,1100 Hospital Place,Canmore, , ,403-678-5536,https://www.albertahealthservices.ca/FindHealth/results.aspx?type=facility&id=3&locationCity=Athabasca&radius=all#contentStart, , , , ,44,0,21,0,0,0,0,0,0,0,0,Calgary Zone,AB, ,,0,0, ,0,0,0,0, , , , , , , 
-113.951788091,50.88175691,633, ,South Health Campus,4448 Front Street SE,Calgary, , ,403-956-1111,https://www.albertahealthservices.ca/FindHealth/results.aspx?type=facility&id=3&locationCity=Athabasca&radius=all#contentStart, , , , ,252,0,192,0,0,0,0,0,0,0,0,Calgary Zone,AB, ,,0,0, ,0,0,0,0, , , , , , , 
-110.47935677,51.351243879,634, ,Big Country Hospital,312 3 Street E,Oyen, , ,403-664-4300,https://www.albertahealthservices.ca/FindHealth/results.aspx?type=facility&id=3&locationCity=Athabasca&radius=all#contentStart, , , , ,40,0,10,0,0,0,0,0,0,0,0,South Zone,AB, ,,0,0, ,0,0,0,0, , , , , , , 
-112.461448931,50.789744092,635, ,Bassano Health Centre,608 5 Avenue,Bassano, , ,403-641-6100,https://www.albertahealthservices.ca/FindHealth/results.aspx?type=facility&id=3&locationCity=Athabasca&radius=all#contentStart, , , , ,12,0,4,0,0,0,0,0,0,0,0,South Zone,AB, ,,0,0, ,0,0,0,0, , , , , , , 
-116.01232135,58.3857082390001,636, ,St. Theresa General Hospital,4506 46 Avenue,Fort Vermilion, , ,780-927-3761,https://www.albertahealthservices.ca/FindHealth/results.aspx?type=facility&id=3&locationCity=Athabasca&radius=all#contentStart, , , , ,34,0,26,0,0,0,0,0,0,0,0,North Zone,AB, ,,0,0, ,0,0,0,0, , , , , , , 
-114.235186928,50.678093876,637, ,Oilfields General Hospital,717 Government Road,Black Diamond, , ,403-933-2222,https://www.albertahealthservices.ca/FindHealth/results.aspx?type=facility&id=3&locationCity=Athabasca&radius=all#contentStart, , , , ,45,0,15,0,0,0,0,0,0,0,0,Calgary Zone,AB, ,,0,0, ,0,0,0,0, , , , , , , 
-111.889667564,50.5682228850001,638, ,Brooks Health Centre,440 3 Street E,Brooks, , ,403-501-3232,https://www.albertahealthservices.ca/FindHealth/results.aspx?type=facility&id=3&locationCity=Athabasca&radius=all#contentStart, , , , ,37,0,37,0,0,0,0,0,0,0,0,South Zone,AB, ,,0,0, ,0,0,0,0, , , , , , , 
-113.879137685,50.575567995,639, ,High River General Hospital,560 9 Avenue SW,High River, , ,403-652-2200,https://www.albertahealthservices.ca/FindHealth/results.aspx?type=facility&id=3&locationCity=Athabasca&radius=all#contentStart, , , , ,77,0,27,0,0,0,0,0,0,0,0,Calgary Zone,AB, ,,0,0, ,0,0,0,0, , , , , , , 
-117.161630032,58.5134232230001,640, ,Northwest Health Centre,11202 100 Avenue,High Level, , ,780-841-3200,https://www.albertahealthservices.ca/FindHealth/results.aspx?type=facility&id=3&locationCity=Athabasca&radius=all#contentStart, , , , ,32,0,21,0,0,0,0,0,0,0,0,North Zone,AB, ,,0,0, ,0,0,0,0, , , , , , , 
-113.582639694,50.018663104,641, ,Claresholm General Hospital,221 43 Avenue W,Claresholm, , ,403-682-3757,https://www.albertahealthservices.ca/FindHealth/results.aspx?type=facility&id=3&locationCity=Athabasca&radius=all#contentStart, , , , ,16,0,16,0,0,0,0,0,0,0,0,Calgary Zone,AB, ,,0,0, ,0,0,0,0, , , , , , , 
-112.164871603,49.7848889140001,642, ,Taber Health Centre,4326 50 Avenue,Taber, , ,403-223-7211,https://www.albertahealthservices.ca/FindHealth/results.aspx?type=facility&id=3&locationCity=Athabasca&radius=all#contentStart, , , , ,29,0,19,0,0,0,0,0,0,0,0,South Zone,AB, ,,0,0, ,0,0,0,0, , , , , , , 
-113.258651639,50.396076599,643, ,Vulcan Community Health Centre,610 Elizabeth Street S,Vulcan, , ,403-485-3333,https://www.albertahealthservices.ca/FindHealth/results.aspx?type=facility&id=3&locationCity=Athabasca&radius=all#contentStart, , , , ,23,0,8,0,0,0,0,0,0,0,0,Calgary Zone,AB, ,,0,0, ,0,0,0,0, , , , , , , 
-110.703223222,50.0352186790001,644, ,Medicine Hat Regional Hospital,666 5 Street SW,Medicine Hat, , ,403-529-8000,https://www.albertahealthservices.ca/FindHealth/results.aspx?type=facility&id=3&locationCity=Athabasca&radius=all#contentStart, , , , ,246,0,139,0,0,0,0,0,0,0,0,South Zone,AB, ,,0,0, ,0,0,0,0, , , , , , , 
-111.378470646,49.8656207830001,645, ,Bow Island Health Centre,938 Centre Street,Bow Island, , ,403-545-3200,https://www.albertahealthservices.ca/FindHealth/results.aspx?type=facility&id=3&locationCity=Athabasca&radius=all#contentStart, , , , ,30,0,10,0,0,0,0,0,0,0,0,South Zone,AB, ,,0,0, ,0,0,0,0, , , , , , , 
-112.607358739,49.7262144200001,646, ,Coaldale Health Centre,2100 11 Street,Coaldale, , ,403-345-3075,https://www.albertahealthservices.ca/FindHealth/results.aspx?type=facility&id=3&locationCity=Athabasca&radius=all#contentStart, , , , ,44,0,0,0,0,0,0,0,0,0,0,South Zone,AB, ,,0,0, ,0,0,0,0, , , , , , , 
-113.946946832,49.4932807820001,647, ,Pincher Creek Health Centre,1222 Bev McLachlin Drive,Pincher Creek, , ,403-627-1234,https://www.albertahealthservices.ca/FindHealth/results.aspx?type=facility&id=3&locationCity=Athabasca&radius=all#contentStart, , , , ,19,0,19,0,0,0,0,0,0,0,0,South Zone,AB, ,,0,0, ,0,0,0,0, , , , , , , 
-114.458478564,49.6163074360001,648, ,Crowsnest Pass Health Centre,2001 107 Street,Blairmore, , ,403-562-5011,https://www.albertahealthservices.ca/FindHealth/results.aspx?type=facility&id=3&locationCity=Athabasca&radius=all#contentStart, , , , ,74,0,16,0,0,0,0,0,0,0,0,South Zone,AB, ,,0,0, ,0,0,0,0, , , , , , , 
-112.816275476,49.6851899500001,649, ,Chinook Regional Hospital,960 19 Street S,Lethbridge, , ,403-388-6111,https://www.albertahealthservices.ca/FindHealth/results.aspx?type=facility&id=3&locationCity=Athabasca&radius=all#contentStart, , , , ,288,0,186,0,0,0,0,0,0,0,0,South Zone,AB, ,,0,0, ,0,0,0,0, , , , , , , 
-113.305744196,49.201837116,650, ,Cardston Health Centre,144 2 Street W,Cardston, , ,403-653-5234,https://www.albertahealthservices.ca/FindHealth/results.aspx?type=facility&id=3&locationCity=Athabasca&radius=all#contentStart, , , , ,31,0,19,0,0,0,0,0,0,0,0,South Zone,AB, ,,0,0, ,0,0,0,0, , , , , , , 
-112.650999984,49.464677211,651, ,Raymond Health Centre,150 N 4 Street E,Raymond, , ,403-752-5411,https://www.albertahealthservices.ca/FindHealth/results.aspx?type=facility&id=3&locationCity=Athabasca&radius=all#contentStart, , , , ,17,0,12,0,0,0,0,0,0,0,0,South Zone,AB, ,,0,0, ,0,0,0,0, , , , , , , 
-79.70315741,43.5596600980001,652, ,Trillium Health Partners - Credit Valley Hospital,2200 Eglinton Ave. W,Mississauga, , ,1-877-292-4CVH,https://www.trilliumhealthpartners.ca/ineed/directions/Pages/default.aspx, , , , ,0,0,0,0,0,0,0,0,0,0,0, ,ON, ,,0,0, ,0,0,0,0, , , , , , , 
-79.562860513,43.6093687740001,653, ,Trillium Health Partners - Queensway Health Centre,150 Sherway Drive,Toronto, , ,416.259.6671,https://www.trilliumhealthpartners.ca/ineed/directions/Pages/default.aspx, , , , ,0,0,0,0,0,0,0,0,0,0,0, ,ON, ,,0,0, ,0,0,0,0, , , , , , , 
-78.347028775,44.300081629,654, ,Peterborough Regional Health Centre,1 Hospital Dr,Peterborough, , ,705-743-2121,https://data.ontario.ca/dataset/hospital-locations, , , , ,460,0,460,0,0,0,0,0,0,0,0, ,ON, ,,0,0, ,0,0,0,0, , , , , , , 
-83.03190824,42.30831385,655, ,Windsor Regional Hospital - Ouellette Campus,1030 Ouellette Ave,Windsor, , ,519-254-5577, , , , , ,0,0,0,0,0,0,0,0,0,0,0,Windsor Regional Hospital,ON, ,,0,0, ,0,0,0,0, , , , , , , 
-82.366812244,42.5983834850001,656, ,Chatham-Kent Health Alliance - Wallaceburg Site,325 Margaret Ave,Wallacaburg, , ,519-352-6400, , , , , ,5,0,5,0,0,0,0,0,0,0,0,Chatham-Kent Health Alliance,ON, ,,0,0, ,0,0,0,0, , , , , , , 
-81.274948391,43.0123923890001,657, ,London Health Sciences Centre - University Hospital,339 Windermere Rd,London, , ,519-663-3197, , , , , ,424,0,424,0,0,0,0,0,0,0,0, ,ON, ,,0,0, ,0,0,0,0, , , , , , , 
-79.248648862,42.9788374780001,658, ,Niagara Health - Welland Site,65 Third St,Welland, , ,905-378-4647, , , , , ,0,0,0,0,0,0,0,0,0,0,0,Niagara Health System,ON, ,,0,0, ,0,0,0,0, , , , , , , 
-79.09022414,43.0942425120001,659, ,Niagara Health - Greater Niagara General Site,5546 Portage Road,Niagara Falls, , ,905-378-4647, , , , , ,0,0,0,0,0,0,0,0,0,0,0,Niagara Health System,ON, ,,0,0, ,0,0,0,0, , , , , , , 
-81.248970088,44.9861042110001,660, ,Grey Bruce Health Services - Lion's Head Hospital,22 Moore St,Lion's Head, , ,519-793-3424, , , , , ,4,0,4,0,0,0,0,0,0,0,0,Grey Bruce Health Services,ON, ,,0,0, ,0,0,0,0, , , , , , , 
-80.6502488309999,44.317844361,661, ,Grey Bruce Health Services - Markdale Hospital,55 Isla St,Markdale, , ,519-986-3040, , , , , ,14,0,14,0,0,0,0,0,0,0,0,Grey Bruce Health Services,ON, ,,0,0, ,0,0,0,0, , , , , , , 
-80.6004002669999,44.605768487,662, ,Grey Bruce Health Services - Meaford Hospital,229 Nelson St W,Meaford, , ,519-538-1311, , , , , ,15,0,15,0,0,0,0,0,0,0,0,Grey Bruce Health Services,ON, ,,0,0, ,0,0,0,0, , , , , , , 
-81.365695145,44.4938187130001,663, ,Grey Bruce Health Services - Southampton Hospital,340 High St,Southampton, , ,519-797-3230, , , , , ,15,0,15,0,0,0,0,0,0,0,0, ,ON, ,,0,0, ,0,0,0,0, , , , , , , 
-81.137978391,44.7364515100001,664, ,Grey Bruce Health Services - Wiarton Hospital,369 Mary St,Wiarton, , ,519-534-1260, , , , , ,22,0,12,0,0,0,0,0,0,0,0,Grey Bruce Health Services,ON, ,,0,0, ,0,0,0,0, , , , , , , 
-81.09326763,44.298647563,665, ,South Bruce Grey Health Centre - Chesley,39 2nd St SE,Chesley, , ,519-363-2340, , , , , ,18,0,8,0,0,0,0,0,0,0,0,South Bruce Grey Health,ON, ,,0,0, ,0,0,0,0, , , , , , , 
-80.829118638,44.1799091980001,666, ,South Bruce Grey Health Centre - Durham,320 College St N,Durham, , ,519-369-2340, , , , , ,10,0,10,0,0,0,0,0,0,0,0,South Bruce Grey Health,ON, ,,0,0, ,0,0,0,0, , , , , , , 
-81.153113646,44.1220419140001,667, ,South Bruce Grey Health Centre - Walkerton,21 McGivern St. W,Walkerton, , ,519-881-1220, , , , , ,21,0,15,0,0,0,0,0,0,0,0,South Bruce Grey Health,ON, ,,0,0, ,0,0,0,0, , , , , , , 
-76.252986589,44.9061592420001,668, ,Perth and Smiths Falls District Hospital - Perth,33 Drummond St W,Perth, , ,613-267-1500,https://www.southeasthealthline.ca/displayservice.aspx?id=73475, , , , ,95,0,89,0,0,0,0,0,0,0,0,"Leeds, Lanark, and Grenville",ON, ,,0,0, ,0,0,0,0, , , , , , , 
-80.843231755,43.8388847800001,669, ,North Wellington Health Care - Palmerston & District Hospital,500 Whites Rd,Palmerston, , ,519-343-2030, , , , , ,15,0,15,0,0,0,0,0,0,0,0, ,ON, ,,0,0, ,0,0,0,0, , , , , , , 
-76.486172455,44.2311355940001,670, ,Hotel Dieu Hospital,166 Brock Street,Kingston, , ,613-544-3400,https://kingstonhsc.ca/, , , , ,0,0,0,0,0,0,0,0,0,0,0,"Kingston, Frontenac and Lennox and Addington",ON, ,,0,0, ,0,0,0,0, , , , , , , 
-77.6285608649999,49.7569222480001,671, ,Centre de santé Isle-Dieu,130 boul Matagami CP 790,Matagami, , , ,https://matagami.com/project/sante/, , , , ,8,0,4,0,0,0,0,0,0,0,0, ,QC, ,,0,0, ,0,0,0,0, , , , , , , 
-77.364383703,44.1625827760001,672, ,Bellville General Hospital,265 Dundas Street East,Bellevill, , ,613-969-7400,https://www.qhc.on.ca/belleville-general-hospital-c22.php, , , , ,192,0,192,0,0,0,0,0,0,0,0,Hastings and Prince Edward Counties Health Unit,ON, ,,0,0, ,0,0,0,0, , , , , , , 
-77.588546842,44.1002380200001,673, ,Trenton Memorial Hospital,242 King Street,Trenton, , ,613-392-3749,https://www.qhc.on.ca/trenton-memorial-hospital-c21.php, , , , ,26,0,26,0,0,0,0,0,0,0,0,Hastings and Prince Edward Counties Health Unit,ON, ,,0,0, ,0,0,0,0, , , , , , , 
-77.1372739729999,44.015738196,674, ,Prince Edward County Memorial Hospital,403 Main Street East,Picton, , ,613-476-1008,https://www.qhc.on.ca/prince-edward-county-memorial-hospital-c20.php, , , , ,12,0,12,0,0,0,0,0,0,0,0,Hastings and Prince Edward Counties Health Unit,ON, ,,0,0, ,0,0,0,0, , , , , , , 
-77.8642025199999,45.055212451,675, ,North Hastings Hospital,1­H Manor Lane,Bancroft, , ,(613) 332-2825,https://www.qhc.on.ca/north-hastings-hospital-c19.php, , , , ,0,0,0,0,0,0,0,0,0,0,0, ,ON, ,,0,0, ,0,0,0,0, , , , , , , 
-82.147188569,42.878220508,676, ,Bluewater Health - Petrolia,450 Blanche Street,Petrolia, , , , , , , , ,0,0,0,0,0,0,0,0,0,0,0, , , ,,0,0, ,0,0,0,0, , , , , , , 
-81.188485226,42.738682785,677, , St. Joseph's Health Care London - Southwest Centre for Forensic Mental Health Care, 401 Sunset Drive,St. Thomas, , , , , , , , ,0,0,0,0,0,0,0,0,0,0,0, ,ON, ,,0,0, ,0,0,0,0, , , , , , , 
-80.385765911,43.2045770460001,678, , Brant Community Healthcare - Willet, 238 Grand River St. North,Paris, Brant Community Healthcare System, , , , , , , ,0,0,0,0,0,0,0,0,0,0,0, ,ON, ,,0,0, ,0,0,0,0, , , , , , , 
-80.412378081,43.4250215540001,679, , Grand River Hospital - Freeport, 3570 King St. East, , Grand River Hospital, , , , , , , ,0,0,0,0,0,0,0,0,0,0,0, ,ON, ,,0,0, ,0,0,0,0, , , , , , , 
-79.259063794,42.880006951,680, , Niagara Health System - Port Colborne, 260 Sugarloaf Street,Port Colborne, Niagara Health System, , , , , , , ,0,0,0,0,0,0,0,0,0,0,0, ,ON, ,,0,0, ,0,0,0,0, , , , , , , 
-78.92470607,42.9122423860001,681, , Niagara Health System - Douglas Memorial, 230 Bertie Street,Fort Erie, Niagara Health System, , , , , , , ,0,0,0,0,0,0,0,0,0,0,0, ,ON, ,,0,0, ,0,0,0,0, , , , , , , 
-79.0668222529999,43.253468937,682, , Niagara Health System - Niagara-on-the-Lake, 176 Wellington,Niagara-on-the-Lake, Niagara Health System, , , , , , , ,0,0,0,0,0,0,0,0,0,0,0, ,ON, ,,0,0, ,0,0,0,0, , , , , , , 
-79.5420228309999,43.1880878790001,683, , Hamilton Health Sciences - West Lincoln,169 Main Street East,Grimsby, Hamilton Health Sciences, , , , , , , ,0,0,0,0,0,0,0,0,0,0,0, ,ON, ,,0,0, ,0,0,0,0, , , , , , , 
-79.773750638,43.2217693470001,684, , St. Joseph's Healthcare Hamilton - King Campus, 2757 King Street East,Hamilton, St. Joseph's Healthcare Hamilton, , , , , , , ,0,0,0,0,0,0,0,0,0,0,0, ,ON, ,,0,0, ,0,0,0,0, , , , , , , 
-79.837037653,43.244847726,685, , Hamilton Health Sciences - St. Peter's Hospital, 88 Maplewood Avenue,Hamilton, Hamilton Health Sciences, , , , , , , ,0,0,0,0,0,0,0,0,0,0,0, ,ON, ,,0,0, ,0,0,0,0, , , , , , , 
-79.853895837,43.261855783,686, , Hamilton Health Sciences - General, 237 Barton St. East,Hamilton, Hamilton Health Sciences, , , , , , , ,0,0,0,0,0,0,0,0,0,0,0, ,ON, ,,0,0, ,0,0,0,0, , , , , , , 
-79.84471066,43.239769563,687, , Hamilton Health Sciences - Juravinski, 711 Concession St.,Hamilton, Hamilton Health Sciences, , , , , , , ,0,0,0,0,0,0,0,0,0,0,0, ,ON, ,,0,0, ,0,0,0,0, , , , , , , 
-79.884140449,43.2404342900001,688, , St. Joseph's Healthcare Hamilton,100 West 5th Street,Hamilton, St. Joseph's Healthcare Hamilton, , , , , , , ,0,0,0,0,0,0,0,0,0,0,0, ,ON, ,,0,0, ,0,0,0,0, , , , , , , 
-79.898208272,43.2602715460001,689, , Hamilton Health Sciences - UCC, 690 Main Street West,Hamilton, Hamilton Health Sciences, , , , , , , ,0,0,0,0,0,0,0,0,0,0,0, ,ON, ,,0,0, ,0,0,0,0, , , , , , , 
-79.86888822,43.4970104660001,690, , Halton Healthcare Services - Milton, 7030 Derry Road,Milton, Halton Healthcare Services, , , , , , , ,0,0,0,0,0,0,0,0,0,0,0, ,ON, ,,0,0, ,0,0,0,0, , , , , , , 
-79.933204167,43.6448886100001,691, , Halton Healthcare Services - Georgetown, 1 Princess Anne Dr.,Georgetown, Halton Healthcare Services, , , , , , , ,0,0,0,0,0,0,0,0,0,0,0, ,ON, ,,0,0, ,0,0,0,0, , , , , , , 
-79.750981624,43.690288077,692, , William Osler Health System - Peel Memorial, 20 Lynch Street, Brampton, William Osler Health System, , , , , , , ,0,0,0,0,0,0,0,0,0,0,0, ,ON, ,,0,0, ,0,0,0,0, , , , , , , 
-79.598286795,43.7298734060001,693, , William Osler Health System - Etobicoke, 101 Humber College Boulevard, Etobicoke, William Osler Health System, , , , , , , ,0,0,0,0,0,0,0,0,0,0,0, ,ON, ,,0,0, ,0,0,0,0, , , , , , , 
-79.525726138,43.754405944,694, , Humber River Hospital -York Finch, 2111 Finch Avenue West,Toronto, Humber River Hospital, , , , , , , ,0,0,0,0,0,0,0,0,0,0,0, ,ON, ,,0,0, ,0,0,0,0, , , , , , , 
-79.488243258,43.724080658,695, , Humber River Hospital - Wilson, 1235 Wilson Avenue,Toronto, Humber River Hospital, , , , , , , ,0,0,0,0,0,0,0,0,0,0,0, ,ON, ,,0,0, ,0,0,0,0, , , , , , , 
-79.433011111,43.6350476750001,696, , University Health Network - Bickle Centre, 130 Dunn Avenue, Toronto, University Health Network, , , , , , , ,0,0,0,0,0,0,0,0,0,0,0, ,ON, ,,0,0, ,0,0,0,0, , , , , , , 
-79.406213985,43.6534626850001,697, , University Health Network - Toronto Western, 399 Bathrust Street,Toronto, University Health Network, , , , , , , ,0,0,0,0,0,0,0,0,0,0,0, ,ON, ,,0,0, ,0,0,0,0, , , , , , , 
-79.3989593589999,43.6585773510001,698, , Centre For Addiction and Mental Health - College Street Site, 250 College Street,Toronto, Centre For Addiction and Mental Health, , , , , , , ,0,0,0,0,0,0,0,0,0,0,0, ,ON, ,,0,0, ,0,0,0,0, , , , , , , 
-79.39031426,43.6581045520001,699, , University Health Network - Princess Margaret, 610 University Avenue,Toronto, University Health Network, , , , , , , ,0,0,0,0,0,0,0,0,0,0,0, ,ON, ,,0,0, ,0,0,0,0, , , , , , , 
-79.389894141,43.656659113,700, , University Health Network - Hillcrest, 550 University Avenue, Toronto, University Health Network, , , , , , , ,0,0,0,0,0,0,0,0,0,0,0, ,ON, ,,0,0, ,0,0,0,0, , , , , , , 
-79.382364875,43.6651388860001,701, , Sunnybrook Health Sciences Centre - Holland Orthopaedic & Arthritic Centre, 43 Wellesley Street East,Toronto, Sunnybrook Health Sciences Centre, , , , , , , ,0,0,0,0,0,0,0,0,0,0,0, ,ON, ,,0,0, ,0,0,0,0, , , , , , , 
-79.355224047,43.6660633430001,702, , Sinai Health System - Bridgepoint, 14 St. Mathews Road, Toronto, Sinai Health System, , , , , , , ,0,0,0,0,0,0,0,0,0,0,0, ,ON, ,,0,0, ,0,0,0,0, , , , , , , 
-79.247327599,43.7558797410001,703, , Scarborough and Rouge Hospital - Scarborough General, 3030 Lawrence Ave. E.,Toronto, Scarborough and Rouge Hospital, , , , , , , ,0,0,0,0,0,0,0,0,0,0,0, , ON, ,,0,0, ,0,0,0,0, , , , , , , 
-79.204950632,43.7800835520001,704, , Scarborough and Rouge Hospital - Centenary, 2867 Ellesmere Road,Toronto, Scarborough and Rouge Hospital, , , , , , , ,0,0,0,0,0,0,0,0,0,0,0, , ON, ,,0,0, ,0,0,0,0, , , , , , , 
-79.4040349859999,43.787579006,705, , Sunnybrook Health Sciences Centre - St. John's Rehab, 285 Cummer Avenue, Toronto, Sunnybrook Health Sciences Centre, , , , , , , ,0,0,0,0,0,0,0,0,0,0,0, ,ON, ,,0,0, ,0,0,0,0, , , , , , , 
-79.447649149,43.7720440250001,706, , North York General Hospital - Branson Site, 555 Finch Avenue West,Toronto, North York General Hospital, , , , , , , ,0,0,0,0,0,0,0,0,0,0,0, ,ON, ,,0,0, ,0,0,0,0, , , , , , , 
-79.0171621219999,43.8369638290001,707, , Lakeridge Health - Ajax, 580 Harwood Avenue South,Ajax, Lakeridge Health, , , , , , , ,0,0,0,0,0,0,0,0,0,0,0, ,ON, ,,0,0, ,0,0,0,0, , , , , , , 
-78.6790312489999,43.9090049280001,708, , Lakeridge Health - Bowmanville," 47 Liberty St., S", Bowmanville, Lakeridge Health, , , , , , , ,0,0,0,0,0,0,0,0,0,0,0, ,ON, ,,0,0, ,0,0,0,0, , , , , , , 
-79.127381441,44.1029055830001,709, , Markham Stouffville Hospital - Uxbridge, 4 Campbell Drive, Uxbridge,Markham-Stouffville Hospital, , , , , , , ,0,0,0,0,0,0,0,0,0,0,0, ,ON, ,,0,0, ,0,0,0,0, , , , , , , 
-78.954640105,44.1053735830001,710, , Lakeridge Health - Port Perry, 451 Paxton St., Port Perry, Lakeridge Health, , , , , , , ,0,0,0,0,0,0,0,0,0,0,0, , ON, ,,0,0, ,0,0,0,0, , , , , , , 
-75.683530761,44.5920550120001,711, , Brockville General - St. Vincent De Paul, 42 Garden Street,Brockville, Brockville General Hospital, , , , , , , ,0,0,0,0,0,0,0,0,0,0,0, ,ON, ,,0,0, ,0,0,0,0, , , , , , , 
-75.665698386,44.60141565,712, , Brockville Mental Health Centre, 1804 Highway 2 East,Brockville, Royal Ottawa Health Care Group, , , , , , , ,0,0,0,0,0,0,0,0,0,0,0, ,ON, ,,0,0, ,0,0,0,0, , , , , , , 
-78.7303009679999,44.925564987,713, , Haliburton Highlands Health Services - Minden, 6 McPherson Street,Minden, Haliburton Highlands Health Services, , , , , , , ,0,0,0,0,0,0,0,0,0,0,0, ,ON, ,,0,0, ,0,0,0,0, , , , , , , 
-79.314251032,45.0473734130001,714, , Muskoka Algonquin Healthcare - Bracebridge,75 Ann Street, Bracebridge, Muskoka Algonquin Healthcare, , , , , , , ,0,0,0,0,0,0,0,0,0,0,0, ,ON, ,,0,0, ,0,0,0,0, , , , , , , 
-79.929408759,44.7694086230001,715, , Georgian Bay General Hospital - Penetanguishene, 25 Jeffery St, Penetanguishene, Georgian Bay General Hospital, , , , , , , ,0,0,0,0,0,0,0,0,0,0,0, , ON, ,,0,0, ,0,0,0,0, , , , , , , 
-82.166759966,45.737935744,716, , Manitoulin Health Centre - Mindemoya, 2120 Highway 551, Mindemoya, Manitoulin Health Centre, , , , , , , ,0,0,0,0,0,0,0,0,0,0,0, , ON, ,,0,0, ,0,0,0,0, , , , , , , 
-83.56193968,46.263046236,717, , North Shore Health Network - Thessalon, 135 Dawson Street, Thessalon, North Shore Health Network, , , , , , , ,0,0,0,0,0,0,0,0,0,0,0, , ON, ,,0,0, ,0,0,0,0, , , , , , , 
-84.035191463,46.2934670490001,718, , North Shore Health Network - Richards Landing, 1180 Richards Street,Richards Landing, , North Shore Health Network, , , , , , ,0,0,0,0,0,0,0,0,0,0,0, , ON, ,,0,0, ,0,0,0,0, , , , , , , 
-86.3754315259999,48.7189144370001,719, , North of Superior Healthcare Group - Wilson Memorial General Hospital Site, 26 Peninsula Road, Marathon, North of Superior Healthcare Group, , , , , , , ,0,0,0,0,0,0,0,0,0,0,0, ,ON, ,,0,0, ,0,0,0,0, , , , , , , 
-81.684844888,52.206660485,720, , Weeneebayko Area Health Authority - Fort Albany, 5 Airport Road, Fort Albany, Weeneebayko Area Health Authority, , , , , , , ,0,0,0,0,0,0,0,0,0,0,0, , ON, ,,0,0, ,0,0,0,0, , , , , , , 
-82.428407627,52.9245701720001,721, , Weeneebayko Area Health Authority - Attawapiskat, 972 Riverside East, Moose Factory, Weeneebayko Area Health Authority, , , , , , , ,0,0,0,0,0,0,0,0,0,0,0, , ON, ,,0,0, ,0,0,0,0, , , , , , , 
-93.842167162,48.631549928,722, , Riverside Health Care - Emo, 170 Front St,Emo, Riverside Health Care Facilities Inc, , , , , , , ,0,0,0,0,0,0,0,0,0,0,0, ,ON, ,,0,0, ,0,0,0,0, , , , , , , 
-94.56919261,48.7185466550001,723, , Riverside Health Care - Rainy River,115 Forth St,Rainy River, Riverside Health Care Facilities Inc, , , , , , , ,0,0,0,0,0,0,0,0,0,0,0, , ON, ,,0,0, ,0,0,0,0, , , , , , , 
-132.070088331,53.2550146190001,724,,Haida Gwaii Hospital and Health Centre - Xaayda Gwaay Ngaaysdll Naay,3209 Oceanview Dr Queen Charlotte BC V0T 1S0,Queen Charlotte,Northern Health,,250-559-4900,,,,,,16,0,8,,,,,,,,,,,,,,,,,,,,,,,,,,
-113.373987477,53.636583568,725,,Alberta Hospital Edmonton,"17480 Fort Road, Edmonton, Alberta T5J 2J7",Edmonton,,,403-343-4422,,,,,,,,,,,,,,,,,,AB,,,,,,,,,,,,,,,,
-114.206623367,51.1562923130001,726,,Southern Alberta Forensic Psychiatric Centre,"11333 85 Street NW, Calgary, Alberta, T3R 1J3",Calgary,,,,,,,,,,,,,,,,,,,,,AB,,,,,,,,,,,,,,,,
-113.575936,52.648905,727,,Centennial Centre For Mental Health And Brain Injury,"46 Street S, Ponoka, Alberta, T4J 1R8",Ponoka,,,403-783-7600,,,,,,,,,,,,,,,,,,AB,,,,,,,,,,,,,,,,
-100.924062028,49.8556476410001,729,,Virden Health Centre,"480 King Street, Virden, MB R0M 2C0",Virden,,,204-748-1230,,,,,,,,25,,,,,,,,,,,,,,,,,,,,,,,,,,https://www.pmh-mb.ca/index.php/8-our-locations/170-virden-health-centre
-100.697037178,51.1798206620001,730,,Grandview District Hospital,"644 Mill Street, Grandview, MB R0L 0Y0",Grandview,,,204-546-2425,https://www.prairiemountainhealth.ca/welcome-to-grandview,,,,,,,,,,,,,,,,,,,,,,,,,,,,,,,,,
-101.277312978,50.7730025990001,731,,Russell Health Centre,"427 Alexandria Avenue, Russell, MB R0J 1W0",Russell,,,204-773-2125,https://www.prairiemountainhealth.ca/welcome-to-russell,,,,,,,,,,,,,,,,,,,,,,,,,,,,,,,,,
-100.595175041,50.4388532790001,732,,Shoal Lake-Strathclair Health Centre,"526 Mary St, Shoal Lake, MB R0J 1Z0",Shoal Lake,,,204-759-2336,,,,,,,,,,,,,,,,,,,,,,,,,,,,,,,,,,
-99.356227957,49.871961947,733,,Carberry Plains Health Centre,"340 Toronto St, Carberry, MB R0K 0H0",Carberry,,,204-834-2144,https://prairiemountainhealth.ca/index.php/8-our-locations/195-carberry-plains-health-centre,,,,,,,10,,,,,,,,,,,,,,,,,,,,,,,,,,
-99.285838981,49.5594912430001,734,,Glenboro Health Centre,"219 Murray Avenue, Glenboro, MB R0K 0X0",Glenboro,,,204-827-2438,https://www.prairiemountainhealth.ca/index.php/8-our-locations/87-welcome-to-glenboro,,,,,,,,,,,,,,,,,,,,,,,,,,,,,,,,,
-100.061045919,49.2253298350001,735,,Boissevain Health Centre,"305 Mill Rd, Boissevain, MB R0K 0E0",,Boissevain,,204-534-2451,https://www.pmh-mb.ca/index.php/boissevain-health-centre,,,,,,,11,,,,,,,,,,,,,,,,,,,,,,,,,,
-100.498951951,49.1921509960001,736,,Deloraine Health Centre,"109 Kellett St. South, Deloraine, MB R0M 0M0",Deloraine,,,204-747-2745,https://www.prairiemountainhealth.ca/welcome-to-deloraine,,,,,,,,,,,,,,,,,,,,,,,,,,,,,,,,,
-100.9955239,49.271226842,737,,Melita Health Centre,"147 Summit Avenue, Melita, MB R0M 1L0",Melita,,,204-522-3403,https://www.prairiemountainhealth.ca/index.php/8-our-locations/89-welcome-to-melita,,,,,,,,,,,,,,,,,,,,,,,,,,,,,,,,,
-100.249013391,49.6146494810001,738,,Souris Health Centre,"155 Brindle Ave, Souris, MB R0K 2C0",Souris,,,204-483-2121,https://www.prairiemountainhealth.ca/souris-health-centre,,,,,,,25,,,,,,,,,,,,,,,,,,,,,,,,,,
-98.698192,49.633472,739,,Treherne - Tiger Hills Health Centre ,"J8M2+9P Treherne, Norfolk Treherne, MB",Treherne,,,204-723-2133,,,,,,,,13,,,,,,,,,,,,,,,,,,,,,,,,,,
-94.708376,56.346671,740,,Gillam Hospital,"115 Gillam Drive, Gillam, MB R0B 0L0",Gillam,,,204-652-2600,,,,,,,,7,,,,0,,,,,,,,,,,,,,,,,,,,,,
-101.043085323,56.857269767,741,,Lynn Lake Hospital,"64 Camp Street, Lunn Lake, MB, R0B 0W0",Lynn Lake,,,204-356-2474,,,,,,,,11,,,,,,,,,,,,,,,,,,,,,,,,,,
-100.016745906,54.874969622,742,,Snow Lake Health Centre,"100 Lakeshore Dr, Snow Lake, MB R0B 1M0",Snow Lake,,,204-358-2300,,,,,,2,,,,,,,,,,,,,,,,,,,,,,,,,,,,
-96.564918378,49.1362703840001,743,,Vita & District Health Centre,"217 1 Ave, Vita, MB R0A 2K0",Vita,,,204-425-3804,https://www.southernhealth.ca/en/finding-care/vita/vita-and-district-health-centre/,,,,,,,10,,,,,,,,,,,,,,,,,,,,,,,,,,
-100.589736253,50.1822830180001,744,,Hamitoa Health Centre,"177 Birch Ave E, Hamiota, MB R0M 0T0",Hamiota,,,204-764-2412,https://www.prairiemountainhealth.ca/welcome-to-hamiota,,,,,,,20,,,,,,,,,,,,,,,,,,,,,,,,,,
-100.241996729,50.0351721010001,745,,Riverdale Health Centre,"512 Quebec St, Rivers, MB R0K 1X0",Rivers,,,204-328-5321,https://www.pmh-mb.ca/index.php/rivers-riverdale-health-centre,,,,,,,14,,,,,,,,,,,,,,,,,,,,,,,,,,
